<?xml version="1.0" encoding="UTF-8" standalone="no" ?><gpx xmlns="http://www.topografix.com/GPX/1/1" xmlns:gpxx="http://www.garmin.com/xmlschemas/GpxExtensions/v3" xmlns:wptx1="http://www.garmin.com/xmlschemas/WaypointExtension/v1" xmlns:gpxtpx="http://www.garmin.com/xmlschemas/TrackPointExtension/v1" creator="eTrex 10 SEA" version="1.1" xmlns:xsi="http://www.w3.org/2001/XMLSchema-instance" xsi:schemaLocation="http://www.topografix.com/GPX/1/1 http://www.topografix.com/GPX/1/1/gpx.xsd http://www.garmin.com/xmlschemas/GpxExtensions/v3 http://www8.garmin.com/xmlschemas/GpxExtensionsv3.xsd http://www.garmin.com/xmlschemas/WaypointExtension/v1 http://www8.garmin.com/xmlschemas/WaypointExtensionv1.xsd http://www.garmin.com/xmlschemas/TrackPointExtension/v1 http://www.garmin.com/xmlschemas/TrackPointExtensionv1.xsd"><metadata><link href="http://www.garmin.com"><text>Garmin International</text></link><time>2023-12-09T06:48:37Z</time></metadata><trk><name>09-DEC-23 12:18:34</name><extensions><gpxx:TrackExtension><gpxx:DisplayColor>Cyan</gpxx:DisplayColor></gpxx:TrackExtension></extensions><trkseg><trkpt lat="15.4622080084" lon="73.7974795885"><ele>-1.79</ele><time>2023-12-09T01:47:55Z</time><extensions><gpxtpx:TrackPointExtension><gpxtpx:cad>0</gpxtpx:cad></gpxtpx:TrackPointExtension></extensions></trkpt><trkpt lat="15.4622630775" lon="73.7974633276"><ele>-2.27</ele><time>2023-12-09T01:48:04Z</time><extensions><gpxtpx:TrackPointExtension><gpxtpx:cad>0</gpxtpx:cad></gpxtpx:TrackPointExtension></extensions></trkpt><trkpt lat="15.4625351541" lon="73.7973192427"><ele>0.14</ele><time>2023-12-09T01:49:04Z</time><extensions><gpxtpx:TrackPointExtension><gpxtpx:cad>0</gpxtpx:cad></gpxtpx:TrackPointExtension></extensions></trkpt><trkpt lat="15.4636188503" lon="73.7953595538"><ele>-0.34</ele><time>2023-12-09T01:50:04Z</time><extensions><gpxtpx:TrackPointExtension><gpxtpx:cad>0</gpxtpx:cad></gpxtpx:TrackPointExtension></extensions></trkpt><trkpt lat="15.4646222480" lon="73.7933749706"><ele>0.14</ele><time>2023-12-09T01:51:04Z</time><extensions><gpxtpx:TrackPointExtension><gpxtpx:cad>0</gpxtpx:cad></gpxtpx:TrackPointExtension></extensions></trkpt><trkpt lat="15.4655825626" lon="73.7912825122"><ele>2.06</ele><time>2023-12-09T01:52:04Z</time><extensions><gpxtpx:TrackPointExtension><gpxtpx:cad>0</gpxtpx:cad></gpxtpx:TrackPointExtension></extensions></trkpt><trkpt lat="15.4661875684" lon="73.7891638186"><ele>2.54</ele><time>2023-12-09T01:53:04Z</time><extensions><gpxtpx:TrackPointExtension><gpxtpx:cad>0</gpxtpx:cad></gpxtpx:TrackPointExtension></extensions></trkpt><trkpt lat="15.4658298288" lon="73.7872900441"><ele>3.98</ele><time>2023-12-09T01:54:04Z</time><extensions><gpxtpx:TrackPointExtension><gpxtpx:cad>0</gpxtpx:cad></gpxtpx:TrackPointExtension></extensions></trkpt><trkpt lat="15.4645276163" lon="73.7854161859"><ele>2.06</ele><time>2023-12-09T01:55:04Z</time><extensions><gpxtpx:TrackPointExtension><gpxtpx:cad>0</gpxtpx:cad></gpxtpx:TrackPointExtension></extensions></trkpt><trkpt lat="15.4627818335" lon="73.7839774322"><ele>1.58</ele><time>2023-12-09T01:56:04Z</time><extensions><gpxtpx:TrackPointExtension><gpxtpx:cad>0</gpxtpx:cad></gpxtpx:TrackPointExtension></extensions></trkpt><trkpt lat="15.4607485514" lon="73.7830327917"><ele>1.58</ele><time>2023-12-09T01:57:04Z</time><extensions><gpxtpx:TrackPointExtension><gpxtpx:cad>0</gpxtpx:cad></gpxtpx:TrackPointExtension></extensions></trkpt><trkpt lat="15.4584272671" lon="73.7827848550"><ele>1.10</ele><time>2023-12-09T01:58:04Z</time><extensions><gpxtpx:TrackPointExtension><gpxtpx:cad>0</gpxtpx:cad></gpxtpx:TrackPointExtension></extensions></trkpt><trkpt lat="15.4563542549" lon="73.7819422223"><ele>1.10</ele><time>2023-12-09T01:59:04Z</time><extensions><gpxtpx:TrackPointExtension><gpxtpx:cad>0</gpxtpx:cad></gpxtpx:TrackPointExtension></extensions></trkpt><trkpt lat="15.4543475434" lon="73.7807318754"><ele>0.62</ele><time>2023-12-09T02:00:04Z</time><extensions><gpxtpx:TrackPointExtension><gpxtpx:cad>0</gpxtpx:cad></gpxtpx:TrackPointExtension></extensions></trkpt><trkpt lat="15.4522318672" lon="73.7797404639"><ele>-0.34</ele><time>2023-12-09T02:01:04Z</time><extensions><gpxtpx:TrackPointExtension><gpxtpx:cad>0</gpxtpx:cad></gpxtpx:TrackPointExtension></extensions></trkpt><trkpt lat="15.4500461183" lon="73.7788612861"><ele>-1.30</ele><time>2023-12-09T02:02:04Z</time><extensions><gpxtpx:TrackPointExtension><gpxtpx:cad>0</gpxtpx:cad></gpxtpx:TrackPointExtension></extensions></trkpt><trkpt lat="15.4478273448" lon="73.7780174799"><ele>-0.82</ele><time>2023-12-09T02:03:04Z</time><extensions><gpxtpx:TrackPointExtension><gpxtpx:cad>0</gpxtpx:cad></gpxtpx:TrackPointExtension></extensions></trkpt><trkpt lat="15.4462146666" lon="73.7761660013"><ele>1.10</ele><time>2023-12-09T02:04:04Z</time><extensions><gpxtpx:TrackPointExtension><gpxtpx:cad>0</gpxtpx:cad></gpxtpx:TrackPointExtension></extensions></trkpt><trkpt lat="15.4442905169" lon="73.7746277545"><ele>1.10</ele><time>2023-12-09T02:05:04Z</time><extensions><gpxtpx:TrackPointExtension><gpxtpx:cad>0</gpxtpx:cad></gpxtpx:TrackPointExtension></extensions></trkpt><trkpt lat="15.4422248807" lon="73.7732525356"><ele>0.14</ele><time>2023-12-09T02:06:04Z</time><extensions><gpxtpx:TrackPointExtension><gpxtpx:cad>0</gpxtpx:cad></gpxtpx:TrackPointExtension></extensions></trkpt><trkpt lat="15.4402377829" lon="73.7717514206"><ele>0.62</ele><time>2023-12-09T02:07:04Z</time><extensions><gpxtpx:TrackPointExtension><gpxtpx:cad>0</gpxtpx:cad></gpxtpx:TrackPointExtension></extensions></trkpt><trkpt lat="15.4382225219" lon="73.7706263177"><ele>0.62</ele><time>2023-12-09T02:08:04Z</time><extensions><gpxtpx:TrackPointExtension><gpxtpx:cad>0</gpxtpx:cad></gpxtpx:TrackPointExtension></extensions></trkpt><trkpt lat="15.4362607375" lon="73.7695147935"><ele>1.58</ele><time>2023-12-09T02:09:04Z</time><extensions><gpxtpx:TrackPointExtension><gpxtpx:cad>0</gpxtpx:cad></gpxtpx:TrackPointExtension></extensions></trkpt><trkpt lat="15.4342386033" lon="73.7685635313"><ele>1.10</ele><time>2023-12-09T02:10:04Z</time><extensions><gpxtpx:TrackPointExtension><gpxtpx:cad>0</gpxtpx:cad></gpxtpx:TrackPointExtension></extensions></trkpt><trkpt lat="15.4320729710" lon="73.7680655625"><ele>2.06</ele><time>2023-12-09T02:11:04Z</time><extensions><gpxtpx:TrackPointExtension><gpxtpx:cad>0</gpxtpx:cad></gpxtpx:TrackPointExtension></extensions></trkpt><trkpt lat="15.4300303850" lon="73.7671640888"><ele>1.58</ele><time>2023-12-09T02:12:04Z</time><extensions><gpxtpx:TrackPointExtension><gpxtpx:cad>0</gpxtpx:cad></gpxtpx:TrackPointExtension></extensions></trkpt><trkpt lat="15.4281079117" lon="73.7659868505"><ele>0.62</ele><time>2023-12-09T02:13:04Z</time><extensions><gpxtpx:TrackPointExtension><gpxtpx:cad>0</gpxtpx:cad></gpxtpx:TrackPointExtension></extensions></trkpt><trkpt lat="15.4260967579" lon="73.7649619114"><ele>-0.34</ele><time>2023-12-09T02:14:04Z</time><extensions><gpxtpx:TrackPointExtension><gpxtpx:cad>0</gpxtpx:cad></gpxtpx:TrackPointExtension></extensions></trkpt><trkpt lat="15.4241097439" lon="73.7638706714"><ele>-0.34</ele><time>2023-12-09T02:15:04Z</time><extensions><gpxtpx:TrackPointExtension><gpxtpx:cad>0</gpxtpx:cad></gpxtpx:TrackPointExtension></extensions></trkpt><trkpt lat="15.4222363885" lon="73.7625901680"><ele>0.62</ele><time>2023-12-09T02:16:04Z</time><extensions><gpxtpx:TrackPointExtension><gpxtpx:cad>0</gpxtpx:cad></gpxtpx:TrackPointExtension></extensions></trkpt><trkpt lat="15.4205160029" lon="73.7611142825"><ele>1.10</ele><time>2023-12-09T02:17:04Z</time><extensions><gpxtpx:TrackPointExtension><gpxtpx:cad>0</gpxtpx:cad></gpxtpx:TrackPointExtension></extensions></trkpt><trkpt lat="15.4189008102" lon="73.7595049571"><ele>1.10</ele><time>2023-12-09T02:18:04Z</time><extensions><gpxtpx:TrackPointExtension><gpxtpx:cad>0</gpxtpx:cad></gpxtpx:TrackPointExtension></extensions></trkpt><trkpt lat="15.4170731362" lon="73.7581494357"><ele>1.10</ele><time>2023-12-09T02:19:04Z</time><extensions><gpxtpx:TrackPointExtension><gpxtpx:cad>0</gpxtpx:cad></gpxtpx:TrackPointExtension></extensions></trkpt><trkpt lat="15.4151998647" lon="73.7568578683"><ele>0.14</ele><time>2023-12-09T02:20:04Z</time><extensions><gpxtpx:TrackPointExtension><gpxtpx:cad>0</gpxtpx:cad></gpxtpx:TrackPointExtension></extensions></trkpt><trkpt lat="15.4134249128" lon="73.7562205922"><ele>1.58</ele><time>2023-12-09T02:21:04Z</time><extensions><gpxtpx:TrackPointExtension><gpxtpx:cad>0</gpxtpx:cad></gpxtpx:TrackPointExtension></extensions></trkpt><trkpt lat="15.4121201858" lon="73.7578534707"><ele>3.50</ele><time>2023-12-09T02:22:04Z</time><extensions><gpxtpx:TrackPointExtension><gpxtpx:cad>0</gpxtpx:cad></gpxtpx:TrackPointExtension></extensions></trkpt><trkpt lat="15.4107012972" lon="73.7594649754"><ele>3.98</ele><time>2023-12-09T02:23:04Z</time><extensions><gpxtpx:TrackPointExtension><gpxtpx:cad>0</gpxtpx:cad></gpxtpx:TrackPointExtension></extensions></trkpt><trkpt lat="15.4095000867" lon="73.7611442897"><ele>1.10</ele><time>2023-12-09T02:24:04Z</time><extensions><gpxtpx:TrackPointExtension><gpxtpx:cad>0</gpxtpx:cad></gpxtpx:TrackPointExtension></extensions></trkpt><trkpt lat="15.4078761768" lon="73.7623272277"><ele>1.10</ele><time>2023-12-09T02:25:04Z</time><extensions><gpxtpx:TrackPointExtension><gpxtpx:cad>0</gpxtpx:cad></gpxtpx:TrackPointExtension></extensions></trkpt><trkpt lat="15.4059280548" lon="73.7632439565"><ele>1.58</ele><time>2023-12-09T02:26:04Z</time><extensions><gpxtpx:TrackPointExtension><gpxtpx:cad>0</gpxtpx:cad></gpxtpx:TrackPointExtension></extensions></trkpt><trkpt lat="15.4039884824" lon="73.7641002517"><ele>2.54</ele><time>2023-12-09T02:27:04Z</time><extensions><gpxtpx:TrackPointExtension><gpxtpx:cad>0</gpxtpx:cad></gpxtpx:TrackPointExtension></extensions></trkpt><trkpt lat="15.4020644166" lon="73.7650656793"><ele>1.10</ele><time>2023-12-09T02:28:04Z</time><extensions><gpxtpx:TrackPointExtension><gpxtpx:cad>0</gpxtpx:cad></gpxtpx:TrackPointExtension></extensions></trkpt><trkpt lat="15.4000907298" lon="73.7659753673"><ele>1.58</ele><time>2023-12-09T02:29:04Z</time><extensions><gpxtpx:TrackPointExtension><gpxtpx:cad>0</gpxtpx:cad></gpxtpx:TrackPointExtension></extensions></trkpt><trkpt lat="15.3981364891" lon="73.7669278868"><ele>3.02</ele><time>2023-12-09T02:30:04Z</time><extensions><gpxtpx:TrackPointExtension><gpxtpx:cad>0</gpxtpx:cad></gpxtpx:TrackPointExtension></extensions></trkpt><trkpt lat="15.3961827513" lon="73.7679897901"><ele>3.98</ele><time>2023-12-09T02:31:04Z</time><extensions><gpxtpx:TrackPointExtension><gpxtpx:cad>0</gpxtpx:cad></gpxtpx:TrackPointExtension></extensions></trkpt><trkpt lat="15.3942613676" lon="73.7690355163"><ele>4.46</ele><time>2023-12-09T02:32:04Z</time><extensions><gpxtpx:TrackPointExtension><gpxtpx:cad>0</gpxtpx:cad></gpxtpx:TrackPointExtension></extensions></trkpt><trkpt lat="15.3923766967" lon="73.7701216433"><ele>3.98</ele><time>2023-12-09T02:33:04Z</time><extensions><gpxtpx:TrackPointExtension><gpxtpx:cad>0</gpxtpx:cad></gpxtpx:TrackPointExtension></extensions></trkpt><trkpt lat="15.3905922733" lon="73.7712899130"><ele>3.98</ele><time>2023-12-09T02:34:04Z</time><extensions><gpxtpx:TrackPointExtension><gpxtpx:cad>0</gpxtpx:cad></gpxtpx:TrackPointExtension></extensions></trkpt><trkpt lat="15.3888238594" lon="73.7723988388"><ele>3.02</ele><time>2023-12-09T02:35:04Z</time><extensions><gpxtpx:TrackPointExtension><gpxtpx:cad>0</gpxtpx:cad></gpxtpx:TrackPointExtension></extensions></trkpt><trkpt lat="15.3870217502" lon="73.7735906616"><ele>3.02</ele><time>2023-12-09T02:36:04Z</time><extensions><gpxtpx:TrackPointExtension><gpxtpx:cad>0</gpxtpx:cad></gpxtpx:TrackPointExtension></extensions></trkpt><trkpt lat="15.3852598742" lon="73.7748974841"><ele>3.98</ele><time>2023-12-09T02:37:04Z</time><extensions><gpxtpx:TrackPointExtension><gpxtpx:cad>0</gpxtpx:cad></gpxtpx:TrackPointExtension></extensions></trkpt><trkpt lat="15.3832895402" lon="73.7754037511"><ele>3.02</ele><time>2023-12-09T02:38:04Z</time><extensions><gpxtpx:TrackPointExtension><gpxtpx:cad>0</gpxtpx:cad></gpxtpx:TrackPointExtension></extensions></trkpt><trkpt lat="15.3813523147" lon="73.7760475650"><ele>1.58</ele><time>2023-12-09T02:39:04Z</time><extensions><gpxtpx:TrackPointExtension><gpxtpx:cad>0</gpxtpx:cad></gpxtpx:TrackPointExtension></extensions></trkpt><trkpt lat="15.3793633729" lon="73.7766012736"><ele>2.06</ele><time>2023-12-09T02:40:04Z</time><extensions><gpxtpx:TrackPointExtension><gpxtpx:cad>0</gpxtpx:cad></gpxtpx:TrackPointExtension></extensions></trkpt><trkpt lat="15.3774252255" lon="73.7773922738"><ele>0.62</ele><time>2023-12-09T02:41:04Z</time><extensions><gpxtpx:TrackPointExtension><gpxtpx:cad>0</gpxtpx:cad></gpxtpx:TrackPointExtension></extensions></trkpt><trkpt lat="15.3754745889" lon="73.7779782526"><ele>3.02</ele><time>2023-12-09T02:42:04Z</time><extensions><gpxtpx:TrackPointExtension><gpxtpx:cad>0</gpxtpx:cad></gpxtpx:TrackPointExtension></extensions></trkpt><trkpt lat="15.3735637665" lon="73.7786888704"><ele>3.02</ele><time>2023-12-09T02:43:04Z</time><extensions><gpxtpx:TrackPointExtension><gpxtpx:cad>0</gpxtpx:cad></gpxtpx:TrackPointExtension></extensions></trkpt><trkpt lat="15.3717018943" lon="73.7795417290"><ele>3.02</ele><time>2023-12-09T02:44:04Z</time><extensions><gpxtpx:TrackPointExtension><gpxtpx:cad>0</gpxtpx:cad></gpxtpx:TrackPointExtension></extensions></trkpt><trkpt lat="15.3698520083" lon="73.7804503273"><ele>1.10</ele><time>2023-12-09T02:45:04Z</time><extensions><gpxtpx:TrackPointExtension><gpxtpx:cad>0</gpxtpx:cad></gpxtpx:TrackPointExtension></extensions></trkpt><trkpt lat="15.3679927345" lon="73.7812746037"><ele>2.54</ele><time>2023-12-09T02:46:04Z</time><extensions><gpxtpx:TrackPointExtension><gpxtpx:cad>0</gpxtpx:cad></gpxtpx:TrackPointExtension></extensions></trkpt><trkpt lat="15.3660503123" lon="73.7818672042"><ele>2.54</ele><time>2023-12-09T02:47:04Z</time><extensions><gpxtpx:TrackPointExtension><gpxtpx:cad>0</gpxtpx:cad></gpxtpx:TrackPointExtension></extensions></trkpt><trkpt lat="15.3643146716" lon="73.7828029599"><ele>2.54</ele><time>2023-12-09T02:48:04Z</time><extensions><gpxtpx:TrackPointExtension><gpxtpx:cad>0</gpxtpx:cad></gpxtpx:TrackPointExtension></extensions></trkpt><trkpt lat="15.3624920268" lon="73.7836105563"><ele>3.50</ele><time>2023-12-09T02:49:04Z</time><extensions><gpxtpx:TrackPointExtension><gpxtpx:cad>0</gpxtpx:cad></gpxtpx:TrackPointExtension></extensions></trkpt><trkpt lat="15.3608466592" lon="73.7847881299"><ele>4.46</ele><time>2023-12-09T02:50:04Z</time><extensions><gpxtpx:TrackPointExtension><gpxtpx:cad>0</gpxtpx:cad></gpxtpx:TrackPointExtension></extensions></trkpt><trkpt lat="15.3592248447" lon="73.7860190962"><ele>2.06</ele><time>2023-12-09T02:51:04Z</time><extensions><gpxtpx:TrackPointExtension><gpxtpx:cad>0</gpxtpx:cad></gpxtpx:TrackPointExtension></extensions></trkpt><trkpt lat="15.3575169481" lon="73.7871789001"><ele>1.58</ele><time>2023-12-09T02:52:04Z</time><extensions><gpxtpx:TrackPointExtension><gpxtpx:cad>0</gpxtpx:cad></gpxtpx:TrackPointExtension></extensions></trkpt><trkpt lat="15.3558222111" lon="73.7884083577"><ele>2.06</ele><time>2023-12-09T02:53:04Z</time><extensions><gpxtpx:TrackPointExtension><gpxtpx:cad>0</gpxtpx:cad></gpxtpx:TrackPointExtension></extensions></trkpt><trkpt lat="15.3548976872" lon="73.7899089698"><ele>2.54</ele><time>2023-12-09T02:54:04Z</time><extensions><gpxtpx:TrackPointExtension><gpxtpx:cad>0</gpxtpx:cad></gpxtpx:TrackPointExtension></extensions></trkpt><trkpt lat="15.3550672531" lon="73.7919274159"><ele>4.94</ele><time>2023-12-09T02:55:04Z</time><extensions><gpxtpx:TrackPointExtension><gpxtpx:cad>0</gpxtpx:cad></gpxtpx:TrackPointExtension></extensions></trkpt><trkpt lat="15.3551619686" lon="73.7939994223"><ele>3.02</ele><time>2023-12-09T02:56:04Z</time><extensions><gpxtpx:TrackPointExtension><gpxtpx:cad>0</gpxtpx:cad></gpxtpx:TrackPointExtension></extensions></trkpt><trkpt lat="15.3551207297" lon="73.7960854266"><ele>4.46</ele><time>2023-12-09T02:57:04Z</time><extensions><gpxtpx:TrackPointExtension><gpxtpx:cad>0</gpxtpx:cad></gpxtpx:TrackPointExtension></extensions></trkpt><trkpt lat="15.3549944982" lon="73.7981862668"><ele>2.54</ele><time>2023-12-09T02:58:04Z</time><extensions><gpxtpx:TrackPointExtension><gpxtpx:cad>0</gpxtpx:cad></gpxtpx:TrackPointExtension></extensions></trkpt><trkpt lat="15.3545751516" lon="73.8002497237"><ele>2.06</ele><time>2023-12-09T02:59:04Z</time><extensions><gpxtpx:TrackPointExtension><gpxtpx:cad>0</gpxtpx:cad></gpxtpx:TrackPointExtension></extensions></trkpt><trkpt lat="15.3544184100" lon="73.8023067266"><ele>3.02</ele><time>2023-12-09T03:00:04Z</time><extensions><gpxtpx:TrackPointExtension><gpxtpx:cad>0</gpxtpx:cad></gpxtpx:TrackPointExtension></extensions></trkpt><trkpt lat="15.3550168779" lon="73.8042863645"><ele>3.98</ele><time>2023-12-09T03:01:04Z</time><extensions><gpxtpx:TrackPointExtension><gpxtpx:cad>0</gpxtpx:cad></gpxtpx:TrackPointExtension></extensions></trkpt><trkpt lat="15.3556394856" lon="73.8062849455"><ele>4.46</ele><time>2023-12-09T03:02:04Z</time><extensions><gpxtpx:TrackPointExtension><gpxtpx:cad>0</gpxtpx:cad></gpxtpx:TrackPointExtension></extensions></trkpt><trkpt lat="15.3561637737" lon="73.8082992844"><ele>3.98</ele><time>2023-12-09T03:03:04Z</time><extensions><gpxtpx:TrackPointExtension><gpxtpx:cad>0</gpxtpx:cad></gpxtpx:TrackPointExtension></extensions></trkpt><trkpt lat="15.3565105330" lon="73.8101511821"><ele>3.98</ele><time>2023-12-09T03:04:04Z</time><extensions><gpxtpx:TrackPointExtension><gpxtpx:cad>0</gpxtpx:cad></gpxtpx:TrackPointExtension></extensions></trkpt><trkpt lat="15.3565793484" lon="73.8122503459"><ele>3.50</ele><time>2023-12-09T03:05:04Z</time><extensions><gpxtpx:TrackPointExtension><gpxtpx:cad>0</gpxtpx:cad></gpxtpx:TrackPointExtension></extensions></trkpt><trkpt lat="15.3564460762" lon="73.8143663574"><ele>5.42</ele><time>2023-12-09T03:06:04Z</time><extensions><gpxtpx:TrackPointExtension><gpxtpx:cad>0</gpxtpx:cad></gpxtpx:TrackPointExtension></extensions></trkpt><trkpt lat="15.3560856543" lon="73.8164668623"><ele>7.35</ele><time>2023-12-09T03:07:04Z</time><extensions><gpxtpx:TrackPointExtension><gpxtpx:cad>0</gpxtpx:cad></gpxtpx:TrackPointExtension></extensions></trkpt><trkpt lat="15.3555860929" lon="73.8185781799"><ele>5.91</ele><time>2023-12-09T03:08:04Z</time><extensions><gpxtpx:TrackPointExtension><gpxtpx:cad>0</gpxtpx:cad></gpxtpx:TrackPointExtension></extensions></trkpt><trkpt lat="15.3552643955" lon="73.8206691295"><ele>4.94</ele><time>2023-12-09T03:09:04Z</time><extensions><gpxtpx:TrackPointExtension><gpxtpx:cad>0</gpxtpx:cad></gpxtpx:TrackPointExtension></extensions></trkpt><trkpt lat="15.3551457077" lon="73.8227712270"><ele>3.98</ele><time>2023-12-09T03:10:04Z</time><extensions><gpxtpx:TrackPointExtension><gpxtpx:cad>0</gpxtpx:cad></gpxtpx:TrackPointExtension></extensions></trkpt><trkpt lat="15.3551537544" lon="73.8248677924"><ele>4.46</ele><time>2023-12-09T03:11:04Z</time><extensions><gpxtpx:TrackPointExtension><gpxtpx:cad>0</gpxtpx:cad></gpxtpx:TrackPointExtension></extensions></trkpt><trkpt lat="15.3551026247" lon="73.8269541319"><ele>5.91</ele><time>2023-12-09T03:12:04Z</time><extensions><gpxtpx:TrackPointExtension><gpxtpx:cad>0</gpxtpx:cad></gpxtpx:TrackPointExtension></extensions></trkpt><trkpt lat="15.3551990166" lon="73.8290419802"><ele>5.42</ele><time>2023-12-09T03:13:04Z</time><extensions><gpxtpx:TrackPointExtension><gpxtpx:cad>0</gpxtpx:cad></gpxtpx:TrackPointExtension></extensions></trkpt><trkpt lat="15.3551068157" lon="73.8310709875"><ele>5.42</ele><time>2023-12-09T03:14:04Z</time><extensions><gpxtpx:TrackPointExtension><gpxtpx:cad>0</gpxtpx:cad></gpxtpx:TrackPointExtension></extensions></trkpt><trkpt lat="15.3551724460" lon="73.8331743423"><ele>4.94</ele><time>2023-12-09T03:15:04Z</time><extensions><gpxtpx:TrackPointExtension><gpxtpx:cad>0</gpxtpx:cad></gpxtpx:TrackPointExtension></extensions></trkpt><trkpt lat="15.3554251604" lon="73.8352236338"><ele>1.10</ele><time>2023-12-09T03:16:04Z</time><extensions><gpxtpx:TrackPointExtension><gpxtpx:cad>0</gpxtpx:cad></gpxtpx:TrackPointExtension></extensions></trkpt><trkpt lat="15.3558628634" lon="73.8372381404"><ele>3.50</ele><time>2023-12-09T03:17:04Z</time><extensions><gpxtpx:TrackPointExtension><gpxtpx:cad>0</gpxtpx:cad></gpxtpx:TrackPointExtension></extensions></trkpt><trkpt lat="15.3562683798" lon="73.8392177783"><ele>3.50</ele><time>2023-12-09T03:18:04Z</time><extensions><gpxtpx:TrackPointExtension><gpxtpx:cad>0</gpxtpx:cad></gpxtpx:TrackPointExtension></extensions></trkpt><trkpt lat="15.3567535244" lon="73.8408121839"><ele>3.50</ele><time>2023-12-09T03:19:04Z</time><extensions><gpxtpx:TrackPointExtension><gpxtpx:cad>0</gpxtpx:cad></gpxtpx:TrackPointExtension></extensions></trkpt><trkpt lat="15.3570170514" lon="73.8416508771"><ele>3.50</ele><time>2023-12-09T03:20:04Z</time><extensions><gpxtpx:TrackPointExtension><gpxtpx:cad>0</gpxtpx:cad></gpxtpx:TrackPointExtension></extensions></trkpt><trkpt lat="15.3572758846" lon="73.8435304351"><ele>3.98</ele><time>2023-12-09T03:21:04Z</time><extensions><gpxtpx:TrackPointExtension><gpxtpx:cad>0</gpxtpx:cad></gpxtpx:TrackPointExtension></extensions></trkpt><trkpt lat="15.3576328699" lon="73.8453650661"><ele>5.42</ele><time>2023-12-09T03:22:04Z</time><extensions><gpxtpx:TrackPointExtension><gpxtpx:cad>0</gpxtpx:cad></gpxtpx:TrackPointExtension></extensions></trkpt><trkpt lat="15.3576270025" lon="73.8471709471"><ele>3.02</ele><time>2023-12-09T03:23:04Z</time><extensions><gpxtpx:TrackPointExtension><gpxtpx:cad>0</gpxtpx:cad></gpxtpx:TrackPointExtension></extensions></trkpt><trkpt lat="15.3578409087" lon="73.8490116131"><ele>2.54</ele><time>2023-12-09T03:24:04Z</time><extensions><gpxtpx:TrackPointExtension><gpxtpx:cad>0</gpxtpx:cad></gpxtpx:TrackPointExtension></extensions></trkpt><trkpt lat="15.3582147416" lon="73.8508254569"><ele>3.50</ele><time>2023-12-09T03:25:04Z</time><extensions><gpxtpx:TrackPointExtension><gpxtpx:cad>0</gpxtpx:cad></gpxtpx:TrackPointExtension></extensions></trkpt><trkpt lat="15.3587826993" lon="73.8525728323"><ele>4.46</ele><time>2023-12-09T03:26:04Z</time><extensions><gpxtpx:TrackPointExtension><gpxtpx:cad>0</gpxtpx:cad></gpxtpx:TrackPointExtension></extensions></trkpt><trkpt lat="15.3594162874" lon="73.8543472812"><ele>5.42</ele><time>2023-12-09T03:27:04Z</time><extensions><gpxtpx:TrackPointExtension><gpxtpx:cad>0</gpxtpx:cad></gpxtpx:TrackPointExtension></extensions></trkpt><trkpt lat="15.3600611910" lon="73.8561051339"><ele>3.02</ele><time>2023-12-09T03:28:04Z</time><extensions><gpxtpx:TrackPointExtension><gpxtpx:cad>0</gpxtpx:cad></gpxtpx:TrackPointExtension></extensions></trkpt><trkpt lat="15.3605644405" lon="73.8579305448"><ele>3.98</ele><time>2023-12-09T03:29:04Z</time><extensions><gpxtpx:TrackPointExtension><gpxtpx:cad>0</gpxtpx:cad></gpxtpx:TrackPointExtension></extensions></trkpt><trkpt lat="15.3609437216" lon="73.8597901538"><ele>3.02</ele><time>2023-12-09T03:30:04Z</time><extensions><gpxtpx:TrackPointExtension><gpxtpx:cad>0</gpxtpx:cad></gpxtpx:TrackPointExtension></extensions></trkpt><trkpt lat="15.3613711987" lon="73.8616155647"><ele>3.02</ele><time>2023-12-09T03:31:04Z</time><extensions><gpxtpx:TrackPointExtension><gpxtpx:cad>0</gpxtpx:cad></gpxtpx:TrackPointExtension></extensions></trkpt><trkpt lat="15.3618100751" lon="73.8634765986"><ele>2.06</ele><time>2023-12-09T03:32:04Z</time><extensions><gpxtpx:TrackPointExtension><gpxtpx:cad>0</gpxtpx:cad></gpxtpx:TrackPointExtension></extensions></trkpt><trkpt lat="15.3623225447" lon="73.8653167617"><ele>3.02</ele><time>2023-12-09T03:33:04Z</time><extensions><gpxtpx:TrackPointExtension><gpxtpx:cad>0</gpxtpx:cad></gpxtpx:TrackPointExtension></extensions></trkpt><trkpt lat="15.3627791908" lon="73.8671813160"><ele>3.02</ele><time>2023-12-09T03:34:04Z</time><extensions><gpxtpx:TrackPointExtension><gpxtpx:cad>0</gpxtpx:cad></gpxtpx:TrackPointExtension></extensions></trkpt><trkpt lat="15.3632328194" lon="73.8690433558"><ele>1.58</ele><time>2023-12-09T03:35:04Z</time><extensions><gpxtpx:TrackPointExtension><gpxtpx:cad>0</gpxtpx:cad></gpxtpx:TrackPointExtension></extensions></trkpt><trkpt lat="15.3639352228" lon="73.8707788289"><ele>3.50</ele><time>2023-12-09T03:36:04Z</time><extensions><gpxtpx:TrackPointExtension><gpxtpx:cad>0</gpxtpx:cad></gpxtpx:TrackPointExtension></extensions></trkpt><trkpt lat="15.3623053618" lon="73.8702596538"><ele>1.58</ele><time>2023-12-09T03:37:04Z</time><extensions><gpxtpx:TrackPointExtension><gpxtpx:cad>0</gpxtpx:cad></gpxtpx:TrackPointExtension></extensions></trkpt><trkpt lat="15.3606588207" lon="73.8693192881"><ele>3.02</ele><time>2023-12-09T03:38:04Z</time><extensions><gpxtpx:TrackPointExtension><gpxtpx:cad>0</gpxtpx:cad></gpxtpx:TrackPointExtension></extensions></trkpt><trkpt lat="15.3589294665" lon="73.8685608096"><ele>3.50</ele><time>2023-12-09T03:39:04Z</time><extensions><gpxtpx:TrackPointExtension><gpxtpx:cad>0</gpxtpx:cad></gpxtpx:TrackPointExtension></extensions></trkpt><trkpt lat="15.3574446123" lon="73.8673290890"><ele>2.54</ele><time>2023-12-09T03:40:04Z</time><extensions><gpxtpx:TrackPointExtension><gpxtpx:cad>0</gpxtpx:cad></gpxtpx:TrackPointExtension></extensions></trkpt><trkpt lat="15.3559800424" lon="73.8661426306"><ele>3.50</ele><time>2023-12-09T03:41:04Z</time><extensions><gpxtpx:TrackPointExtension><gpxtpx:cad>0</gpxtpx:cad></gpxtpx:TrackPointExtension></extensions></trkpt><trkpt lat="15.3542278055" lon="73.8653696515"><ele>2.06</ele><time>2023-12-09T03:42:04Z</time><extensions><gpxtpx:TrackPointExtension><gpxtpx:cad>0</gpxtpx:cad></gpxtpx:TrackPointExtension></extensions></trkpt><trkpt lat="15.3524085134" lon="73.8649326190"><ele>1.58</ele><time>2023-12-09T03:43:04Z</time><extensions><gpxtpx:TrackPointExtension><gpxtpx:cad>0</gpxtpx:cad></gpxtpx:TrackPointExtension></extensions></trkpt><trkpt lat="15.3505257703" lon="73.8647659868"><ele>2.06</ele><time>2023-12-09T03:44:04Z</time><extensions><gpxtpx:TrackPointExtension><gpxtpx:cad>0</gpxtpx:cad></gpxtpx:TrackPointExtension></extensions></trkpt><trkpt lat="15.3486543428" lon="73.8645288628"><ele>1.58</ele><time>2023-12-09T03:45:04Z</time><extensions><gpxtpx:TrackPointExtension><gpxtpx:cad>0</gpxtpx:cad></gpxtpx:TrackPointExtension></extensions></trkpt><trkpt lat="15.3468885273" lon="73.8637656067"><ele>1.58</ele><time>2023-12-09T03:46:04Z</time><extensions><gpxtpx:TrackPointExtension><gpxtpx:cad>0</gpxtpx:cad></gpxtpx:TrackPointExtension></extensions></trkpt><trkpt lat="15.3450474422" lon="73.8632733375"><ele>0.62</ele><time>2023-12-09T03:47:04Z</time><extensions><gpxtpx:TrackPointExtension><gpxtpx:cad>0</gpxtpx:cad></gpxtpx:TrackPointExtension></extensions></trkpt><trkpt lat="15.3439080063" lon="73.8641893119"><ele>1.10</ele><time>2023-12-09T03:48:04Z</time><extensions><gpxtpx:TrackPointExtension><gpxtpx:cad>0</gpxtpx:cad></gpxtpx:TrackPointExtension></extensions></trkpt><trkpt lat="15.3435867280" lon="73.8660946023"><ele>1.58</ele><time>2023-12-09T03:49:04Z</time><extensions><gpxtpx:TrackPointExtension><gpxtpx:cad>0</gpxtpx:cad></gpxtpx:TrackPointExtension></extensions></trkpt><trkpt lat="15.3434769250" lon="73.8680250384"><ele>1.58</ele><time>2023-12-09T03:50:04Z</time><extensions><gpxtpx:TrackPointExtension><gpxtpx:cad>0</gpxtpx:cad></gpxtpx:TrackPointExtension></extensions></trkpt><trkpt lat="15.3434454091" lon="73.8699272275"><ele>2.54</ele><time>2023-12-09T03:51:04Z</time><extensions><gpxtpx:TrackPointExtension><gpxtpx:cad>0</gpxtpx:cad></gpxtpx:TrackPointExtension></extensions></trkpt><trkpt lat="15.3431307524" lon="73.8717424963"><ele>2.06</ele><time>2023-12-09T03:52:04Z</time><extensions><gpxtpx:TrackPointExtension><gpxtpx:cad>0</gpxtpx:cad></gpxtpx:TrackPointExtension></extensions></trkpt><trkpt lat="15.3421756346" lon="73.8734160271"><ele>2.06</ele><time>2023-12-09T03:53:04Z</time><extensions><gpxtpx:TrackPointExtension><gpxtpx:cad>0</gpxtpx:cad></gpxtpx:TrackPointExtension></extensions></trkpt><trkpt lat="15.3414023202" lon="73.8751784898"><ele>3.50</ele><time>2023-12-09T03:54:04Z</time><extensions><gpxtpx:TrackPointExtension><gpxtpx:cad>0</gpxtpx:cad></gpxtpx:TrackPointExtension></extensions></trkpt><trkpt lat="15.3403142653" lon="73.8767328300"><ele>1.10</ele><time>2023-12-09T03:55:04Z</time><extensions><gpxtpx:TrackPointExtension><gpxtpx:cad>0</gpxtpx:cad></gpxtpx:TrackPointExtension></extensions></trkpt><trkpt lat="15.3390780184" lon="73.8781988248"><ele>0.14</ele><time>2023-12-09T03:56:04Z</time><extensions><gpxtpx:TrackPointExtension><gpxtpx:cad>0</gpxtpx:cad></gpxtpx:TrackPointExtension></extensions></trkpt><trkpt lat="15.3381951526" lon="73.8798731100"><ele>1.58</ele><time>2023-12-09T03:57:04Z</time><extensions><gpxtpx:TrackPointExtension><gpxtpx:cad>0</gpxtpx:cad></gpxtpx:TrackPointExtension></extensions></trkpt><trkpt lat="15.3377608862" lon="73.8817587867"><ele>1.58</ele><time>2023-12-09T03:58:04Z</time><extensions><gpxtpx:TrackPointExtension><gpxtpx:cad>0</gpxtpx:cad></gpxtpx:TrackPointExtension></extensions></trkpt><trkpt lat="15.3374261130" lon="73.8836601377"><ele>2.06</ele><time>2023-12-09T03:59:04Z</time><extensions><gpxtpx:TrackPointExtension><gpxtpx:cad>0</gpxtpx:cad></gpxtpx:TrackPointExtension></extensions></trkpt><trkpt lat="15.3370879870" lon="73.8855619915"><ele>2.06</ele><time>2023-12-09T04:00:04Z</time><extensions><gpxtpx:TrackPointExtension><gpxtpx:cad>0</gpxtpx:cad></gpxtpx:TrackPointExtension></extensions></trkpt><trkpt lat="15.3364515491" lon="73.8873620052"><ele>2.54</ele><time>2023-12-09T04:01:04Z</time><extensions><gpxtpx:TrackPointExtension><gpxtpx:cad>0</gpxtpx:cad></gpxtpx:TrackPointExtension></extensions></trkpt><trkpt lat="15.3354049008" lon="73.8886549138"><ele>1.10</ele><time>2023-12-09T04:02:04Z</time><extensions><gpxtpx:TrackPointExtension><gpxtpx:cad>0</gpxtpx:cad></gpxtpx:TrackPointExtension></extensions></trkpt><trkpt lat="15.3338042926" lon="73.8877173979"><ele>0.62</ele><time>2023-12-09T04:03:04Z</time><extensions><gpxtpx:TrackPointExtension><gpxtpx:cad>0</gpxtpx:cad></gpxtpx:TrackPointExtension></extensions></trkpt><trkpt lat="15.3322756849" lon="73.8865067996"><ele>-1.30</ele><time>2023-12-09T04:04:04Z</time><extensions><gpxtpx:TrackPointExtension><gpxtpx:cad>0</gpxtpx:cad></gpxtpx:TrackPointExtension></extensions></trkpt><trkpt lat="15.3308205027" lon="73.8851851411"><ele>-0.34</ele><time>2023-12-09T04:05:04Z</time><extensions><gpxtpx:TrackPointExtension><gpxtpx:cad>0</gpxtpx:cad></gpxtpx:TrackPointExtension></extensions></trkpt><trkpt lat="15.3290013783" lon="73.8846343663"><ele>0.62</ele><time>2023-12-09T04:06:04Z</time><extensions><gpxtpx:TrackPointExtension><gpxtpx:cad>0</gpxtpx:cad></gpxtpx:TrackPointExtension></extensions></trkpt><trkpt lat="15.3272273485" lon="73.8838260155"><ele>-1.30</ele><time>2023-12-09T04:07:04Z</time><extensions><gpxtpx:TrackPointExtension><gpxtpx:cad>0</gpxtpx:cad></gpxtpx:TrackPointExtension></extensions></trkpt><trkpt lat="15.3255456872" lon="73.8828301616"><ele>-1.79</ele><time>2023-12-09T04:08:04Z</time><extensions><gpxtpx:TrackPointExtension><gpxtpx:cad>0</gpxtpx:cad></gpxtpx:TrackPointExtension></extensions></trkpt><trkpt lat="15.3239496890" lon="73.8816928212"><ele>-0.82</ele><time>2023-12-09T04:09:04Z</time><extensions><gpxtpx:TrackPointExtension><gpxtpx:cad>0</gpxtpx:cad></gpxtpx:TrackPointExtension></extensions></trkpt><trkpt lat="15.3223595582" lon="73.8805556484"><ele>-0.34</ele><time>2023-12-09T04:10:04Z</time><extensions><gpxtpx:TrackPointExtension><gpxtpx:cad>0</gpxtpx:cad></gpxtpx:TrackPointExtension></extensions></trkpt><trkpt lat="15.3205786552" lon="73.8797789812"><ele>-2.27</ele><time>2023-12-09T04:11:04Z</time><extensions><gpxtpx:TrackPointExtension><gpxtpx:cad>0</gpxtpx:cad></gpxtpx:TrackPointExtension></extensions></trkpt><trkpt lat="15.3189532366" lon="73.8787170779"><ele>-1.30</ele><time>2023-12-09T04:12:04Z</time><extensions><gpxtpx:TrackPointExtension><gpxtpx:cad>0</gpxtpx:cad></gpxtpx:TrackPointExtension></extensions></trkpt><trkpt lat="15.3173499461" lon="73.8775571901"><ele>-0.82</ele><time>2023-12-09T04:13:04Z</time><extensions><gpxtpx:TrackPointExtension><gpxtpx:cad>0</gpxtpx:cad></gpxtpx:TrackPointExtension></extensions></trkpt><trkpt lat="15.3159232624" lon="73.8763680495"><ele>-0.34</ele><time>2023-12-09T04:14:04Z</time><extensions><gpxtpx:TrackPointExtension><gpxtpx:cad>0</gpxtpx:cad></gpxtpx:TrackPointExtension></extensions></trkpt><trkpt lat="15.3155509382" lon="73.8760295883"><ele>0.14</ele><time>2023-12-09T04:15:04Z</time><extensions><gpxtpx:TrackPointExtension><gpxtpx:cad>0</gpxtpx:cad></gpxtpx:TrackPointExtension></extensions></trkpt><trkpt lat="15.3155255411" lon="73.8759249821"><ele>-0.34</ele><time>2023-12-09T04:16:04Z</time><extensions><gpxtpx:TrackPointExtension><gpxtpx:cad>0</gpxtpx:cad></gpxtpx:TrackPointExtension></extensions></trkpt><trkpt lat="15.3154711425" lon="73.8758551609"><ele>2.06</ele><time>2023-12-09T04:17:04Z</time><extensions><gpxtpx:TrackPointExtension><gpxtpx:cad>0</gpxtpx:cad></gpxtpx:TrackPointExtension></extensions></trkpt><trkpt lat="15.3154309094" lon="73.8758155145"><ele>-0.82</ele><time>2023-12-09T04:18:04Z</time><extensions><gpxtpx:TrackPointExtension><gpxtpx:cad>0</gpxtpx:cad></gpxtpx:TrackPointExtension></extensions></trkpt><trkpt lat="15.3153761756" lon="73.8757463638"><ele>-0.82</ele><time>2023-12-09T04:19:04Z</time><extensions><gpxtpx:TrackPointExtension><gpxtpx:cad>0</gpxtpx:cad></gpxtpx:TrackPointExtension></extensions></trkpt><trkpt lat="15.3153203521" lon="73.8757111598"><ele>-1.30</ele><time>2023-12-09T04:20:04Z</time><extensions><gpxtpx:TrackPointExtension><gpxtpx:cad>0</gpxtpx:cad></gpxtpx:TrackPointExtension></extensions></trkpt><trkpt lat="15.3152632713" lon="73.8756646402"><ele>-2.27</ele><time>2023-12-09T04:21:04Z</time><extensions><gpxtpx:TrackPointExtension><gpxtpx:cad>0</gpxtpx:cad></gpxtpx:TrackPointExtension></extensions></trkpt><trkpt lat="15.3151911031" lon="73.8756062184"><ele>-2.27</ele><time>2023-12-09T04:22:04Z</time><extensions><gpxtpx:TrackPointExtension><gpxtpx:cad>0</gpxtpx:cad></gpxtpx:TrackPointExtension></extensions></trkpt><trkpt lat="15.3151111398" lon="73.8755503949"><ele>-2.75</ele><time>2023-12-09T04:23:04Z</time><extensions><gpxtpx:TrackPointExtension><gpxtpx:cad>0</gpxtpx:cad></gpxtpx:TrackPointExtension></extensions></trkpt><trkpt lat="15.3150411509" lon="73.8754980080"><ele>-2.27</ele><time>2023-12-09T04:24:04Z</time><extensions><gpxtpx:TrackPointExtension><gpxtpx:cad>0</gpxtpx:cad></gpxtpx:TrackPointExtension></extensions></trkpt><trkpt lat="15.3149735089" lon="73.8754412625"><ele>-2.27</ele><time>2023-12-09T04:25:04Z</time><extensions><gpxtpx:TrackPointExtension><gpxtpx:cad>0</gpxtpx:cad></gpxtpx:TrackPointExtension></extensions></trkpt><trkpt lat="15.3148697410" lon="73.8753797393"><ele>-2.27</ele><time>2023-12-09T04:26:04Z</time><extensions><gpxtpx:TrackPointExtension><gpxtpx:cad>0</gpxtpx:cad></gpxtpx:TrackPointExtension></extensions></trkpt><trkpt lat="15.3148107324" lon="73.8753414340"><ele>-4.19</ele><time>2023-12-09T04:27:04Z</time><extensions><gpxtpx:TrackPointExtension><gpxtpx:cad>0</gpxtpx:cad></gpxtpx:TrackPointExtension></extensions></trkpt><trkpt lat="15.3147536516" lon="73.8753095828"><ele>-6.59</ele><time>2023-12-09T04:28:04Z</time><extensions><gpxtpx:TrackPointExtension><gpxtpx:cad>0</gpxtpx:cad></gpxtpx:TrackPointExtension></extensions></trkpt><trkpt lat="15.3146881051" lon="73.8752819225"><ele>-7.07</ele><time>2023-12-09T04:29:03Z</time><extensions><gpxtpx:TrackPointExtension><gpxtpx:cad>0</gpxtpx:cad></gpxtpx:TrackPointExtension></extensions></trkpt><trkpt lat="15.3146131709" lon="73.8752405997"><ele>-5.63</ele><time>2023-12-09T04:30:04Z</time><extensions><gpxtpx:TrackPointExtension><gpxtpx:cad>0</gpxtpx:cad></gpxtpx:TrackPointExtension></extensions></trkpt><trkpt lat="15.3145653941" lon="73.8752164599"><ele>-3.71</ele><time>2023-12-09T04:31:04Z</time><extensions><gpxtpx:TrackPointExtension><gpxtpx:cad>0</gpxtpx:cad></gpxtpx:TrackPointExtension></extensions></trkpt><trkpt lat="15.3145133425" lon="73.8751960080"><ele>-1.30</ele><time>2023-12-09T04:32:04Z</time><extensions><gpxtpx:TrackPointExtension><gpxtpx:cad>0</gpxtpx:cad></gpxtpx:TrackPointExtension></extensions></trkpt><trkpt lat="15.3144646436" lon="73.8751715329"><ele>-0.34</ele><time>2023-12-09T04:33:04Z</time><extensions><gpxtpx:TrackPointExtension><gpxtpx:cad>0</gpxtpx:cad></gpxtpx:TrackPointExtension></extensions></trkpt><trkpt lat="15.3144176211" lon="73.8751420286"><ele>0.62</ele><time>2023-12-09T04:34:04Z</time><extensions><gpxtpx:TrackPointExtension><gpxtpx:cad>0</gpxtpx:cad></gpxtpx:TrackPointExtension></extensions></trkpt><trkpt lat="15.3143721074" lon="73.8751072437"><ele>0.14</ele><time>2023-12-09T04:35:04Z</time><extensions><gpxtpx:TrackPointExtension><gpxtpx:cad>0</gpxtpx:cad></gpxtpx:TrackPointExtension></extensions></trkpt><trkpt lat="15.3143224865" lon="73.8750769012"><ele>0.14</ele><time>2023-12-09T04:36:04Z</time><extensions><gpxtpx:TrackPointExtension><gpxtpx:cad>0</gpxtpx:cad></gpxtpx:TrackPointExtension></extensions></trkpt><trkpt lat="15.3143359814" lon="73.8752308767"><ele>0.14</ele><time>2023-12-09T04:37:04Z</time><extensions><gpxtpx:TrackPointExtension><gpxtpx:cad>0</gpxtpx:cad></gpxtpx:TrackPointExtension></extensions></trkpt><trkpt lat="15.3132382035" lon="73.8766032457"><ele>-0.34</ele><time>2023-12-09T04:38:04Z</time><extensions><gpxtpx:TrackPointExtension><gpxtpx:cad>0</gpxtpx:cad></gpxtpx:TrackPointExtension></extensions></trkpt><trkpt lat="15.3122196347" lon="73.8781304285"><ele>-0.34</ele><time>2023-12-09T04:39:04Z</time><extensions><gpxtpx:TrackPointExtension><gpxtpx:cad>0</gpxtpx:cad></gpxtpx:TrackPointExtension></extensions></trkpt><trkpt lat="15.3108032607" lon="73.8793328963"><ele>-1.79</ele><time>2023-12-09T04:40:04Z</time><extensions><gpxtpx:TrackPointExtension><gpxtpx:cad>0</gpxtpx:cad></gpxtpx:TrackPointExtension></extensions></trkpt><trkpt lat="15.3094132897" lon="73.8805513736"><ele>-1.79</ele><time>2023-12-09T04:41:04Z</time><extensions><gpxtpx:TrackPointExtension><gpxtpx:cad>0</gpxtpx:cad></gpxtpx:TrackPointExtension></extensions></trkpt><trkpt lat="15.3081385698" lon="73.8819048833"><ele>-1.30</ele><time>2023-12-09T04:42:04Z</time><extensions><gpxtpx:TrackPointExtension><gpxtpx:cad>0</gpxtpx:cad></gpxtpx:TrackPointExtension></extensions></trkpt><trkpt lat="15.3068269696" lon="73.8832155615"><ele>0.62</ele><time>2023-12-09T04:43:04Z</time><extensions><gpxtpx:TrackPointExtension><gpxtpx:cad>0</gpxtpx:cad></gpxtpx:TrackPointExtension></extensions></trkpt><trkpt lat="15.3054198157" lon="73.8844155148"><ele>2.06</ele><time>2023-12-09T04:44:04Z</time><extensions><gpxtpx:TrackPointExtension><gpxtpx:cad>0</gpxtpx:cad></gpxtpx:TrackPointExtension></extensions></trkpt><trkpt lat="15.3039414156" lon="73.8855289668"><ele>3.02</ele><time>2023-12-09T04:45:04Z</time><extensions><gpxtpx:TrackPointExtension><gpxtpx:cad>0</gpxtpx:cad></gpxtpx:TrackPointExtension></extensions></trkpt><trkpt lat="15.3025382850" lon="73.8867850788"><ele>-0.82</ele><time>2023-12-09T04:46:04Z</time><extensions><gpxtpx:TrackPointExtension><gpxtpx:cad>0</gpxtpx:cad></gpxtpx:TrackPointExtension></extensions></trkpt><trkpt lat="15.3012597095" lon="73.8881075755"><ele>-0.82</ele><time>2023-12-09T04:47:04Z</time><extensions><gpxtpx:TrackPointExtension><gpxtpx:cad>0</gpxtpx:cad></gpxtpx:TrackPointExtension></extensions></trkpt><trkpt lat="15.2997194510" lon="73.8891075365"><ele>2.06</ele><time>2023-12-09T04:48:04Z</time><extensions><gpxtpx:TrackPointExtension><gpxtpx:cad>0</gpxtpx:cad></gpxtpx:TrackPointExtension></extensions></trkpt><trkpt lat="15.2981998120" lon="73.8901774865"><ele>6.39</ele><time>2023-12-09T04:49:04Z</time><extensions><gpxtpx:TrackPointExtension><gpxtpx:cad>0</gpxtpx:cad></gpxtpx:TrackPointExtension></extensions></trkpt><trkpt lat="15.2967950888" lon="73.8914197683"><ele>5.42</ele><time>2023-12-09T04:50:04Z</time><extensions><gpxtpx:TrackPointExtension><gpxtpx:cad>0</gpxtpx:cad></gpxtpx:TrackPointExtension></extensions></trkpt><trkpt lat="15.2953955624" lon="73.8926190510"><ele>4.46</ele><time>2023-12-09T04:51:04Z</time><extensions><gpxtpx:TrackPointExtension><gpxtpx:cad>0</gpxtpx:cad></gpxtpx:TrackPointExtension></extensions></trkpt><trkpt lat="15.2938516997" lon="73.8935479335"><ele>3.02</ele><time>2023-12-09T04:52:04Z</time><extensions><gpxtpx:TrackPointExtension><gpxtpx:cad>0</gpxtpx:cad></gpxtpx:TrackPointExtension></extensions></trkpt><trkpt lat="15.2925540134" lon="73.8947758824"><ele>1.58</ele><time>2023-12-09T04:53:04Z</time><extensions><gpxtpx:TrackPointExtension><gpxtpx:cad>0</gpxtpx:cad></gpxtpx:TrackPointExtension></extensions></trkpt><trkpt lat="15.2924207412" lon="73.8966244273"><ele>-0.82</ele><time>2023-12-09T04:54:04Z</time><extensions><gpxtpx:TrackPointExtension><gpxtpx:cad>0</gpxtpx:cad></gpxtpx:TrackPointExtension></extensions></trkpt><trkpt lat="15.2923271991" lon="73.8984420430"><ele>-0.82</ele><time>2023-12-09T04:55:04Z</time><extensions><gpxtpx:TrackPointExtension><gpxtpx:cad>0</gpxtpx:cad></gpxtpx:TrackPointExtension></extensions></trkpt><trkpt lat="15.2922479063" lon="73.9002933539"><ele>0.14</ele><time>2023-12-09T04:56:04Z</time><extensions><gpxtpx:TrackPointExtension><gpxtpx:cad>0</gpxtpx:cad></gpxtpx:TrackPointExtension></extensions></trkpt><trkpt lat="15.2922653407" lon="73.9021201059"><ele>0.14</ele><time>2023-12-09T04:57:04Z</time><extensions><gpxtpx:TrackPointExtension><gpxtpx:cad>0</gpxtpx:cad></gpxtpx:TrackPointExtension></extensions></trkpt><trkpt lat="15.2908339631" lon="73.9016815647"><ele>0.14</ele><time>2023-12-09T04:58:04Z</time><extensions><gpxtpx:TrackPointExtension><gpxtpx:cad>0</gpxtpx:cad></gpxtpx:TrackPointExtension></extensions></trkpt><trkpt lat="15.2892483585" lon="73.9005883969"><ele>3.50</ele><time>2023-12-09T04:59:04Z</time><extensions><gpxtpx:TrackPointExtension><gpxtpx:cad>0</gpxtpx:cad></gpxtpx:TrackPointExtension></extensions></trkpt><trkpt lat="15.2874570619" lon="73.8997819740"><ele>4.46</ele><time>2023-12-09T05:00:04Z</time><extensions><gpxtpx:TrackPointExtension><gpxtpx:cad>0</gpxtpx:cad></gpxtpx:TrackPointExtension></extensions></trkpt><trkpt lat="15.2859610599" lon="73.8984808512"><ele>2.06</ele><time>2023-12-09T05:01:04Z</time><extensions><gpxtpx:TrackPointExtension><gpxtpx:cad>0</gpxtpx:cad></gpxtpx:TrackPointExtension></extensions></trkpt><trkpt lat="15.2849841490" lon="73.8967911433"><ele>2.06</ele><time>2023-12-09T05:02:04Z</time><extensions><gpxtpx:TrackPointExtension><gpxtpx:cad>0</gpxtpx:cad></gpxtpx:TrackPointExtension></extensions></trkpt><trkpt lat="15.2834567148" lon="73.8955917768"><ele>0.62</ele><time>2023-12-09T05:03:04Z</time><extensions><gpxtpx:TrackPointExtension><gpxtpx:cad>0</gpxtpx:cad></gpxtpx:TrackPointExtension></extensions></trkpt><trkpt lat="15.2821040433" lon="73.8941339124"><ele>-1.30</ele><time>2023-12-09T05:04:04Z</time><extensions><gpxtpx:TrackPointExtension><gpxtpx:cad>0</gpxtpx:cad></gpxtpx:TrackPointExtension></extensions></trkpt><trkpt lat="15.2806957997" lon="73.8927401695"><ele>-1.30</ele><time>2023-12-09T05:05:04Z</time><extensions><gpxtpx:TrackPointExtension><gpxtpx:cad>0</gpxtpx:cad></gpxtpx:TrackPointExtension></extensions></trkpt><trkpt lat="15.2788863983" lon="73.8922995329"><ele>0.14</ele><time>2023-12-09T05:06:04Z</time><extensions><gpxtpx:TrackPointExtension><gpxtpx:cad>0</gpxtpx:cad></gpxtpx:TrackPointExtension></extensions></trkpt><trkpt lat="15.2769847121" lon="73.8917179126"><ele>2.06</ele><time>2023-12-09T05:07:04Z</time><extensions><gpxtpx:TrackPointExtension><gpxtpx:cad>0</gpxtpx:cad></gpxtpx:TrackPointExtension></extensions></trkpt><trkpt lat="15.2750608977" lon="73.8912112266"><ele>1.58</ele><time>2023-12-09T05:08:04Z</time><extensions><gpxtpx:TrackPointExtension><gpxtpx:cad>0</gpxtpx:cad></gpxtpx:TrackPointExtension></extensions></trkpt><trkpt lat="15.2731380891" lon="73.8908825722"><ele>3.02</ele><time>2023-12-09T05:09:04Z</time><extensions><gpxtpx:TrackPointExtension><gpxtpx:cad>0</gpxtpx:cad></gpxtpx:TrackPointExtension></extensions></trkpt><trkpt lat="15.2724267170" lon="73.8926918060"><ele>0.14</ele><time>2023-12-09T05:10:04Z</time><extensions><gpxtpx:TrackPointExtension><gpxtpx:cad>0</gpxtpx:cad></gpxtpx:TrackPointExtension></extensions></trkpt><trkpt lat="15.2720335219" lon="73.8945594616"><ele>-1.30</ele><time>2023-12-09T05:11:04Z</time><extensions><gpxtpx:TrackPointExtension><gpxtpx:cad>0</gpxtpx:cad></gpxtpx:TrackPointExtension></extensions></trkpt><trkpt lat="15.2710369974" lon="73.8962253649"><ele>-0.34</ele><time>2023-12-09T05:12:04Z</time><extensions><gpxtpx:TrackPointExtension><gpxtpx:cad>0</gpxtpx:cad></gpxtpx:TrackPointExtension></extensions></trkpt><trkpt lat="15.2699757647" lon="73.8978530467"><ele>3.50</ele><time>2023-12-09T05:13:04Z</time><extensions><gpxtpx:TrackPointExtension><gpxtpx:cad>0</gpxtpx:cad></gpxtpx:TrackPointExtension></extensions></trkpt><trkpt lat="15.2687597182" lon="73.8994117454"><ele>3.98</ele><time>2023-12-09T05:14:04Z</time><extensions><gpxtpx:TrackPointExtension><gpxtpx:cad>0</gpxtpx:cad></gpxtpx:TrackPointExtension></extensions></trkpt><trkpt lat="15.2676105592" lon="73.9009916503"><ele>3.50</ele><time>2023-12-09T05:15:04Z</time><extensions><gpxtpx:TrackPointExtension><gpxtpx:cad>0</gpxtpx:cad></gpxtpx:TrackPointExtension></extensions></trkpt><trkpt lat="15.2666659188" lon="73.9026914164"><ele>2.54</ele><time>2023-12-09T05:16:04Z</time><extensions><gpxtpx:TrackPointExtension><gpxtpx:cad>0</gpxtpx:cad></gpxtpx:TrackPointExtension></extensions></trkpt><trkpt lat="15.2657204401" lon="73.9043986425"><ele>5.42</ele><time>2023-12-09T05:17:04Z</time><extensions><gpxtpx:TrackPointExtension><gpxtpx:cad>0</gpxtpx:cad></gpxtpx:TrackPointExtension></extensions></trkpt><trkpt lat="15.2649406716" lon="73.9062033501"><ele>4.94</ele><time>2023-12-09T05:18:04Z</time><extensions><gpxtpx:TrackPointExtension><gpxtpx:cad>0</gpxtpx:cad></gpxtpx:TrackPointExtension></extensions></trkpt><trkpt lat="15.2639508527" lon="73.9078712650"><ele>4.46</ele><time>2023-12-09T05:19:04Z</time><extensions><gpxtpx:TrackPointExtension><gpxtpx:cad>0</gpxtpx:cad></gpxtpx:TrackPointExtension></extensions></trkpt><trkpt lat="15.2629862633" lon="73.9095824305"><ele>5.42</ele><time>2023-12-09T05:20:04Z</time><extensions><gpxtpx:TrackPointExtension><gpxtpx:cad>0</gpxtpx:cad></gpxtpx:TrackPointExtension></extensions></trkpt><trkpt lat="15.2619754057" lon="73.9112581406"><ele>5.42</ele><time>2023-12-09T05:21:04Z</time><extensions><gpxtpx:TrackPointExtension><gpxtpx:cad>0</gpxtpx:cad></gpxtpx:TrackPointExtension></extensions></trkpt><trkpt lat="15.2605591994" lon="73.9121924713"><ele>3.02</ele><time>2023-12-09T05:22:04Z</time><extensions><gpxtpx:TrackPointExtension><gpxtpx:cad>0</gpxtpx:cad></gpxtpx:TrackPointExtension></extensions></trkpt><trkpt lat="15.2587128337" lon="73.9115490764"><ele>2.54</ele><time>2023-12-09T05:23:04Z</time><extensions><gpxtpx:TrackPointExtension><gpxtpx:cad>0</gpxtpx:cad></gpxtpx:TrackPointExtension></extensions></trkpt><trkpt lat="15.2568261512" lon="73.9110016543"><ele>1.10</ele><time>2023-12-09T05:24:04Z</time><extensions><gpxtpx:TrackPointExtension><gpxtpx:cad>0</gpxtpx:cad></gpxtpx:TrackPointExtension></extensions></trkpt><trkpt lat="15.2550120559" lon="73.9101564232"><ele>2.54</ele><time>2023-12-09T05:25:04Z</time><extensions><gpxtpx:TrackPointExtension><gpxtpx:cad>0</gpxtpx:cad></gpxtpx:TrackPointExtension></extensions></trkpt><trkpt lat="15.2531333361" lon="73.9094275329"><ele>1.58</ele><time>2023-12-09T05:26:04Z</time><extensions><gpxtpx:TrackPointExtension><gpxtpx:cad>0</gpxtpx:cad></gpxtpx:TrackPointExtension></extensions></trkpt><trkpt lat="15.2512021456" lon="73.9088863134"><ele>2.54</ele><time>2023-12-09T05:27:04Z</time><extensions><gpxtpx:TrackPointExtension><gpxtpx:cad>0</gpxtpx:cad></gpxtpx:TrackPointExtension></extensions></trkpt><trkpt lat="15.2492759842" lon="73.9085160010"><ele>1.58</ele><time>2023-12-09T05:28:04Z</time><extensions><gpxtpx:TrackPointExtension><gpxtpx:cad>0</gpxtpx:cad></gpxtpx:TrackPointExtension></extensions></trkpt><trkpt lat="15.2473246772" lon="73.9081976563"><ele>2.06</ele><time>2023-12-09T05:29:04Z</time><extensions><gpxtpx:TrackPointExtension><gpxtpx:cad>0</gpxtpx:cad></gpxtpx:TrackPointExtension></extensions></trkpt><trkpt lat="15.2454571053" lon="73.9075231645"><ele>1.58</ele><time>2023-12-09T05:30:04Z</time><extensions><gpxtpx:TrackPointExtension><gpxtpx:cad>0</gpxtpx:cad></gpxtpx:TrackPointExtension></extensions></trkpt><trkpt lat="15.2435186226" lon="73.9070816059"><ele>2.54</ele><time>2023-12-09T05:31:04Z</time><extensions><gpxtpx:TrackPointExtension><gpxtpx:cad>0</gpxtpx:cad></gpxtpx:TrackPointExtension></extensions></trkpt><trkpt lat="15.2415800560" lon="73.9066024963"><ele>1.58</ele><time>2023-12-09T05:32:04Z</time><extensions><gpxtpx:TrackPointExtension><gpxtpx:cad>0</gpxtpx:cad></gpxtpx:TrackPointExtension></extensions></trkpt><trkpt lat="15.2401920967" lon="73.9076416846"><ele>3.02</ele><time>2023-12-09T05:33:04Z</time><extensions><gpxtpx:TrackPointExtension><gpxtpx:cad>0</gpxtpx:cad></gpxtpx:TrackPointExtension></extensions></trkpt><trkpt lat="15.2389279380" lon="73.9091516845"><ele>2.54</ele><time>2023-12-09T05:34:04Z</time><extensions><gpxtpx:TrackPointExtension><gpxtpx:cad>0</gpxtpx:cad></gpxtpx:TrackPointExtension></extensions></trkpt><trkpt lat="15.2376423217" lon="73.9106320962"><ele>3.02</ele><time>2023-12-09T05:35:04Z</time><extensions><gpxtpx:TrackPointExtension><gpxtpx:cad>0</gpxtpx:cad></gpxtpx:TrackPointExtension></extensions></trkpt><trkpt lat="15.2362507582" lon="73.9120321255"><ele>3.50</ele><time>2023-12-09T05:36:04Z</time><extensions><gpxtpx:TrackPointExtension><gpxtpx:cad>0</gpxtpx:cad></gpxtpx:TrackPointExtension></extensions></trkpt><trkpt lat="15.2351010963" lon="73.9136002120"><ele>1.58</ele><time>2023-12-09T05:37:04Z</time><extensions><gpxtpx:TrackPointExtension><gpxtpx:cad>0</gpxtpx:cad></gpxtpx:TrackPointExtension></extensions></trkpt><trkpt lat="15.2342749760" lon="73.9153588191"><ele>2.54</ele><time>2023-12-09T05:38:04Z</time><extensions><gpxtpx:TrackPointExtension><gpxtpx:cad>0</gpxtpx:cad></gpxtpx:TrackPointExtension></extensions></trkpt><trkpt lat="15.2335488517" lon="73.9171941206"><ele>2.06</ele><time>2023-12-09T05:39:04Z</time><extensions><gpxtpx:TrackPointExtension><gpxtpx:cad>0</gpxtpx:cad></gpxtpx:TrackPointExtension></extensions></trkpt><trkpt lat="15.2328532375" lon="73.9190262370"><ele>2.06</ele><time>2023-12-09T05:40:04Z</time><extensions><gpxtpx:TrackPointExtension><gpxtpx:cad>0</gpxtpx:cad></gpxtpx:TrackPointExtension></extensions></trkpt><trkpt lat="15.2321888041" lon="73.9208881930"><ele>2.06</ele><time>2023-12-09T05:41:04Z</time><extensions><gpxtpx:TrackPointExtension><gpxtpx:cad>0</gpxtpx:cad></gpxtpx:TrackPointExtension></extensions></trkpt><trkpt lat="15.2313423157" lon="73.9226404298"><ele>1.10</ele><time>2023-12-09T05:42:04Z</time><extensions><gpxtpx:TrackPointExtension><gpxtpx:cad>0</gpxtpx:cad></gpxtpx:TrackPointExtension></extensions></trkpt><trkpt lat="15.2296040766" lon="73.9218008984"><ele>0.62</ele><time>2023-12-09T05:43:04Z</time><extensions><gpxtpx:TrackPointExtension><gpxtpx:cad>0</gpxtpx:cad></gpxtpx:TrackPointExtension></extensions></trkpt><trkpt lat="15.2277613152" lon="73.9211777039"><ele>-1.30</ele><time>2023-12-09T05:44:04Z</time><extensions><gpxtpx:TrackPointExtension><gpxtpx:cad>0</gpxtpx:cad></gpxtpx:TrackPointExtension></extensions></trkpt><trkpt lat="15.2259934880" lon="73.9211242273"><ele>-0.34</ele><time>2023-12-09T05:45:04Z</time><extensions><gpxtpx:TrackPointExtension><gpxtpx:cad>0</gpxtpx:cad></gpxtpx:TrackPointExtension></extensions></trkpt><trkpt lat="15.2245020960" lon="73.9204606321"><ele>0.62</ele><time>2023-12-09T05:46:04Z</time><extensions><gpxtpx:TrackPointExtension><gpxtpx:cad>0</gpxtpx:cad></gpxtpx:TrackPointExtension></extensions></trkpt><trkpt lat="15.2226879168" lon="73.9196157362"><ele>0.62</ele><time>2023-12-09T05:47:04Z</time><extensions><gpxtpx:TrackPointExtension><gpxtpx:cad>0</gpxtpx:cad></gpxtpx:TrackPointExtension></extensions></trkpt><trkpt lat="15.2211464010" lon="73.9183308743"><ele>-1.30</ele><time>2023-12-09T05:48:04Z</time><extensions><gpxtpx:TrackPointExtension><gpxtpx:cad>0</gpxtpx:cad></gpxtpx:TrackPointExtension></extensions></trkpt><trkpt lat="15.2196902968" lon="73.9169305097"><ele>-0.34</ele><time>2023-12-09T05:49:04Z</time><extensions><gpxtpx:TrackPointExtension><gpxtpx:cad>0</gpxtpx:cad></gpxtpx:TrackPointExtension></extensions></trkpt><trkpt lat="15.2185297385" lon="73.9163158648"><ele>0.14</ele><time>2023-12-09T05:50:04Z</time><extensions><gpxtpx:TrackPointExtension><gpxtpx:cad>0</gpxtpx:cad></gpxtpx:TrackPointExtension></extensions></trkpt><trkpt lat="15.2184408065" lon="73.9164572675"><ele>1.10</ele><time>2023-12-09T05:51:04Z</time><extensions><gpxtpx:TrackPointExtension><gpxtpx:cad>0</gpxtpx:cad></gpxtpx:TrackPointExtension></extensions></trkpt><trkpt lat="15.2167311497" lon="73.9159416128"><ele>1.58</ele><time>2023-12-09T05:52:04Z</time><extensions><gpxtpx:TrackPointExtension><gpxtpx:cad>0</gpxtpx:cad></gpxtpx:TrackPointExtension></extensions></trkpt><trkpt lat="15.2148598898" lon="73.9153367747"><ele>1.10</ele><time>2023-12-09T05:53:04Z</time><extensions><gpxtpx:TrackPointExtension><gpxtpx:cad>0</gpxtpx:cad></gpxtpx:TrackPointExtension></extensions></trkpt><trkpt lat="15.2130405139" lon="73.9144501369"><ele>-0.82</ele><time>2023-12-09T05:54:04Z</time><extensions><gpxtpx:TrackPointExtension><gpxtpx:cad>0</gpxtpx:cad></gpxtpx:TrackPointExtension></extensions></trkpt><trkpt lat="15.2112068888" lon="73.9135670196"><ele>-0.82</ele><time>2023-12-09T05:55:04Z</time><extensions><gpxtpx:TrackPointExtension><gpxtpx:cad>0</gpxtpx:cad></gpxtpx:TrackPointExtension></extensions></trkpt><trkpt lat="15.2092668135" lon="73.9129930269"><ele>-2.75</ele><time>2023-12-09T05:56:04Z</time><extensions><gpxtpx:TrackPointExtension><gpxtpx:cad>0</gpxtpx:cad></gpxtpx:TrackPointExtension></extensions></trkpt><trkpt lat="15.2072830684" lon="73.9126028493"><ele>-1.30</ele><time>2023-12-09T05:57:04Z</time><extensions><gpxtpx:TrackPointExtension><gpxtpx:cad>0</gpxtpx:cad></gpxtpx:TrackPointExtension></extensions></trkpt><trkpt lat="15.2052730881" lon="73.9123785496"><ele>-1.79</ele><time>2023-12-09T05:58:04Z</time><extensions><gpxtpx:TrackPointExtension><gpxtpx:cad>0</gpxtpx:cad></gpxtpx:TrackPointExtension></extensions></trkpt><trkpt lat="15.2032951266" lon="73.9120197203"><ele>-1.30</ele><time>2023-12-09T05:59:04Z</time><extensions><gpxtpx:TrackPointExtension><gpxtpx:cad>0</gpxtpx:cad></gpxtpx:TrackPointExtension></extensions></trkpt><trkpt lat="15.2016144712" lon="73.9121484663"><ele>-0.34</ele><time>2023-12-09T06:00:04Z</time><extensions><gpxtpx:TrackPointExtension><gpxtpx:cad>0</gpxtpx:cad></gpxtpx:TrackPointExtension></extensions></trkpt><trkpt lat="15.2004942298" lon="73.9137954265"><ele>-0.82</ele><time>2023-12-09T06:01:04Z</time><extensions><gpxtpx:TrackPointExtension><gpxtpx:cad>0</gpxtpx:cad></gpxtpx:TrackPointExtension></extensions></trkpt><trkpt lat="15.1993516088" lon="73.9154297300"><ele>-1.30</ele><time>2023-12-09T06:02:04Z</time><extensions><gpxtpx:TrackPointExtension><gpxtpx:cad>0</gpxtpx:cad></gpxtpx:TrackPointExtension></extensions></trkpt><trkpt lat="15.1983798947" lon="73.9171512052"><ele>-1.30</ele><time>2023-12-09T06:03:04Z</time><extensions><gpxtpx:TrackPointExtension><gpxtpx:cad>0</gpxtpx:cad></gpxtpx:TrackPointExtension></extensions></trkpt><trkpt lat="15.1972628385" lon="73.9188335370"><ele>-2.27</ele><time>2023-12-09T06:04:04Z</time><extensions><gpxtpx:TrackPointExtension><gpxtpx:cad>0</gpxtpx:cad></gpxtpx:TrackPointExtension></extensions></trkpt><trkpt lat="15.1960576046" lon="73.9204529207"><ele>-2.27</ele><time>2023-12-09T06:05:04Z</time><extensions><gpxtpx:TrackPointExtension><gpxtpx:cad>0</gpxtpx:cad></gpxtpx:TrackPointExtension></extensions></trkpt><trkpt lat="15.1947284862" lon="73.9219684526"><ele>-1.30</ele><time>2023-12-09T06:06:04Z</time><extensions><gpxtpx:TrackPointExtension><gpxtpx:cad>0</gpxtpx:cad></gpxtpx:TrackPointExtension></extensions></trkpt><trkpt lat="15.1934697758" lon="73.9235456754"><ele>0.14</ele><time>2023-12-09T06:07:04Z</time><extensions><gpxtpx:TrackPointExtension><gpxtpx:cad>0</gpxtpx:cad></gpxtpx:TrackPointExtension></extensions></trkpt><trkpt lat="15.1924044359" lon="73.9251999278"><ele>1.58</ele><time>2023-12-09T06:08:04Z</time><extensions><gpxtpx:TrackPointExtension><gpxtpx:cad>0</gpxtpx:cad></gpxtpx:TrackPointExtension></extensions></trkpt><trkpt lat="15.1912911516" lon="73.9268879592"><ele>0.14</ele><time>2023-12-09T06:09:04Z</time><extensions><gpxtpx:TrackPointExtension><gpxtpx:cad>0</gpxtpx:cad></gpxtpx:TrackPointExtension></extensions></trkpt><trkpt lat="15.1903100498" lon="73.9286567923"><ele>0.62</ele><time>2023-12-09T06:10:04Z</time><extensions><gpxtpx:TrackPointExtension><gpxtpx:cad>0</gpxtpx:cad></gpxtpx:TrackPointExtension></extensions></trkpt><trkpt lat="15.1894229930" lon="73.9304544590"><ele>0.14</ele><time>2023-12-09T06:11:04Z</time><extensions><gpxtpx:TrackPointExtension><gpxtpx:cad>0</gpxtpx:cad></gpxtpx:TrackPointExtension></extensions></trkpt><trkpt lat="15.1880599279" lon="73.9318952244"><ele>-0.82</ele><time>2023-12-09T06:12:04Z</time><extensions><gpxtpx:TrackPointExtension><gpxtpx:cad>0</gpxtpx:cad></gpxtpx:TrackPointExtension></extensions></trkpt><trkpt lat="15.1865647640" lon="73.9331921563"><ele>-0.82</ele><time>2023-12-09T06:13:04Z</time><extensions><gpxtpx:TrackPointExtension><gpxtpx:cad>0</gpxtpx:cad></gpxtpx:TrackPointExtension></extensions></trkpt><trkpt lat="15.1849956717" lon="73.9344645292"><ele>-0.34</ele><time>2023-12-09T06:14:04Z</time><extensions><gpxtpx:TrackPointExtension><gpxtpx:cad>0</gpxtpx:cad></gpxtpx:TrackPointExtension></extensions></trkpt><trkpt lat="15.1832755376" lon="73.9353950880"><ele>0.14</ele><time>2023-12-09T06:15:04Z</time><extensions><gpxtpx:TrackPointExtension><gpxtpx:cad>0</gpxtpx:cad></gpxtpx:TrackPointExtension></extensions></trkpt><trkpt lat="15.1814263221" lon="73.9360574260"><ele>0.62</ele><time>2023-12-09T06:16:04Z</time><extensions><gpxtpx:TrackPointExtension><gpxtpx:cad>0</gpxtpx:cad></gpxtpx:TrackPointExtension></extensions></trkpt><trkpt lat="15.1798092853" lon="73.9354628976"><ele>-3.71</ele><time>2023-12-09T06:17:04Z</time><extensions><gpxtpx:TrackPointExtension><gpxtpx:cad>0</gpxtpx:cad></gpxtpx:TrackPointExtension></extensions></trkpt><trkpt lat="15.1781662647" lon="73.9344271459"><ele>-4.67</ele><time>2023-12-09T06:18:04Z</time><extensions><gpxtpx:TrackPointExtension><gpxtpx:cad>0</gpxtpx:cad></gpxtpx:TrackPointExtension></extensions></trkpt><trkpt lat="15.1764614694" lon="73.9334981795"><ele>-4.67</ele><time>2023-12-09T06:19:04Z</time><extensions><gpxtpx:TrackPointExtension><gpxtpx:cad>0</gpxtpx:cad></gpxtpx:TrackPointExtension></extensions></trkpt><trkpt lat="15.1748007629" lon="73.9324324206"><ele>-2.27</ele><time>2023-12-09T06:20:04Z</time><extensions><gpxtpx:TrackPointExtension><gpxtpx:cad>0</gpxtpx:cad></gpxtpx:TrackPointExtension></extensions></trkpt><trkpt lat="15.1728787087" lon="73.9319502935"><ele>0.14</ele><time>2023-12-09T06:21:04Z</time><extensions><gpxtpx:TrackPointExtension><gpxtpx:cad>0</gpxtpx:cad></gpxtpx:TrackPointExtension></extensions></trkpt><trkpt lat="15.1710369531" lon="73.9312447049"><ele>0.62</ele><time>2023-12-09T06:22:04Z</time><extensions><gpxtpx:TrackPointExtension><gpxtpx:cad>0</gpxtpx:cad></gpxtpx:TrackPointExtension></extensions></trkpt><trkpt lat="15.1692112070" lon="73.9304493461"><ele>-2.75</ele><time>2023-12-09T06:23:04Z</time><extensions><gpxtpx:TrackPointExtension><gpxtpx:cad>0</gpxtpx:cad></gpxtpx:TrackPointExtension></extensions></trkpt><trkpt lat="15.1673839521" lon="73.9296746906"><ele>-1.79</ele><time>2023-12-09T06:24:04Z</time><extensions><gpxtpx:TrackPointExtension><gpxtpx:cad>0</gpxtpx:cad></gpxtpx:TrackPointExtension></extensions></trkpt><trkpt lat="15.1654846128" lon="73.9290816709"><ele>-0.34</ele><time>2023-12-09T06:25:04Z</time><extensions><gpxtpx:TrackPointExtension><gpxtpx:cad>0</gpxtpx:cad></gpxtpx:TrackPointExtension></extensions></trkpt><trkpt lat="15.1635670848" lon="73.9285495039"><ele>-0.34</ele><time>2023-12-09T06:26:04Z</time><extensions><gpxtpx:TrackPointExtension><gpxtpx:cad>0</gpxtpx:cad></gpxtpx:TrackPointExtension></extensions></trkpt><trkpt lat="15.1616970822" lon="73.9278776944"><ele>-0.34</ele><time>2023-12-09T06:27:04Z</time><extensions><gpxtpx:TrackPointExtension><gpxtpx:cad>0</gpxtpx:cad></gpxtpx:TrackPointExtension></extensions></trkpt><trkpt lat="15.1598442625" lon="73.9271508995"><ele>-0.82</ele><time>2023-12-09T06:28:04Z</time><extensions><gpxtpx:TrackPointExtension><gpxtpx:cad>0</gpxtpx:cad></gpxtpx:TrackPointExtension></extensions></trkpt><trkpt lat="15.1588800922" lon="73.9270796534"><ele>-2.75</ele><time>2023-12-09T06:29:04Z</time><extensions><gpxtpx:TrackPointExtension><gpxtpx:cad>0</gpxtpx:cad></gpxtpx:TrackPointExtension></extensions></trkpt><trkpt lat="15.1582921855" lon="73.9272966608"><ele>0.14</ele><time>2023-12-09T06:30:04Z</time><extensions><gpxtpx:TrackPointExtension><gpxtpx:cad>0</gpxtpx:cad></gpxtpx:TrackPointExtension></extensions></trkpt><trkpt lat="15.1568885520" lon="73.9287777431"><ele>-0.34</ele><time>2023-12-09T06:31:04Z</time><extensions><gpxtpx:TrackPointExtension><gpxtpx:cad>0</gpxtpx:cad></gpxtpx:TrackPointExtension></extensions></trkpt><trkpt lat="15.1556264888" lon="73.9303418063"><ele>1.58</ele><time>2023-12-09T06:32:04Z</time><extensions><gpxtpx:TrackPointExtension><gpxtpx:cad>0</gpxtpx:cad></gpxtpx:TrackPointExtension></extensions></trkpt><trkpt lat="15.1542790141" lon="73.9320188574"><ele>1.58</ele><time>2023-12-09T06:33:04Z</time><extensions><gpxtpx:TrackPointExtension><gpxtpx:cad>0</gpxtpx:cad></gpxtpx:TrackPointExtension></extensions></trkpt><trkpt lat="15.1530255843" lon="73.9337239042"><ele>-0.82</ele><time>2023-12-09T06:34:04Z</time><extensions><gpxtpx:TrackPointExtension><gpxtpx:cad>0</gpxtpx:cad></gpxtpx:TrackPointExtension></extensions></trkpt><trkpt lat="15.1517309155" lon="73.9354718663"><ele>-0.34</ele><time>2023-12-09T06:35:04Z</time><extensions><gpxtpx:TrackPointExtension><gpxtpx:cad>0</gpxtpx:cad></gpxtpx:TrackPointExtension></extensions></trkpt><trkpt lat="15.1504219975" lon="73.9371536113"><ele>-0.82</ele><time>2023-12-09T06:36:04Z</time><extensions><gpxtpx:TrackPointExtension><gpxtpx:cad>0</gpxtpx:cad></gpxtpx:TrackPointExtension></extensions></trkpt><trkpt lat="15.1491451822" lon="73.9388430677"><ele>1.58</ele><time>2023-12-09T06:37:04Z</time><extensions><gpxtpx:TrackPointExtension><gpxtpx:cad>0</gpxtpx:cad></gpxtpx:TrackPointExtension></extensions></trkpt><trkpt lat="15.1479934249" lon="73.9404614456"><ele>1.10</ele><time>2023-12-09T06:38:04Z</time><extensions><gpxtpx:TrackPointExtension><gpxtpx:cad>0</gpxtpx:cad></gpxtpx:TrackPointExtension></extensions></trkpt><trkpt lat="15.1467273384" lon="73.9420386683"><ele>2.54</ele><time>2023-12-09T06:39:04Z</time><extensions><gpxtpx:TrackPointExtension><gpxtpx:cad>0</gpxtpx:cad></gpxtpx:TrackPointExtension></extensions></trkpt><trkpt lat="15.1453466713" lon="73.9434847143"><ele>5.91</ele><time>2023-12-09T06:40:04Z</time><extensions><gpxtpx:TrackPointExtension><gpxtpx:cad>0</gpxtpx:cad></gpxtpx:TrackPointExtension></extensions></trkpt><trkpt lat="15.1440300420" lon="73.9449502900"><ele>3.98</ele><time>2023-12-09T06:41:04Z</time><extensions><gpxtpx:TrackPointExtension><gpxtpx:cad>0</gpxtpx:cad></gpxtpx:TrackPointExtension></extensions></trkpt><trkpt lat="15.1432362758" lon="73.9462044742"><ele>1.58</ele><time>2023-12-09T06:42:04Z</time><extensions><gpxtpx:TrackPointExtension><gpxtpx:cad>0</gpxtpx:cad></gpxtpx:TrackPointExtension></extensions></trkpt><trkpt lat="15.1427644584" lon="73.9476998057"><ele>-0.82</ele><time>2023-12-09T06:43:04Z</time><extensions><gpxtpx:TrackPointExtension><gpxtpx:cad>0</gpxtpx:cad></gpxtpx:TrackPointExtension></extensions></trkpt><trkpt lat="15.1423519012" lon="73.9492198639"><ele>-0.34</ele><time>2023-12-09T06:44:04Z</time><extensions><gpxtpx:TrackPointExtension><gpxtpx:cad>0</gpxtpx:cad></gpxtpx:TrackPointExtension></extensions></trkpt><trkpt lat="15.1426680665" lon="73.9504479803"><ele>1.58</ele><time>2023-12-09T06:45:04Z</time><extensions><gpxtpx:TrackPointExtension><gpxtpx:cad>0</gpxtpx:cad></gpxtpx:TrackPointExtension></extensions></trkpt><trkpt lat="15.1432859804" lon="73.9506799914"><ele>3.50</ele><time>2023-12-09T06:46:04Z</time><extensions><gpxtpx:TrackPointExtension><gpxtpx:cad>0</gpxtpx:cad></gpxtpx:TrackPointExtension></extensions></trkpt><trkpt lat="15.1441792399" lon="73.9510593563"><ele>3.98</ele><time>2023-12-09T06:47:04Z</time><extensions><gpxtpx:TrackPointExtension><gpxtpx:cad>0</gpxtpx:cad></gpxtpx:TrackPointExtension></extensions></trkpt><trkpt lat="15.1450078748" lon="73.9513450954"><ele>1.10</ele><time>2023-12-09T06:48:04Z</time><extensions><gpxtpx:TrackPointExtension><gpxtpx:cad>0</gpxtpx:cad></gpxtpx:TrackPointExtension></extensions></trkpt></trkseg></trk></gpx>