<?xml version="1.0" encoding="UTF-8" standalone="no" ?><gpx xmlns="http://www.topografix.com/GPX/1/1" xmlns:gpxx="http://www.garmin.com/xmlschemas/GpxExtensions/v3" xmlns:wptx1="http://www.garmin.com/xmlschemas/WaypointExtension/v1" xmlns:gpxtpx="http://www.garmin.com/xmlschemas/TrackPointExtension/v1" creator="eTrex 10 SEA" version="1.1" xmlns:xsi="http://www.w3.org/2001/XMLSchema-instance" xsi:schemaLocation="http://www.topografix.com/GPX/1/1 http://www.topografix.com/GPX/1/1/gpx.xsd http://www.garmin.com/xmlschemas/GpxExtensions/v3 http://www8.garmin.com/xmlschemas/GpxExtensionsv3.xsd http://www.garmin.com/xmlschemas/WaypointExtension/v1 http://www8.garmin.com/xmlschemas/WaypointExtensionv1.xsd http://www.garmin.com/xmlschemas/TrackPointExtension/v1 http://www.garmin.com/xmlschemas/TrackPointExtensionv1.xsd"><metadata><link href="http://www.garmin.com"><text>Garmin International</text></link><time>2023-12-10T05:50:26Z</time></metadata><trk><name>10-DEC-23 11:20:23</name><extensions><gpxx:TrackExtension><gpxx:DisplayColor>Cyan</gpxx:DisplayColor></gpxx:TrackExtension></extensions><trkseg><trkpt lat="15.1427937951" lon="73.9464799035"><ele>-2.75</ele><time>2023-12-10T01:17:21Z</time><extensions><gpxtpx:TrackPointExtension><gpxtpx:cad>0</gpxtpx:cad></gpxtpx:TrackPointExtension></extensions></trkpt><trkpt lat="15.1429263968" lon="73.9456177410"><ele>-3.71</ele><time>2023-12-10T01:17:45Z</time><extensions><gpxtpx:TrackPointExtension><gpxtpx:cad>0</gpxtpx:cad></gpxtpx:TrackPointExtension></extensions></trkpt><trkpt lat="15.1429422386" lon="73.9453975484"><ele>-3.23</ele><time>2023-12-10T01:17:51Z</time><extensions><gpxtpx:TrackPointExtension><gpxtpx:cad>0</gpxtpx:cad></gpxtpx:TrackPointExtension></extensions></trkpt><trkpt lat="15.1423426811" lon="73.9431639388"><ele>-2.27</ele><time>2023-12-10T01:18:51Z</time><extensions><gpxtpx:TrackPointExtension><gpxtpx:cad>0</gpxtpx:cad></gpxtpx:TrackPointExtension></extensions></trkpt><trkpt lat="15.1411439013" lon="73.9410567284"><ele>-2.75</ele><time>2023-12-10T01:19:51Z</time><extensions><gpxtpx:TrackPointExtension><gpxtpx:cad>0</gpxtpx:cad></gpxtpx:TrackPointExtension></extensions></trkpt><trkpt lat="15.1398716122" lon="73.9392807707"><ele>-0.34</ele><time>2023-12-10T01:20:51Z</time><extensions><gpxtpx:TrackPointExtension><gpxtpx:cad>0</gpxtpx:cad></gpxtpx:TrackPointExtension></extensions></trkpt><trkpt lat="15.1390511915" lon="73.9374768175"><ele>0.14</ele><time>2023-12-10T01:21:51Z</time><extensions><gpxtpx:TrackPointExtension><gpxtpx:cad>0</gpxtpx:cad></gpxtpx:TrackPointExtension></extensions></trkpt><trkpt lat="15.1382639632" lon="73.9356775582"><ele>-0.82</ele><time>2023-12-10T01:22:51Z</time><extensions><gpxtpx:TrackPointExtension><gpxtpx:cad>0</gpxtpx:cad></gpxtpx:TrackPointExtension></extensions></trkpt><trkpt lat="15.1374638267" lon="73.9338693302"><ele>-0.82</ele><time>2023-12-10T01:23:51Z</time><extensions><gpxtpx:TrackPointExtension><gpxtpx:cad>0</gpxtpx:cad></gpxtpx:TrackPointExtension></extensions></trkpt><trkpt lat="15.1369599905" lon="73.9319643751"><ele>-0.34</ele><time>2023-12-10T01:24:51Z</time><extensions><gpxtpx:TrackPointExtension><gpxtpx:cad>0</gpxtpx:cad></gpxtpx:TrackPointExtension></extensions></trkpt><trkpt lat="15.1366732456" lon="73.9299969748"><ele>0.14</ele><time>2023-12-10T01:25:51Z</time><extensions><gpxtpx:TrackPointExtension><gpxtpx:cad>0</gpxtpx:cad></gpxtpx:TrackPointExtension></extensions></trkpt><trkpt lat="15.1364570763" lon="73.9280228689"><ele>-0.82</ele><time>2023-12-10T01:26:51Z</time><extensions><gpxtpx:TrackPointExtension><gpxtpx:cad>0</gpxtpx:cad></gpxtpx:TrackPointExtension></extensions></trkpt><trkpt lat="15.1359367277" lon="73.9260853920"><ele>-0.34</ele><time>2023-12-10T01:27:51Z</time><extensions><gpxtpx:TrackPointExtension><gpxtpx:cad>0</gpxtpx:cad></gpxtpx:TrackPointExtension></extensions></trkpt><trkpt lat="15.1356047206" lon="73.9241044130"><ele>-1.30</ele><time>2023-12-10T01:28:51Z</time><extensions><gpxtpx:TrackPointExtension><gpxtpx:cad>0</gpxtpx:cad></gpxtpx:TrackPointExtension></extensions></trkpt><trkpt lat="15.1343806274" lon="73.9232355449"><ele>-1.30</ele><time>2023-12-10T01:29:51Z</time><extensions><gpxtpx:TrackPointExtension><gpxtpx:cad>0</gpxtpx:cad></gpxtpx:TrackPointExtension></extensions></trkpt><trkpt lat="15.1324680448" lon="73.9234831464"><ele>-1.79</ele><time>2023-12-10T01:30:51Z</time><extensions><gpxtpx:TrackPointExtension><gpxtpx:cad>0</gpxtpx:cad></gpxtpx:TrackPointExtension></extensions></trkpt><trkpt lat="15.1305859722" lon="73.9238180034"><ele>-2.27</ele><time>2023-12-10T01:31:51Z</time><extensions><gpxtpx:TrackPointExtension><gpxtpx:cad>0</gpxtpx:cad></gpxtpx:TrackPointExtension></extensions></trkpt><trkpt lat="15.1287319791" lon="73.9243449736"><ele>-2.27</ele><time>2023-12-10T01:32:51Z</time><extensions><gpxtpx:TrackPointExtension><gpxtpx:cad>0</gpxtpx:cad></gpxtpx:TrackPointExtension></extensions></trkpt><trkpt lat="15.1269303728" lon="73.9250767138"><ele>-3.23</ele><time>2023-12-10T01:33:51Z</time><extensions><gpxtpx:TrackPointExtension><gpxtpx:cad>0</gpxtpx:cad></gpxtpx:TrackPointExtension></extensions></trkpt><trkpt lat="15.1250783075" lon="73.9257800393"><ele>-1.30</ele><time>2023-12-10T01:34:51Z</time><extensions><gpxtpx:TrackPointExtension><gpxtpx:cad>0</gpxtpx:cad></gpxtpx:TrackPointExtension></extensions></trkpt><trkpt lat="15.1232904475" lon="73.9265591372"><ele>-0.34</ele><time>2023-12-10T01:35:51Z</time><extensions><gpxtpx:TrackPointExtension><gpxtpx:cad>0</gpxtpx:cad></gpxtpx:TrackPointExtension></extensions></trkpt><trkpt lat="15.1215716545" lon="73.9275441784"><ele>-0.34</ele><time>2023-12-10T01:36:51Z</time><extensions><gpxtpx:TrackPointExtension><gpxtpx:cad>0</gpxtpx:cad></gpxtpx:TrackPointExtension></extensions></trkpt><trkpt lat="15.1198027376" lon="73.9284819458"><ele>1.58</ele><time>2023-12-10T01:37:51Z</time><extensions><gpxtpx:TrackPointExtension><gpxtpx:cad>0</gpxtpx:cad></gpxtpx:TrackPointExtension></extensions></trkpt><trkpt lat="15.1180993672" lon="73.9294057991"><ele>0.62</ele><time>2023-12-10T01:38:51Z</time><extensions><gpxtpx:TrackPointExtension><gpxtpx:cad>0</gpxtpx:cad></gpxtpx:TrackPointExtension></extensions></trkpt><trkpt lat="15.1163213141" lon="73.9301228710"><ele>-0.34</ele><time>2023-12-10T01:39:51Z</time><extensions><gpxtpx:TrackPointExtension><gpxtpx:cad>0</gpxtpx:cad></gpxtpx:TrackPointExtension></extensions></trkpt><trkpt lat="15.1163851842" lon="73.9283307362"><ele>1.10</ele><time>2023-12-10T01:40:51Z</time><extensions><gpxtpx:TrackPointExtension><gpxtpx:cad>0</gpxtpx:cad></gpxtpx:TrackPointExtension></extensions></trkpt><trkpt lat="15.1158621535" lon="73.9264215063"><ele>-1.30</ele><time>2023-12-10T01:41:51Z</time><extensions><gpxtpx:TrackPointExtension><gpxtpx:cad>0</gpxtpx:cad></gpxtpx:TrackPointExtension></extensions></trkpt><trkpt lat="15.1154817827" lon="73.9244631585"><ele>-0.34</ele><time>2023-12-10T01:42:51Z</time><extensions><gpxtpx:TrackPointExtension><gpxtpx:cad>0</gpxtpx:cad></gpxtpx:TrackPointExtension></extensions></trkpt><trkpt lat="15.1153165754" lon="73.9224703610"><ele>0.62</ele><time>2023-12-10T01:43:51Z</time><extensions><gpxtpx:TrackPointExtension><gpxtpx:cad>0</gpxtpx:cad></gpxtpx:TrackPointExtension></extensions></trkpt><trkpt lat="15.1147756074" lon="73.9205451217"><ele>0.62</ele><time>2023-12-10T01:44:51Z</time><extensions><gpxtpx:TrackPointExtension><gpxtpx:cad>0</gpxtpx:cad></gpxtpx:TrackPointExtension></extensions></trkpt><trkpt lat="15.1139734592" lon="73.9187384862"><ele>0.14</ele><time>2023-12-10T01:45:51Z</time><extensions><gpxtpx:TrackPointExtension><gpxtpx:cad>0</gpxtpx:cad></gpxtpx:TrackPointExtension></extensions></trkpt><trkpt lat="15.1129303314" lon="73.9171040989"><ele>0.14</ele><time>2023-12-10T01:46:51Z</time><extensions><gpxtpx:TrackPointExtension><gpxtpx:cad>0</gpxtpx:cad></gpxtpx:TrackPointExtension></extensions></trkpt><trkpt lat="15.1118252613" lon="73.9154561330"><ele>0.62</ele><time>2023-12-10T01:47:51Z</time><extensions><gpxtpx:TrackPointExtension><gpxtpx:cad>0</gpxtpx:cad></gpxtpx:TrackPointExtension></extensions></trkpt><trkpt lat="15.1106297504" lon="73.9138447121"><ele>1.10</ele><time>2023-12-10T01:48:51Z</time><extensions><gpxtpx:TrackPointExtension><gpxtpx:cad>0</gpxtpx:cad></gpxtpx:TrackPointExtension></extensions></trkpt><trkpt lat="15.1089271344" lon="73.9144883584"><ele>0.62</ele><time>2023-12-10T01:49:51Z</time><extensions><gpxtpx:TrackPointExtension><gpxtpx:cad>0</gpxtpx:cad></gpxtpx:TrackPointExtension></extensions></trkpt><trkpt lat="15.1072814316" lon="73.9155569673"><ele>3.02</ele><time>2023-12-10T01:50:51Z</time><extensions><gpxtpx:TrackPointExtension><gpxtpx:cad>0</gpxtpx:cad></gpxtpx:TrackPointExtension></extensions></trkpt><trkpt lat="15.1056506485" lon="73.9166192897"><ele>2.54</ele><time>2023-12-10T01:51:51Z</time><extensions><gpxtpx:TrackPointExtension><gpxtpx:cad>0</gpxtpx:cad></gpxtpx:TrackPointExtension></extensions></trkpt><trkpt lat="15.1040714979" lon="73.9177763276"><ele>-0.34</ele><time>2023-12-10T01:52:51Z</time><extensions><gpxtpx:TrackPointExtension><gpxtpx:cad>0</gpxtpx:cad></gpxtpx:TrackPointExtension></extensions></trkpt><trkpt lat="15.1024389546" lon="73.9188292623"><ele>0.62</ele><time>2023-12-10T01:53:51Z</time><extensions><gpxtpx:TrackPointExtension><gpxtpx:cad>0</gpxtpx:cad></gpxtpx:TrackPointExtension></extensions></trkpt><trkpt lat="15.1008773223" lon="73.9199609030"><ele>1.58</ele><time>2023-12-10T01:54:51Z</time><extensions><gpxtpx:TrackPointExtension><gpxtpx:cad>0</gpxtpx:cad></gpxtpx:TrackPointExtension></extensions></trkpt><trkpt lat="15.0993853435" lon="73.9212232176"><ele>2.06</ele><time>2023-12-10T01:55:51Z</time><extensions><gpxtpx:TrackPointExtension><gpxtpx:cad>0</gpxtpx:cad></gpxtpx:TrackPointExtension></extensions></trkpt><trkpt lat="15.0977999903" lon="73.9223317243"><ele>1.58</ele><time>2023-12-10T01:56:51Z</time><extensions><gpxtpx:TrackPointExtension><gpxtpx:cad>0</gpxtpx:cad></gpxtpx:TrackPointExtension></extensions></trkpt><trkpt lat="15.0968480576" lon="73.9208108280"><ele>1.10</ele><time>2023-12-10T01:57:51Z</time><extensions><gpxtpx:TrackPointExtension><gpxtpx:cad>0</gpxtpx:cad></gpxtpx:TrackPointExtension></extensions></trkpt><trkpt lat="15.0956953783" lon="73.9192199428"><ele>3.50</ele><time>2023-12-10T01:58:51Z</time><extensions><gpxtpx:TrackPointExtension><gpxtpx:cad>0</gpxtpx:cad></gpxtpx:TrackPointExtension></extensions></trkpt><trkpt lat="15.0946544297" lon="73.9175366890"><ele>2.06</ele><time>2023-12-10T01:59:51Z</time><extensions><gpxtpx:TrackPointExtension><gpxtpx:cad>0</gpxtpx:cad></gpxtpx:TrackPointExtension></extensions></trkpt><trkpt lat="15.0936338492" lon="73.9158417843"><ele>2.06</ele><time>2023-12-10T02:00:51Z</time><extensions><gpxtpx:TrackPointExtension><gpxtpx:cad>0</gpxtpx:cad></gpxtpx:TrackPointExtension></extensions></trkpt><trkpt lat="15.0924520008" lon="73.9142580237"><ele>2.06</ele><time>2023-12-10T02:01:51Z</time><extensions><gpxtpx:TrackPointExtension><gpxtpx:cad>0</gpxtpx:cad></gpxtpx:TrackPointExtension></extensions></trkpt><trkpt lat="15.0910471939" lon="73.9128239639"><ele>3.02</ele><time>2023-12-10T02:02:51Z</time><extensions><gpxtpx:TrackPointExtension><gpxtpx:cad>0</gpxtpx:cad></gpxtpx:TrackPointExtension></extensions></trkpt><trkpt lat="15.0895254593" lon="73.9115456399"><ele>2.54</ele><time>2023-12-10T02:03:51Z</time><extensions><gpxtpx:TrackPointExtension><gpxtpx:cad>0</gpxtpx:cad></gpxtpx:TrackPointExtension></extensions></trkpt><trkpt lat="15.0879116915" lon="73.9103662223"><ele>3.02</ele><time>2023-12-10T02:04:51Z</time><extensions><gpxtpx:TrackPointExtension><gpxtpx:cad>0</gpxtpx:cad></gpxtpx:TrackPointExtension></extensions></trkpt><trkpt lat="15.0862073991" lon="73.9093002956"><ele>2.06</ele><time>2023-12-10T02:05:51Z</time><extensions><gpxtpx:TrackPointExtension><gpxtpx:cad>0</gpxtpx:cad></gpxtpx:TrackPointExtension></extensions></trkpt><trkpt lat="15.0849641953" lon="73.9079632144"><ele>2.54</ele><time>2023-12-10T02:06:51Z</time><extensions><gpxtpx:TrackPointExtension><gpxtpx:cad>0</gpxtpx:cad></gpxtpx:TrackPointExtension></extensions></trkpt><trkpt lat="15.0843272544" lon="73.9066739939"><ele>3.02</ele><time>2023-12-10T02:07:51Z</time><extensions><gpxtpx:TrackPointExtension><gpxtpx:cad>0</gpxtpx:cad></gpxtpx:TrackPointExtension></extensions></trkpt><trkpt lat="15.0837035570" lon="73.9050652552"><ele>2.54</ele><time>2023-12-10T02:08:51Z</time><extensions><gpxtpx:TrackPointExtension><gpxtpx:cad>0</gpxtpx:cad></gpxtpx:TrackPointExtension></extensions></trkpt><trkpt lat="15.0827699807" lon="73.9035435207"><ele>3.02</ele><time>2023-12-10T02:09:51Z</time><extensions><gpxtpx:TrackPointExtension><gpxtpx:cad>0</gpxtpx:cad></gpxtpx:TrackPointExtension></extensions></trkpt><trkpt lat="15.0822051242" lon="73.9050479047"><ele>2.54</ele><time>2023-12-10T02:10:51Z</time><extensions><gpxtpx:TrackPointExtension><gpxtpx:cad>0</gpxtpx:cad></gpxtpx:TrackPointExtension></extensions></trkpt><trkpt lat="15.0813018065" lon="73.9066517819"><ele>1.10</ele><time>2023-12-10T02:11:51Z</time><extensions><gpxtpx:TrackPointExtension><gpxtpx:cad>0</gpxtpx:cad></gpxtpx:TrackPointExtension></extensions></trkpt><trkpt lat="15.0806507003" lon="73.9083376341"><ele>1.58</ele><time>2023-12-10T02:12:51Z</time><extensions><gpxtpx:TrackPointExtension><gpxtpx:cad>0</gpxtpx:cad></gpxtpx:TrackPointExtension></extensions></trkpt><trkpt lat="15.0800435990" lon="73.9099740330"><ele>1.10</ele><time>2023-12-10T02:13:51Z</time><extensions><gpxtpx:TrackPointExtension><gpxtpx:cad>0</gpxtpx:cad></gpxtpx:TrackPointExtension></extensions></trkpt><trkpt lat="15.0793161336" lon="73.9115257747"><ele>1.10</ele><time>2023-12-10T02:14:51Z</time><extensions><gpxtpx:TrackPointExtension><gpxtpx:cad>0</gpxtpx:cad></gpxtpx:TrackPointExtension></extensions></trkpt><trkpt lat="15.0790279638" lon="73.9132874832"><ele>3.50</ele><time>2023-12-10T02:15:51Z</time><extensions><gpxtpx:TrackPointExtension><gpxtpx:cad>0</gpxtpx:cad></gpxtpx:TrackPointExtension></extensions></trkpt><trkpt lat="15.0789645966" lon="73.9150480181"><ele>3.50</ele><time>2023-12-10T02:16:51Z</time><extensions><gpxtpx:TrackPointExtension><gpxtpx:cad>0</gpxtpx:cad></gpxtpx:TrackPointExtension></extensions></trkpt><trkpt lat="15.0788192544" lon="73.9168378059"><ele>2.54</ele><time>2023-12-10T02:17:51Z</time><extensions><gpxtpx:TrackPointExtension><gpxtpx:cad>0</gpxtpx:cad></gpxtpx:TrackPointExtension></extensions></trkpt><trkpt lat="15.0786506943" lon="73.9186532423"><ele>2.54</ele><time>2023-12-10T02:18:51Z</time><extensions><gpxtpx:TrackPointExtension><gpxtpx:cad>0</gpxtpx:cad></gpxtpx:TrackPointExtension></extensions></trkpt><trkpt lat="15.0786504429" lon="73.9204380009"><ele>3.02</ele><time>2023-12-10T02:19:51Z</time><extensions><gpxtpx:TrackPointExtension><gpxtpx:cad>0</gpxtpx:cad></gpxtpx:TrackPointExtension></extensions></trkpt><trkpt lat="15.0787107926" lon="73.9222617354"><ele>3.50</ele><time>2023-12-10T02:20:51Z</time><extensions><gpxtpx:TrackPointExtension><gpxtpx:cad>0</gpxtpx:cad></gpxtpx:TrackPointExtension></extensions></trkpt><trkpt lat="15.0786902569" lon="73.9240647666"><ele>2.54</ele><time>2023-12-10T02:21:51Z</time><extensions><gpxtpx:TrackPointExtension><gpxtpx:cad>0</gpxtpx:cad></gpxtpx:TrackPointExtension></extensions></trkpt><trkpt lat="15.0786878262" lon="73.9258558955"><ele>2.54</ele><time>2023-12-10T02:22:51Z</time><extensions><gpxtpx:TrackPointExtension><gpxtpx:cad>0</gpxtpx:cad></gpxtpx:TrackPointExtension></extensions></trkpt><trkpt lat="15.0788137224" lon="73.9276479464"><ele>1.58</ele><time>2023-12-10T02:23:51Z</time><extensions><gpxtpx:TrackPointExtension><gpxtpx:cad>0</gpxtpx:cad></gpxtpx:TrackPointExtension></extensions></trkpt><trkpt lat="15.0773706101" lon="73.9281314984"><ele>3.02</ele><time>2023-12-10T02:24:51Z</time><extensions><gpxtpx:TrackPointExtension><gpxtpx:cad>0</gpxtpx:cad></gpxtpx:TrackPointExtension></extensions></trkpt><trkpt lat="15.0756596960" lon="73.9286577143"><ele>2.54</ele><time>2023-12-10T02:25:51Z</time><extensions><gpxtpx:TrackPointExtension><gpxtpx:cad>0</gpxtpx:cad></gpxtpx:TrackPointExtension></extensions></trkpt><trkpt lat="15.0739621092" lon="73.9292699285"><ele>2.54</ele><time>2023-12-10T02:26:51Z</time><extensions><gpxtpx:TrackPointExtension><gpxtpx:cad>0</gpxtpx:cad></gpxtpx:TrackPointExtension></extensions></trkpt><trkpt lat="15.0722857285" lon="73.9299020916"><ele>3.02</ele><time>2023-12-10T02:27:51Z</time><extensions><gpxtpx:TrackPointExtension><gpxtpx:cad>0</gpxtpx:cad></gpxtpx:TrackPointExtension></extensions></trkpt><trkpt lat="15.0706501678" lon="73.9305779245"><ele>4.46</ele><time>2023-12-10T02:28:51Z</time><extensions><gpxtpx:TrackPointExtension><gpxtpx:cad>0</gpxtpx:cad></gpxtpx:TrackPointExtension></extensions></trkpt><trkpt lat="15.0689333025" lon="73.9310286194"><ele>3.02</ele><time>2023-12-10T02:29:51Z</time><extensions><gpxtpx:TrackPointExtension><gpxtpx:cad>0</gpxtpx:cad></gpxtpx:TrackPointExtension></extensions></trkpt><trkpt lat="15.0672008470" lon="73.9314173721"><ele>2.54</ele><time>2023-12-10T02:30:51Z</time><extensions><gpxtpx:TrackPointExtension><gpxtpx:cad>0</gpxtpx:cad></gpxtpx:TrackPointExtension></extensions></trkpt><trkpt lat="15.0654586684" lon="73.9318295941"><ele>4.46</ele><time>2023-12-10T02:31:51Z</time><extensions><gpxtpx:TrackPointExtension><gpxtpx:cad>0</gpxtpx:cad></gpxtpx:TrackPointExtension></extensions></trkpt><trkpt lat="15.0637733191" lon="73.9322501980"><ele>2.54</ele><time>2023-12-10T02:32:51Z</time><extensions><gpxtpx:TrackPointExtension><gpxtpx:cad>0</gpxtpx:cad></gpxtpx:TrackPointExtension></extensions></trkpt><trkpt lat="15.0620981120" lon="73.9327597339"><ele>1.58</ele><time>2023-12-10T02:33:51Z</time><extensions><gpxtpx:TrackPointExtension><gpxtpx:cad>0</gpxtpx:cad></gpxtpx:TrackPointExtension></extensions></trkpt><trkpt lat="15.0604625512" lon="73.9334017038"><ele>1.58</ele><time>2023-12-10T02:34:51Z</time><extensions><gpxtpx:TrackPointExtension><gpxtpx:cad>0</gpxtpx:cad></gpxtpx:TrackPointExtension></extensions></trkpt><trkpt lat="15.0587741844" lon="73.9339171071"><ele>3.02</ele><time>2023-12-10T02:35:51Z</time><extensions><gpxtpx:TrackPointExtension><gpxtpx:cad>0</gpxtpx:cad></gpxtpx:TrackPointExtension></extensions></trkpt><trkpt lat="15.0576926675" lon="73.9348660223"><ele>2.54</ele><time>2023-12-10T02:36:51Z</time><extensions><gpxtpx:TrackPointExtension><gpxtpx:cad>0</gpxtpx:cad></gpxtpx:TrackPointExtension></extensions></trkpt><trkpt lat="15.0574999675" lon="73.9366416447"><ele>3.98</ele><time>2023-12-10T02:37:51Z</time><extensions><gpxtpx:TrackPointExtension><gpxtpx:cad>0</gpxtpx:cad></gpxtpx:TrackPointExtension></extensions></trkpt><trkpt lat="15.0573781785" lon="73.9384348691"><ele>3.98</ele><time>2023-12-10T02:38:51Z</time><extensions><gpxtpx:TrackPointExtension><gpxtpx:cad>0</gpxtpx:cad></gpxtpx:TrackPointExtension></extensions></trkpt><trkpt lat="15.0572913419" lon="73.9402445219"><ele>3.50</ele><time>2023-12-10T02:39:51Z</time><extensions><gpxtpx:TrackPointExtension><gpxtpx:cad>0</gpxtpx:cad></gpxtpx:TrackPointExtension></extensions></trkpt><trkpt lat="15.0574148912" lon="73.9420328010"><ele>2.54</ele><time>2023-12-10T02:40:51Z</time><extensions><gpxtpx:TrackPointExtension><gpxtpx:cad>0</gpxtpx:cad></gpxtpx:TrackPointExtension></extensions></trkpt><trkpt lat="15.0577744748" lon="73.9437841158"><ele>3.98</ele><time>2023-12-10T02:41:51Z</time><extensions><gpxtpx:TrackPointExtension><gpxtpx:cad>0</gpxtpx:cad></gpxtpx:TrackPointExtension></extensions></trkpt><trkpt lat="15.0580090005" lon="73.9455604088"><ele>2.54</ele><time>2023-12-10T02:42:51Z</time><extensions><gpxtpx:TrackPointExtension><gpxtpx:cad>0</gpxtpx:cad></gpxtpx:TrackPointExtension></extensions></trkpt><trkpt lat="15.0582509860" lon="73.9473291580"><ele>2.54</ele><time>2023-12-10T02:43:51Z</time><extensions><gpxtpx:TrackPointExtension><gpxtpx:cad>0</gpxtpx:cad></gpxtpx:TrackPointExtension></extensions></trkpt><trkpt lat="15.0582804065" lon="73.9491137490"><ele>2.54</ele><time>2023-12-10T02:44:51Z</time><extensions><gpxtpx:TrackPointExtension><gpxtpx:cad>0</gpxtpx:cad></gpxtpx:TrackPointExtension></extensions></trkpt><trkpt lat="15.0583733618" lon="73.9509053808"><ele>3.02</ele><time>2023-12-10T02:45:51Z</time><extensions><gpxtpx:TrackPointExtension><gpxtpx:cad>0</gpxtpx:cad></gpxtpx:TrackPointExtension></extensions></trkpt><trkpt lat="15.0587470271" lon="73.9526771475"><ele>2.54</ele><time>2023-12-10T02:46:51Z</time><extensions><gpxtpx:TrackPointExtension><gpxtpx:cad>0</gpxtpx:cad></gpxtpx:TrackPointExtension></extensions></trkpt><trkpt lat="15.0588973146" lon="73.9545019716"><ele>2.54</ele><time>2023-12-10T02:47:51Z</time><extensions><gpxtpx:TrackPointExtension><gpxtpx:cad>0</gpxtpx:cad></gpxtpx:TrackPointExtension></extensions></trkpt><trkpt lat="15.0591760129" lon="73.9563102834"><ele>2.06</ele><time>2023-12-10T02:48:51Z</time><extensions><gpxtpx:TrackPointExtension><gpxtpx:cad>0</gpxtpx:cad></gpxtpx:TrackPointExtension></extensions></trkpt><trkpt lat="15.0596876442" lon="73.9580653701"><ele>4.94</ele><time>2023-12-10T02:49:51Z</time><extensions><gpxtpx:TrackPointExtension><gpxtpx:cad>0</gpxtpx:cad></gpxtpx:TrackPointExtension></extensions></trkpt><trkpt lat="15.0602305401" lon="73.9598188642"><ele>4.94</ele><time>2023-12-10T02:50:51Z</time><extensions><gpxtpx:TrackPointExtension><gpxtpx:cad>0</gpxtpx:cad></gpxtpx:TrackPointExtension></extensions></trkpt><trkpt lat="15.0606438518" lon="73.9615961630"><ele>4.94</ele><time>2023-12-10T02:51:51Z</time><extensions><gpxtpx:TrackPointExtension><gpxtpx:cad>0</gpxtpx:cad></gpxtpx:TrackPointExtension></extensions></trkpt><trkpt lat="15.0602185540" lon="73.9628830366"><ele>3.02</ele><time>2023-12-10T02:52:51Z</time><extensions><gpxtpx:TrackPointExtension><gpxtpx:cad>0</gpxtpx:cad></gpxtpx:TrackPointExtension></extensions></trkpt><trkpt lat="15.0585041195" lon="73.9621567447"><ele>3.02</ele><time>2023-12-10T02:53:51Z</time><extensions><gpxtpx:TrackPointExtension><gpxtpx:cad>0</gpxtpx:cad></gpxtpx:TrackPointExtension></extensions></trkpt><trkpt lat="15.0568433292" lon="73.9612670057"><ele>1.58</ele><time>2023-12-10T02:54:51Z</time><extensions><gpxtpx:TrackPointExtension><gpxtpx:cad>0</gpxtpx:cad></gpxtpx:TrackPointExtension></extensions></trkpt><trkpt lat="15.0552766677" lon="73.9601952955"><ele>3.50</ele><time>2023-12-10T02:55:51Z</time><extensions><gpxtpx:TrackPointExtension><gpxtpx:cad>0</gpxtpx:cad></gpxtpx:TrackPointExtension></extensions></trkpt><trkpt lat="15.0537515804" lon="73.9590906445"><ele>3.02</ele><time>2023-12-10T02:56:51Z</time><extensions><gpxtpx:TrackPointExtension><gpxtpx:cad>0</gpxtpx:cad></gpxtpx:TrackPointExtension></extensions></trkpt><trkpt lat="15.0521777105" lon="73.9581213612"><ele>4.46</ele><time>2023-12-10T02:57:51Z</time><extensions><gpxtpx:TrackPointExtension><gpxtpx:cad>0</gpxtpx:cad></gpxtpx:TrackPointExtension></extensions></trkpt><trkpt lat="15.0507834647" lon="73.9568837732"><ele>5.42</ele><time>2023-12-10T02:58:51Z</time><extensions><gpxtpx:TrackPointExtension><gpxtpx:cad>0</gpxtpx:cad></gpxtpx:TrackPointExtension></extensions></trkpt><trkpt lat="15.0493808370" lon="73.9556677267"><ele>5.91</ele><time>2023-12-10T02:59:51Z</time><extensions><gpxtpx:TrackPointExtension><gpxtpx:cad>0</gpxtpx:cad></gpxtpx:TrackPointExtension></extensions></trkpt><trkpt lat="15.0478673168" lon="73.9546365850"><ele>4.94</ele><time>2023-12-10T03:00:51Z</time><extensions><gpxtpx:TrackPointExtension><gpxtpx:cad>0</gpxtpx:cad></gpxtpx:TrackPointExtension></extensions></trkpt><trkpt lat="15.0463277288" lon="73.9540329203"><ele>3.98</ele><time>2023-12-10T03:01:51Z</time><extensions><gpxtpx:TrackPointExtension><gpxtpx:cad>0</gpxtpx:cad></gpxtpx:TrackPointExtension></extensions></trkpt><trkpt lat="15.0446639210" lon="73.9533397369"><ele>3.50</ele><time>2023-12-10T03:02:51Z</time><extensions><gpxtpx:TrackPointExtension><gpxtpx:cad>0</gpxtpx:cad></gpxtpx:TrackPointExtension></extensions></trkpt><trkpt lat="15.0430514105" lon="73.9525015466"><ele>2.54</ele><time>2023-12-10T03:03:51Z</time><extensions><gpxtpx:TrackPointExtension><gpxtpx:cad>0</gpxtpx:cad></gpxtpx:TrackPointExtension></extensions></trkpt><trkpt lat="15.0415828172" lon="73.9513820596"><ele>3.98</ele><time>2023-12-10T03:04:51Z</time><extensions><gpxtpx:TrackPointExtension><gpxtpx:cad>0</gpxtpx:cad></gpxtpx:TrackPointExtension></extensions></trkpt><trkpt lat="15.0401429739" lon="73.9502825215"><ele>4.46</ele><time>2023-12-10T03:05:51Z</time><extensions><gpxtpx:TrackPointExtension><gpxtpx:cad>0</gpxtpx:cad></gpxtpx:TrackPointExtension></extensions></trkpt><trkpt lat="15.0387279410" lon="73.9491707459"><ele>4.46</ele><time>2023-12-10T03:06:51Z</time><extensions><gpxtpx:TrackPointExtension><gpxtpx:cad>0</gpxtpx:cad></gpxtpx:TrackPointExtension></extensions></trkpt><trkpt lat="15.0375683885" lon="73.9491074625"><ele>3.50</ele><time>2023-12-10T03:07:51Z</time><extensions><gpxtpx:TrackPointExtension><gpxtpx:cad>0</gpxtpx:cad></gpxtpx:TrackPointExtension></extensions></trkpt><trkpt lat="15.0367349759" lon="73.9505998604"><ele>3.02</ele><time>2023-12-10T03:08:51Z</time><extensions><gpxtpx:TrackPointExtension><gpxtpx:cad>0</gpxtpx:cad></gpxtpx:TrackPointExtension></extensions></trkpt><trkpt lat="15.0358770881" lon="73.9520861395"><ele>3.50</ele><time>2023-12-10T03:09:51Z</time><extensions><gpxtpx:TrackPointExtension><gpxtpx:cad>0</gpxtpx:cad></gpxtpx:TrackPointExtension></extensions></trkpt><trkpt lat="15.0351233874" lon="73.9535924513"><ele>2.54</ele><time>2023-12-10T03:10:51Z</time><extensions><gpxtpx:TrackPointExtension><gpxtpx:cad>0</gpxtpx:cad></gpxtpx:TrackPointExtension></extensions></trkpt><trkpt lat="15.0345310383" lon="73.9551773854"><ele>3.02</ele><time>2023-12-10T03:11:51Z</time><extensions><gpxtpx:TrackPointExtension><gpxtpx:cad>0</gpxtpx:cad></gpxtpx:TrackPointExtension></extensions></trkpt><trkpt lat="15.0338516012" lon="73.9567057416"><ele>3.98</ele><time>2023-12-10T03:12:51Z</time><extensions><gpxtpx:TrackPointExtension><gpxtpx:cad>0</gpxtpx:cad></gpxtpx:TrackPointExtension></extensions></trkpt><trkpt lat="15.0331703201" lon="73.9582662843"><ele>0.62</ele><time>2023-12-10T03:13:51Z</time><extensions><gpxtpx:TrackPointExtension><gpxtpx:cad>0</gpxtpx:cad></gpxtpx:TrackPointExtension></extensions></trkpt><trkpt lat="15.0325725228" lon="73.9598542359"><ele>2.54</ele><time>2023-12-10T03:14:51Z</time><extensions><gpxtpx:TrackPointExtension><gpxtpx:cad>0</gpxtpx:cad></gpxtpx:TrackPointExtension></extensions></trkpt><trkpt lat="15.0317293033" lon="73.9613216557"><ele>1.58</ele><time>2023-12-10T03:15:51Z</time><extensions><gpxtpx:TrackPointExtension><gpxtpx:cad>0</gpxtpx:cad></gpxtpx:TrackPointExtension></extensions></trkpt><trkpt lat="15.0310539734" lon="73.9628712181"><ele>3.02</ele><time>2023-12-10T03:16:51Z</time><extensions><gpxtpx:TrackPointExtension><gpxtpx:cad>0</gpxtpx:cad></gpxtpx:TrackPointExtension></extensions></trkpt><trkpt lat="15.0303198025" lon="73.9643768594"><ele>2.06</ele><time>2023-12-10T03:17:51Z</time><extensions><gpxtpx:TrackPointExtension><gpxtpx:cad>0</gpxtpx:cad></gpxtpx:TrackPointExtension></extensions></trkpt><trkpt lat="15.0295185763" lon="73.9658716042"><ele>2.54</ele><time>2023-12-10T03:18:51Z</time><extensions><gpxtpx:TrackPointExtension><gpxtpx:cad>0</gpxtpx:cad></gpxtpx:TrackPointExtension></extensions></trkpt><trkpt lat="15.0286834035" lon="73.9675081708"><ele>1.10</ele><time>2023-12-10T03:19:51Z</time><extensions><gpxtpx:TrackPointExtension><gpxtpx:cad>0</gpxtpx:cad></gpxtpx:TrackPointExtension></extensions></trkpt><trkpt lat="15.0279698521" lon="73.9693112019"><ele>2.54</ele><time>2023-12-10T03:20:51Z</time><extensions><gpxtpx:TrackPointExtension><gpxtpx:cad>0</gpxtpx:cad></gpxtpx:TrackPointExtension></extensions></trkpt><trkpt lat="15.0276426226" lon="73.9712021593"><ele>2.06</ele><time>2023-12-10T03:21:51Z</time><extensions><gpxtpx:TrackPointExtension><gpxtpx:cad>0</gpxtpx:cad></gpxtpx:TrackPointExtension></extensions></trkpt><trkpt lat="15.0273687020" lon="73.9731123112"><ele>2.54</ele><time>2023-12-10T03:22:51Z</time><extensions><gpxtpx:TrackPointExtension><gpxtpx:cad>0</gpxtpx:cad></gpxtpx:TrackPointExtension></extensions></trkpt><trkpt lat="15.0267045200" lon="73.9748958964"><ele>1.58</ele><time>2023-12-10T03:23:51Z</time><extensions><gpxtpx:TrackPointExtension><gpxtpx:cad>0</gpxtpx:cad></gpxtpx:TrackPointExtension></extensions></trkpt><trkpt lat="15.0261913799" lon="73.9767697547"><ele>3.02</ele><time>2023-12-10T03:24:51Z</time><extensions><gpxtpx:TrackPointExtension><gpxtpx:cad>0</gpxtpx:cad></gpxtpx:TrackPointExtension></extensions></trkpt><trkpt lat="15.0257358234" lon="73.9786212333"><ele>2.54</ele><time>2023-12-10T03:25:51Z</time><extensions><gpxtpx:TrackPointExtension><gpxtpx:cad>0</gpxtpx:cad></gpxtpx:TrackPointExtension></extensions></trkpt><trkpt lat="15.0251418818" lon="73.9805110171"><ele>1.10</ele><time>2023-12-10T03:26:51Z</time><extensions><gpxtpx:TrackPointExtension><gpxtpx:cad>0</gpxtpx:cad></gpxtpx:TrackPointExtension></extensions></trkpt><trkpt lat="15.0247019157" lon="73.9822474122"><ele>2.54</ele><time>2023-12-10T03:27:51Z</time><extensions><gpxtpx:TrackPointExtension><gpxtpx:cad>0</gpxtpx:cad></gpxtpx:TrackPointExtension></extensions></trkpt><trkpt lat="15.0245061144" lon="73.9836489502"><ele>2.06</ele><time>2023-12-10T03:28:51Z</time><extensions><gpxtpx:TrackPointExtension><gpxtpx:cad>0</gpxtpx:cad></gpxtpx:TrackPointExtension></extensions></trkpt><trkpt lat="15.0239607878" lon="73.9848963451"><ele>2.06</ele><time>2023-12-10T03:29:51Z</time><extensions><gpxtpx:TrackPointExtension><gpxtpx:cad>0</gpxtpx:cad></gpxtpx:TrackPointExtension></extensions></trkpt><trkpt lat="15.0225254707" lon="73.9843096957"><ele>3.02</ele><time>2023-12-10T03:30:51Z</time><extensions><gpxtpx:TrackPointExtension><gpxtpx:cad>0</gpxtpx:cad></gpxtpx:TrackPointExtension></extensions></trkpt><trkpt lat="15.0207655225" lon="73.9842153993"><ele>3.50</ele><time>2023-12-10T03:31:51Z</time><extensions><gpxtpx:TrackPointExtension><gpxtpx:cad>0</gpxtpx:cad></gpxtpx:TrackPointExtension></extensions></trkpt><trkpt lat="15.0190116931" lon="73.9838310052"><ele>3.02</ele><time>2023-12-10T03:32:51Z</time><extensions><gpxtpx:TrackPointExtension><gpxtpx:cad>0</gpxtpx:cad></gpxtpx:TrackPointExtension></extensions></trkpt><trkpt lat="15.0172623899" lon="73.9834626205"><ele>3.02</ele><time>2023-12-10T03:33:51Z</time><extensions><gpxtpx:TrackPointExtension><gpxtpx:cad>0</gpxtpx:cad></gpxtpx:TrackPointExtension></extensions></trkpt><trkpt lat="15.0155184511" lon="73.9829918928"><ele>3.50</ele><time>2023-12-10T03:34:51Z</time><extensions><gpxtpx:TrackPointExtension><gpxtpx:cad>0</gpxtpx:cad></gpxtpx:TrackPointExtension></extensions></trkpt><trkpt lat="15.0138246361" lon="73.9822526928"><ele>3.50</ele><time>2023-12-10T03:35:51Z</time><extensions><gpxtpx:TrackPointExtension><gpxtpx:cad>0</gpxtpx:cad></gpxtpx:TrackPointExtension></extensions></trkpt><trkpt lat="15.0121678691" lon="73.9814298414"><ele>3.50</ele><time>2023-12-10T03:36:51Z</time><extensions><gpxtpx:TrackPointExtension><gpxtpx:cad>0</gpxtpx:cad></gpxtpx:TrackPointExtension></extensions></trkpt><trkpt lat="15.0105032232" lon="73.9806848578"><ele>3.02</ele><time>2023-12-10T03:37:51Z</time><extensions><gpxtpx:TrackPointExtension><gpxtpx:cad>0</gpxtpx:cad></gpxtpx:TrackPointExtension></extensions></trkpt><trkpt lat="15.0097043440" lon="73.9817240462"><ele>0.62</ele><time>2023-12-10T03:38:51Z</time><extensions><gpxtpx:TrackPointExtension><gpxtpx:cad>0</gpxtpx:cad></gpxtpx:TrackPointExtension></extensions></trkpt><trkpt lat="15.0090377312" lon="73.9832971618"><ele>0.14</ele><time>2023-12-10T03:39:51Z</time><extensions><gpxtpx:TrackPointExtension><gpxtpx:cad>0</gpxtpx:cad></gpxtpx:TrackPointExtension></extensions></trkpt><trkpt lat="15.0084342342" lon="73.9849103428"><ele>1.10</ele><time>2023-12-10T03:40:51Z</time><extensions><gpxtpx:TrackPointExtension><gpxtpx:cad>0</gpxtpx:cad></gpxtpx:TrackPointExtension></extensions></trkpt><trkpt lat="15.0076329242" lon="73.9864153136"><ele>0.62</ele><time>2023-12-10T03:41:51Z</time><extensions><gpxtpx:TrackPointExtension><gpxtpx:cad>0</gpxtpx:cad></gpxtpx:TrackPointExtension></extensions></trkpt><trkpt lat="15.0072191935" lon="73.9881033450"><ele>1.10</ele><time>2023-12-10T03:42:51Z</time><extensions><gpxtpx:TrackPointExtension><gpxtpx:cad>0</gpxtpx:cad></gpxtpx:TrackPointExtension></extensions></trkpt><trkpt lat="15.0068963226" lon="73.9898066316"><ele>1.10</ele><time>2023-12-10T03:43:51Z</time><extensions><gpxtpx:TrackPointExtension><gpxtpx:cad>0</gpxtpx:cad></gpxtpx:TrackPointExtension></extensions></trkpt><trkpt lat="15.0066035427" lon="73.9915032964"><ele>0.62</ele><time>2023-12-10T03:44:51Z</time><extensions><gpxtpx:TrackPointExtension><gpxtpx:cad>0</gpxtpx:cad></gpxtpx:TrackPointExtension></extensions></trkpt><trkpt lat="15.0063219946" lon="73.9932227600"><ele>1.10</ele><time>2023-12-10T03:45:51Z</time><extensions><gpxtpx:TrackPointExtension><gpxtpx:cad>0</gpxtpx:cad></gpxtpx:TrackPointExtension></extensions></trkpt><trkpt lat="15.0060639996" lon="73.9949376136"><ele>1.10</ele><time>2023-12-10T03:46:51Z</time><extensions><gpxtpx:TrackPointExtension><gpxtpx:cad>0</gpxtpx:cad></gpxtpx:TrackPointExtension></extensions></trkpt><trkpt lat="15.0058113690" lon="73.9966859110"><ele>-1.30</ele><time>2023-12-10T03:47:51Z</time><extensions><gpxtpx:TrackPointExtension><gpxtpx:cad>0</gpxtpx:cad></gpxtpx:TrackPointExtension></extensions></trkpt><trkpt lat="15.0055929366" lon="73.9984431770"><ele>-1.30</ele><time>2023-12-10T03:48:51Z</time><extensions><gpxtpx:TrackPointExtension><gpxtpx:cad>0</gpxtpx:cad></gpxtpx:TrackPointExtension></extensions></trkpt><trkpt lat="15.0049918704" lon="74.0001204796"><ele>0.14</ele><time>2023-12-10T03:49:51Z</time><extensions><gpxtpx:TrackPointExtension><gpxtpx:cad>0</gpxtpx:cad></gpxtpx:TrackPointExtension></extensions></trkpt><trkpt lat="15.0042274408" lon="74.0017853770"><ele>0.14</ele><time>2023-12-10T03:50:51Z</time><extensions><gpxtpx:TrackPointExtension><gpxtpx:cad>0</gpxtpx:cad></gpxtpx:TrackPointExtension></extensions></trkpt><trkpt lat="15.0034003984" lon="74.0034365281"><ele>-0.82</ele><time>2023-12-10T03:51:51Z</time><extensions><gpxtpx:TrackPointExtension><gpxtpx:cad>0</gpxtpx:cad></gpxtpx:TrackPointExtension></extensions></trkpt><trkpt lat="15.0027621165" lon="74.0051604342"><ele>-0.34</ele><time>2023-12-10T03:52:51Z</time><extensions><gpxtpx:TrackPointExtension><gpxtpx:cad>0</gpxtpx:cad></gpxtpx:TrackPointExtension></extensions></trkpt><trkpt lat="15.0020311307" lon="74.0068432689"><ele>-1.79</ele><time>2023-12-10T03:53:51Z</time><extensions><gpxtpx:TrackPointExtension><gpxtpx:cad>0</gpxtpx:cad></gpxtpx:TrackPointExtension></extensions></trkpt><trkpt lat="15.0014080200" lon="74.0085662529"><ele>-1.79</ele><time>2023-12-10T03:54:51Z</time><extensions><gpxtpx:TrackPointExtension><gpxtpx:cad>0</gpxtpx:cad></gpxtpx:TrackPointExtension></extensions></trkpt><trkpt lat="15.0008132402" lon="74.0103440545"><ele>-1.30</ele><time>2023-12-10T03:55:51Z</time><extensions><gpxtpx:TrackPointExtension><gpxtpx:cad>0</gpxtpx:cad></gpxtpx:TrackPointExtension></extensions></trkpt><trkpt lat="15.0002325419" lon="74.0119906794"><ele>-1.30</ele><time>2023-12-10T03:56:51Z</time><extensions><gpxtpx:TrackPointExtension><gpxtpx:cad>0</gpxtpx:cad></gpxtpx:TrackPointExtension></extensions></trkpt><trkpt lat="14.9996683560" lon="74.0136275813"><ele>-0.82</ele><time>2023-12-10T03:57:51Z</time><extensions><gpxtpx:TrackPointExtension><gpxtpx:cad>0</gpxtpx:cad></gpxtpx:TrackPointExtension></extensions></trkpt><trkpt lat="14.9991904199" lon="74.0153532475"><ele>-0.82</ele><time>2023-12-10T03:58:51Z</time><extensions><gpxtpx:TrackPointExtension><gpxtpx:cad>0</gpxtpx:cad></gpxtpx:TrackPointExtension></extensions></trkpt><trkpt lat="14.9986298382" lon="74.0170412790"><ele>-1.79</ele><time>2023-12-10T03:59:51Z</time><extensions><gpxtpx:TrackPointExtension><gpxtpx:cad>0</gpxtpx:cad></gpxtpx:TrackPointExtension></extensions></trkpt><trkpt lat="14.9978985172" lon="74.0186645184"><ele>-0.34</ele><time>2023-12-10T04:00:51Z</time><extensions><gpxtpx:TrackPointExtension><gpxtpx:cad>0</gpxtpx:cad></gpxtpx:TrackPointExtension></extensions></trkpt><trkpt lat="14.9972986244" lon="74.0203419887"><ele>-0.34</ele><time>2023-12-10T04:01:51Z</time><extensions><gpxtpx:TrackPointExtension><gpxtpx:cad>0</gpxtpx:cad></gpxtpx:TrackPointExtension></extensions></trkpt><trkpt lat="14.9967891723" lon="74.0220490471"><ele>-1.79</ele><time>2023-12-10T04:02:51Z</time><extensions><gpxtpx:TrackPointExtension><gpxtpx:cad>0</gpxtpx:cad></gpxtpx:TrackPointExtension></extensions></trkpt><trkpt lat="14.9963212945" lon="74.0237885434"><ele>-0.82</ele><time>2023-12-10T04:03:51Z</time><extensions><gpxtpx:TrackPointExtension><gpxtpx:cad>0</gpxtpx:cad></gpxtpx:TrackPointExtension></extensions></trkpt><trkpt lat="14.9959333800" lon="74.0255099349"><ele>-1.30</ele><time>2023-12-10T04:04:51Z</time><extensions><gpxtpx:TrackPointExtension><gpxtpx:cad>0</gpxtpx:cad></gpxtpx:TrackPointExtension></extensions></trkpt><trkpt lat="14.9955278635" lon="74.0272734873"><ele>-1.79</ele><time>2023-12-10T04:05:51Z</time><extensions><gpxtpx:TrackPointExtension><gpxtpx:cad>0</gpxtpx:cad></gpxtpx:TrackPointExtension></extensions></trkpt><trkpt lat="14.9951885641" lon="74.0288171824"><ele>-0.34</ele><time>2023-12-10T04:06:51Z</time><extensions><gpxtpx:TrackPointExtension><gpxtpx:cad>0</gpxtpx:cad></gpxtpx:TrackPointExtension></extensions></trkpt><trkpt lat="14.9947120529" lon="74.0306043718"><ele>0.62</ele><time>2023-12-10T04:07:51Z</time><extensions><gpxtpx:TrackPointExtension><gpxtpx:cad>0</gpxtpx:cad></gpxtpx:TrackPointExtension></extensions></trkpt><trkpt lat="14.9930311460" lon="74.0300667565"><ele>1.58</ele><time>2023-12-10T04:08:51Z</time><extensions><gpxtpx:TrackPointExtension><gpxtpx:cad>0</gpxtpx:cad></gpxtpx:TrackPointExtension></extensions></trkpt><trkpt lat="14.9912955053" lon="74.0292563941"><ele>2.06</ele><time>2023-12-10T04:09:51Z</time><extensions><gpxtpx:TrackPointExtension><gpxtpx:cad>0</gpxtpx:cad></gpxtpx:TrackPointExtension></extensions></trkpt><trkpt lat="14.9898518063" lon="74.0280141961"><ele>3.98</ele><time>2023-12-10T04:10:51Z</time><extensions><gpxtpx:TrackPointExtension><gpxtpx:cad>0</gpxtpx:cad></gpxtpx:TrackPointExtension></extensions></trkpt><trkpt lat="14.9884192552" lon="74.0268077049"><ele>3.98</ele><time>2023-12-10T04:11:51Z</time><extensions><gpxtpx:TrackPointExtension><gpxtpx:cad>0</gpxtpx:cad></gpxtpx:TrackPointExtension></extensions></trkpt><trkpt lat="14.9869250972" lon="74.0256770700"><ele>2.54</ele><time>2023-12-10T04:12:51Z</time><extensions><gpxtpx:TrackPointExtension><gpxtpx:cad>0</gpxtpx:cad></gpxtpx:TrackPointExtension></extensions></trkpt><trkpt lat="14.9856000859" lon="74.0243285056"><ele>2.54</ele><time>2023-12-10T04:13:51Z</time><extensions><gpxtpx:TrackPointExtension><gpxtpx:cad>0</gpxtpx:cad></gpxtpx:TrackPointExtension></extensions></trkpt><trkpt lat="14.9845433794" lon="74.0226857364"><ele>2.06</ele><time>2023-12-10T04:14:51Z</time><extensions><gpxtpx:TrackPointExtension><gpxtpx:cad>0</gpxtpx:cad></gpxtpx:TrackPointExtension></extensions></trkpt><trkpt lat="14.9835802149" lon="74.0210111998"><ele>1.58</ele><time>2023-12-10T04:15:51Z</time><extensions><gpxtpx:TrackPointExtension><gpxtpx:cad>0</gpxtpx:cad></gpxtpx:TrackPointExtension></extensions></trkpt><trkpt lat="14.9823217560" lon="74.0195674170"><ele>1.58</ele><time>2023-12-10T04:16:51Z</time><extensions><gpxtpx:TrackPointExtension><gpxtpx:cad>0</gpxtpx:cad></gpxtpx:TrackPointExtension></extensions></trkpt><trkpt lat="14.9809020292" lon="74.0183401387"><ele>2.06</ele><time>2023-12-10T04:17:51Z</time><extensions><gpxtpx:TrackPointExtension><gpxtpx:cad>0</gpxtpx:cad></gpxtpx:TrackPointExtension></extensions></trkpt><trkpt lat="14.9793596752" lon="74.0172931552"><ele>3.50</ele><time>2023-12-10T04:18:51Z</time><extensions><gpxtpx:TrackPointExtension><gpxtpx:cad>0</gpxtpx:cad></gpxtpx:TrackPointExtension></extensions></trkpt><trkpt lat="14.9777871463" lon="74.0163296554"><ele>1.58</ele><time>2023-12-10T04:19:51Z</time><extensions><gpxtpx:TrackPointExtension><gpxtpx:cad>0</gpxtpx:cad></gpxtpx:TrackPointExtension></extensions></trkpt><trkpt lat="14.9761239253" lon="74.0155574307"><ele>1.10</ele><time>2023-12-10T04:20:51Z</time><extensions><gpxtpx:TrackPointExtension><gpxtpx:cad>0</gpxtpx:cad></gpxtpx:TrackPointExtension></extensions></trkpt><trkpt lat="14.9747966509" lon="74.0142752510"><ele>1.10</ele><time>2023-12-10T04:21:51Z</time><extensions><gpxtpx:TrackPointExtension><gpxtpx:cad>0</gpxtpx:cad></gpxtpx:TrackPointExtension></extensions></trkpt><trkpt lat="14.9736557063" lon="74.0155351348"><ele>-1.30</ele><time>2023-12-10T04:22:51Z</time><extensions><gpxtpx:TrackPointExtension><gpxtpx:cad>0</gpxtpx:cad></gpxtpx:TrackPointExtension></extensions></trkpt><trkpt lat="14.9725004286" lon="74.0169060789"><ele>-0.34</ele><time>2023-12-10T04:23:51Z</time><extensions><gpxtpx:TrackPointExtension><gpxtpx:cad>0</gpxtpx:cad></gpxtpx:TrackPointExtension></extensions></trkpt><trkpt lat="14.9714243598" lon="74.0183171723"><ele>-0.34</ele><time>2023-12-10T04:24:51Z</time><extensions><gpxtpx:TrackPointExtension><gpxtpx:cad>0</gpxtpx:cad></gpxtpx:TrackPointExtension></extensions></trkpt><trkpt lat="14.9704224709" lon="74.0198350511"><ele>0.62</ele><time>2023-12-10T04:25:51Z</time><extensions><gpxtpx:TrackPointExtension><gpxtpx:cad>0</gpxtpx:cad></gpxtpx:TrackPointExtension></extensions></trkpt><trkpt lat="14.9693873059" lon="74.0212979447"><ele>1.10</ele><time>2023-12-10T04:26:51Z</time><extensions><gpxtpx:TrackPointExtension><gpxtpx:cad>0</gpxtpx:cad></gpxtpx:TrackPointExtension></extensions></trkpt><trkpt lat="14.9683636241" lon="74.0227842238"><ele>0.14</ele><time>2023-12-10T04:27:51Z</time><extensions><gpxtpx:TrackPointExtension><gpxtpx:cad>0</gpxtpx:cad></gpxtpx:TrackPointExtension></extensions></trkpt><trkpt lat="14.9675033893" lon="74.0243890230"><ele>0.62</ele><time>2023-12-10T04:28:51Z</time><extensions><gpxtpx:TrackPointExtension><gpxtpx:cad>0</gpxtpx:cad></gpxtpx:TrackPointExtension></extensions></trkpt><trkpt lat="14.9668413866" lon="74.0261000209"><ele>0.62</ele><time>2023-12-10T04:29:51Z</time><extensions><gpxtpx:TrackPointExtension><gpxtpx:cad>0</gpxtpx:cad></gpxtpx:TrackPointExtension></extensions></trkpt><trkpt lat="14.9661505502" lon="74.0278217476"><ele>0.62</ele><time>2023-12-10T04:30:51Z</time><extensions><gpxtpx:TrackPointExtension><gpxtpx:cad>0</gpxtpx:cad></gpxtpx:TrackPointExtension></extensions></trkpt><trkpt lat="14.9654145353" lon="74.0295126289"><ele>-0.34</ele><time>2023-12-10T04:31:51Z</time><extensions><gpxtpx:TrackPointExtension><gpxtpx:cad>0</gpxtpx:cad></gpxtpx:TrackPointExtension></extensions></trkpt><trkpt lat="14.9646978825" lon="74.0311861597"><ele>2.54</ele><time>2023-12-10T04:32:51Z</time><extensions><gpxtpx:TrackPointExtension><gpxtpx:cad>0</gpxtpx:cad></gpxtpx:TrackPointExtension></extensions></trkpt><trkpt lat="14.9640139192" lon="74.0328963194"><ele>1.10</ele><time>2023-12-10T04:33:51Z</time><extensions><gpxtpx:TrackPointExtension><gpxtpx:cad>0</gpxtpx:cad></gpxtpx:TrackPointExtension></extensions></trkpt><trkpt lat="14.9634217378" lon="74.0346209798"><ele>2.06</ele><time>2023-12-10T04:34:51Z</time><extensions><gpxtpx:TrackPointExtension><gpxtpx:cad>0</gpxtpx:cad></gpxtpx:TrackPointExtension></extensions></trkpt><trkpt lat="14.9625964556" lon="74.0362877212"><ele>4.46</ele><time>2023-12-10T04:35:51Z</time><extensions><gpxtpx:TrackPointExtension><gpxtpx:cad>0</gpxtpx:cad></gpxtpx:TrackPointExtension></extensions></trkpt><trkpt lat="14.9618627876" lon="74.0380043350"><ele>4.94</ele><time>2023-12-10T04:36:51Z</time><extensions><gpxtpx:TrackPointExtension><gpxtpx:cad>0</gpxtpx:cad></gpxtpx:TrackPointExtension></extensions></trkpt><trkpt lat="14.9608899839" lon="74.0396024287"><ele>4.46</ele><time>2023-12-10T04:37:51Z</time><extensions><gpxtpx:TrackPointExtension><gpxtpx:cad>0</gpxtpx:cad></gpxtpx:TrackPointExtension></extensions></trkpt><trkpt lat="14.9599034339" lon="74.0411926433"><ele>3.02</ele><time>2023-12-10T04:38:51Z</time><extensions><gpxtpx:TrackPointExtension><gpxtpx:cad>0</gpxtpx:cad></gpxtpx:TrackPointExtension></extensions></trkpt><trkpt lat="14.9589566141" lon="74.0428707004"><ele>0.62</ele><time>2023-12-10T04:39:51Z</time><extensions><gpxtpx:TrackPointExtension><gpxtpx:cad>0</gpxtpx:cad></gpxtpx:TrackPointExtension></extensions></trkpt><trkpt lat="14.9576220475" lon="74.0441678837"><ele>1.58</ele><time>2023-12-10T04:40:51Z</time><extensions><gpxtpx:TrackPointExtension><gpxtpx:cad>0</gpxtpx:cad></gpxtpx:TrackPointExtension></extensions></trkpt><trkpt lat="14.9557932839" lon="74.0446123760"><ele>3.02</ele><time>2023-12-10T04:41:51Z</time><extensions><gpxtpx:TrackPointExtension><gpxtpx:cad>0</gpxtpx:cad></gpxtpx:TrackPointExtension></extensions></trkpt><trkpt lat="14.9544634949" lon="74.0433871094"><ele>1.10</ele><time>2023-12-10T04:42:51Z</time><extensions><gpxtpx:TrackPointExtension><gpxtpx:cad>0</gpxtpx:cad></gpxtpx:TrackPointExtension></extensions></trkpt><trkpt lat="14.9535855744" lon="74.0416438412"><ele>1.58</ele><time>2023-12-10T04:43:51Z</time><extensions><gpxtpx:TrackPointExtension><gpxtpx:cad>0</gpxtpx:cad></gpxtpx:TrackPointExtension></extensions></trkpt><trkpt lat="14.9531430937" lon="74.0397325996"><ele>-1.30</ele><time>2023-12-10T04:44:51Z</time><extensions><gpxtpx:TrackPointExtension><gpxtpx:cad>0</gpxtpx:cad></gpxtpx:TrackPointExtension></extensions></trkpt><trkpt lat="14.9527382478" lon="74.0377828851"><ele>-1.30</ele><time>2023-12-10T04:45:51Z</time><extensions><gpxtpx:TrackPointExtension><gpxtpx:cad>0</gpxtpx:cad></gpxtpx:TrackPointExtension></extensions></trkpt><trkpt lat="14.9522224255" lon="74.0359542891"><ele>-1.30</ele><time>2023-12-10T04:46:51Z</time><extensions><gpxtpx:TrackPointExtension><gpxtpx:cad>0</gpxtpx:cad></gpxtpx:TrackPointExtension></extensions></trkpt><trkpt lat="14.9508476257" lon="74.0345819201"><ele>-0.82</ele><time>2023-12-10T04:47:51Z</time><extensions><gpxtpx:TrackPointExtension><gpxtpx:cad>0</gpxtpx:cad></gpxtpx:TrackPointExtension></extensions></trkpt><trkpt lat="14.9496770930" lon="74.0330862533"><ele>0.14</ele><time>2023-12-10T04:48:51Z</time><extensions><gpxtpx:TrackPointExtension><gpxtpx:cad>0</gpxtpx:cad></gpxtpx:TrackPointExtension></extensions></trkpt><trkpt lat="14.9489112385" lon="74.0312879160"><ele>-0.82</ele><time>2023-12-10T04:49:51Z</time><extensions><gpxtpx:TrackPointExtension><gpxtpx:cad>0</gpxtpx:cad></gpxtpx:TrackPointExtension></extensions></trkpt><trkpt lat="14.9481629021" lon="74.0295341704"><ele>-1.79</ele><time>2023-12-10T04:50:51Z</time><extensions><gpxtpx:TrackPointExtension><gpxtpx:cad>0</gpxtpx:cad></gpxtpx:TrackPointExtension></extensions></trkpt><trkpt lat="14.9470009189" lon="74.0280514956"><ele>-1.30</ele><time>2023-12-10T04:51:51Z</time><extensions><gpxtpx:TrackPointExtension><gpxtpx:cad>0</gpxtpx:cad></gpxtpx:TrackPointExtension></extensions></trkpt><trkpt lat="14.9461702723" lon="74.0263447724"><ele>-0.34</ele><time>2023-12-10T04:52:51Z</time><extensions><gpxtpx:TrackPointExtension><gpxtpx:cad>0</gpxtpx:cad></gpxtpx:TrackPointExtension></extensions></trkpt><trkpt lat="14.9450550601" lon="74.0249040071"><ele>-0.82</ele><time>2023-12-10T04:53:51Z</time><extensions><gpxtpx:TrackPointExtension><gpxtpx:cad>0</gpxtpx:cad></gpxtpx:TrackPointExtension></extensions></trkpt><trkpt lat="14.9439837690" lon="74.0234046523"><ele>-2.27</ele><time>2023-12-10T04:54:51Z</time><extensions><gpxtpx:TrackPointExtension><gpxtpx:cad>0</gpxtpx:cad></gpxtpx:TrackPointExtension></extensions></trkpt><trkpt lat="14.9430900067" lon="74.0217545908"><ele>1.10</ele><time>2023-12-10T04:55:51Z</time><extensions><gpxtpx:TrackPointExtension><gpxtpx:cad>0</gpxtpx:cad></gpxtpx:TrackPointExtension></extensions></trkpt><trkpt lat="14.9417717010" lon="74.0224595089"><ele>-0.34</ele><time>2023-12-10T04:56:51Z</time><extensions><gpxtpx:TrackPointExtension><gpxtpx:cad>0</gpxtpx:cad></gpxtpx:TrackPointExtension></extensions></trkpt><trkpt lat="14.9403829034" lon="74.0234749764"><ele>-0.34</ele><time>2023-12-10T04:57:51Z</time><extensions><gpxtpx:TrackPointExtension><gpxtpx:cad>0</gpxtpx:cad></gpxtpx:TrackPointExtension></extensions></trkpt><trkpt lat="14.9390030745" lon="74.0244354587"><ele>0.62</ele><time>2023-12-10T04:58:51Z</time><extensions><gpxtpx:TrackPointExtension><gpxtpx:cad>0</gpxtpx:cad></gpxtpx:TrackPointExtension></extensions></trkpt><trkpt lat="14.9376215693" lon="74.0254605655"><ele>1.10</ele><time>2023-12-10T04:59:51Z</time><extensions><gpxtpx:TrackPointExtension><gpxtpx:cad>0</gpxtpx:cad></gpxtpx:TrackPointExtension></extensions></trkpt><trkpt lat="14.9362394772" lon="74.0265234746"><ele>1.10</ele><time>2023-12-10T05:00:51Z</time><extensions><gpxtpx:TrackPointExtension><gpxtpx:cad>0</gpxtpx:cad></gpxtpx:TrackPointExtension></extensions></trkpt><trkpt lat="14.9349464010" lon="74.0277479030"><ele>3.50</ele><time>2023-12-10T05:01:51Z</time><extensions><gpxtpx:TrackPointExtension><gpxtpx:cad>0</gpxtpx:cad></gpxtpx:TrackPointExtension></extensions></trkpt><trkpt lat="14.9335409235" lon="74.0287944674"><ele>1.10</ele><time>2023-12-10T05:02:51Z</time><extensions><gpxtpx:TrackPointExtension><gpxtpx:cad>0</gpxtpx:cad></gpxtpx:TrackPointExtension></extensions></trkpt><trkpt lat="14.9320463464" lon="74.0297550336"><ele>-0.34</ele><time>2023-12-10T05:03:51Z</time><extensions><gpxtpx:TrackPointExtension><gpxtpx:cad>0</gpxtpx:cad></gpxtpx:TrackPointExtension></extensions></trkpt><trkpt lat="14.9307415355" lon="74.0308715869"><ele>3.02</ele><time>2023-12-10T05:04:51Z</time><extensions><gpxtpx:TrackPointExtension><gpxtpx:cad>0</gpxtpx:cad></gpxtpx:TrackPointExtension></extensions></trkpt><trkpt lat="14.9293627124" lon="74.0319890622"><ele>-0.34</ele><time>2023-12-10T05:05:51Z</time><extensions><gpxtpx:TrackPointExtension><gpxtpx:cad>0</gpxtpx:cad></gpxtpx:TrackPointExtension></extensions></trkpt><trkpt lat="14.9280375335" lon="74.0331238881"><ele>0.62</ele><time>2023-12-10T05:06:51Z</time><extensions><gpxtpx:TrackPointExtension><gpxtpx:cad>0</gpxtpx:cad></gpxtpx:TrackPointExtension></extensions></trkpt><trkpt lat="14.9268265162" lon="74.0343378391"><ele>1.10</ele><time>2023-12-10T05:07:51Z</time><extensions><gpxtpx:TrackPointExtension><gpxtpx:cad>0</gpxtpx:cad></gpxtpx:TrackPointExtension></extensions></trkpt><trkpt lat="14.9254684802" lon="74.0353842359"><ele>1.10</ele><time>2023-12-10T05:08:51Z</time><extensions><gpxtpx:TrackPointExtension><gpxtpx:cad>0</gpxtpx:cad></gpxtpx:TrackPointExtension></extensions></trkpt><trkpt lat="14.9242966063" lon="74.0366455447"><ele>1.10</ele><time>2023-12-10T05:09:51Z</time><extensions><gpxtpx:TrackPointExtension><gpxtpx:cad>0</gpxtpx:cad></gpxtpx:TrackPointExtension></extensions></trkpt><trkpt lat="14.9231094774" lon="74.0378643572"><ele>0.62</ele><time>2023-12-10T05:10:51Z</time><extensions><gpxtpx:TrackPointExtension><gpxtpx:cad>0</gpxtpx:cad></gpxtpx:TrackPointExtension></extensions></trkpt><trkpt lat="14.9219760764" lon="74.0391949844"><ele>0.14</ele><time>2023-12-10T05:11:51Z</time><extensions><gpxtpx:TrackPointExtension><gpxtpx:cad>0</gpxtpx:cad></gpxtpx:TrackPointExtension></extensions></trkpt><trkpt lat="14.9209171068" lon="74.0405552834"><ele>-0.82</ele><time>2023-12-10T05:12:51Z</time><extensions><gpxtpx:TrackPointExtension><gpxtpx:cad>0</gpxtpx:cad></gpxtpx:TrackPointExtension></extensions></trkpt><trkpt lat="14.9205902126" lon="74.0402832907"><ele>-2.75</ele><time>2023-12-10T05:13:51Z</time><extensions><gpxtpx:TrackPointExtension><gpxtpx:cad>0</gpxtpx:cad></gpxtpx:TrackPointExtension></extensions></trkpt><trkpt lat="14.9218963645" lon="74.0390233230"><ele>-0.34</ele><time>2023-12-10T05:14:51Z</time><extensions><gpxtpx:TrackPointExtension><gpxtpx:cad>0</gpxtpx:cad></gpxtpx:TrackPointExtension></extensions></trkpt><trkpt lat="14.9235213641" lon="74.0374136623"><ele>1.10</ele><time>2023-12-10T05:15:51Z</time><extensions><gpxtpx:TrackPointExtension><gpxtpx:cad>0</gpxtpx:cad></gpxtpx:TrackPointExtension></extensions></trkpt><trkpt lat="14.9253650475" lon="74.0360926744"><ele>0.62</ele><time>2023-12-10T05:16:51Z</time><extensions><gpxtpx:TrackPointExtension><gpxtpx:cad>0</gpxtpx:cad></gpxtpx:TrackPointExtension></extensions></trkpt><trkpt lat="14.9271935597" lon="74.0347249992"><ele>3.50</ele><time>2023-12-10T05:17:51Z</time><extensions><gpxtpx:TrackPointExtension><gpxtpx:cad>0</gpxtpx:cad></gpxtpx:TrackPointExtension></extensions></trkpt><trkpt lat="14.9290122651" lon="74.0333733335"><ele>-0.82</ele><time>2023-12-10T05:18:51Z</time><extensions><gpxtpx:TrackPointExtension><gpxtpx:cad>0</gpxtpx:cad></gpxtpx:TrackPointExtension></extensions></trkpt><trkpt lat="14.9304442294" lon="74.0316759143"><ele>-2.75</ele><time>2023-12-10T05:19:51Z</time><extensions><gpxtpx:TrackPointExtension><gpxtpx:cad>0</gpxtpx:cad></gpxtpx:TrackPointExtension></extensions></trkpt><trkpt lat="14.9318395648" lon="74.0299328975"><ele>-1.79</ele><time>2023-12-10T05:20:51Z</time><extensions><gpxtpx:TrackPointExtension><gpxtpx:cad>0</gpxtpx:cad></gpxtpx:TrackPointExtension></extensions></trkpt><trkpt lat="14.9332838506" lon="74.0282179601"><ele>-5.15</ele><time>2023-12-10T05:21:51Z</time><extensions><gpxtpx:TrackPointExtension><gpxtpx:cad>0</gpxtpx:cad></gpxtpx:TrackPointExtension></extensions></trkpt><trkpt lat="14.9349346664" lon="74.0266867541"><ele>-6.59</ele><time>2023-12-10T05:22:51Z</time><extensions><gpxtpx:TrackPointExtension><gpxtpx:cad>0</gpxtpx:cad></gpxtpx:TrackPointExtension></extensions></trkpt><trkpt lat="14.9367959518" lon="74.0253752377"><ele>-6.59</ele><time>2023-12-10T05:23:51Z</time><extensions><gpxtpx:TrackPointExtension><gpxtpx:cad>0</gpxtpx:cad></gpxtpx:TrackPointExtension></extensions></trkpt><trkpt lat="14.9386200216" lon="74.0240062214"><ele>-4.67</ele><time>2023-12-10T05:24:51Z</time><extensions><gpxtpx:TrackPointExtension><gpxtpx:cad>0</gpxtpx:cad></gpxtpx:TrackPointExtension></extensions></trkpt><trkpt lat="14.9405130744" lon="74.0228196792"><ele>-3.71</ele><time>2023-12-10T05:25:51Z</time><extensions><gpxtpx:TrackPointExtension><gpxtpx:cad>0</gpxtpx:cad></gpxtpx:TrackPointExtension></extensions></trkpt><trkpt lat="14.9422601983" lon="74.0214404371"><ele>-3.71</ele><time>2023-12-10T05:26:51Z</time><extensions><gpxtpx:TrackPointExtension><gpxtpx:cad>0</gpxtpx:cad></gpxtpx:TrackPointExtension></extensions></trkpt><trkpt lat="14.9440537579" lon="74.0200716723"><ele>-2.75</ele><time>2023-12-10T05:27:51Z</time><extensions><gpxtpx:TrackPointExtension><gpxtpx:cad>0</gpxtpx:cad></gpxtpx:TrackPointExtension></extensions></trkpt><trkpt lat="14.9459096789" lon="74.0188267082"><ele>-2.75</ele><time>2023-12-10T05:28:51Z</time><extensions><gpxtpx:TrackPointExtension><gpxtpx:cad>0</gpxtpx:cad></gpxtpx:TrackPointExtension></extensions></trkpt><trkpt lat="14.9480563682" lon="74.0188156441"><ele>0.62</ele><time>2023-12-10T05:29:51Z</time><extensions><gpxtpx:TrackPointExtension><gpxtpx:cad>0</gpxtpx:cad></gpxtpx:TrackPointExtension></extensions></trkpt><trkpt lat="14.9502486549" lon="74.0190324839"><ele>0.14</ele><time>2023-12-10T05:30:51Z</time><extensions><gpxtpx:TrackPointExtension><gpxtpx:cad>0</gpxtpx:cad></gpxtpx:TrackPointExtension></extensions></trkpt><trkpt lat="14.9524200708" lon="74.0193182230"><ele>-0.34</ele><time>2023-12-10T05:31:51Z</time><extensions><gpxtpx:TrackPointExtension><gpxtpx:cad>0</gpxtpx:cad></gpxtpx:TrackPointExtension></extensions></trkpt><trkpt lat="14.9546025507" lon="74.0193782374"><ele>0.62</ele><time>2023-12-10T05:32:51Z</time><extensions><gpxtpx:TrackPointExtension><gpxtpx:cad>0</gpxtpx:cad></gpxtpx:TrackPointExtension></extensions></trkpt><trkpt lat="14.9567470606" lon="74.0195721947"><ele>1.10</ele><time>2023-12-10T05:33:51Z</time><extensions><gpxtpx:TrackPointExtension><gpxtpx:cad>0</gpxtpx:cad></gpxtpx:TrackPointExtension></extensions></trkpt><trkpt lat="14.9588737171" lon="74.0199368913"><ele>0.62</ele><time>2023-12-10T05:34:51Z</time><extensions><gpxtpx:TrackPointExtension><gpxtpx:cad>0</gpxtpx:cad></gpxtpx:TrackPointExtension></extensions></trkpt><trkpt lat="14.9609416164" lon="74.0205014125"><ele>0.14</ele><time>2023-12-10T05:35:51Z</time><extensions><gpxtpx:TrackPointExtension><gpxtpx:cad>0</gpxtpx:cad></gpxtpx:TrackPointExtension></extensions></trkpt><trkpt lat="14.9630130362" lon="74.0211151354"><ele>-0.82</ele><time>2023-12-10T05:36:51Z</time><extensions><gpxtpx:TrackPointExtension><gpxtpx:cad>0</gpxtpx:cad></gpxtpx:TrackPointExtension></extensions></trkpt><trkpt lat="14.9650334101" lon="74.0217897110"><ele>0.62</ele><time>2023-12-10T05:37:51Z</time><extensions><gpxtpx:TrackPointExtension><gpxtpx:cad>0</gpxtpx:cad></gpxtpx:TrackPointExtension></extensions></trkpt><trkpt lat="14.9670848809" lon="74.0223377198"><ele>-0.82</ele><time>2023-12-10T05:38:51Z</time><extensions><gpxtpx:TrackPointExtension><gpxtpx:cad>0</gpxtpx:cad></gpxtpx:TrackPointExtension></extensions></trkpt><trkpt lat="14.9690299854" lon="74.0231531113"><ele>-1.30</ele><time>2023-12-10T05:39:51Z</time><extensions><gpxtpx:TrackPointExtension><gpxtpx:cad>0</gpxtpx:cad></gpxtpx:TrackPointExtension></extensions></trkpt><trkpt lat="14.9709216133" lon="74.0240505617"><ele>0.62</ele><time>2023-12-10T05:40:51Z</time><extensions><gpxtpx:TrackPointExtension><gpxtpx:cad>0</gpxtpx:cad></gpxtpx:TrackPointExtension></extensions></trkpt><trkpt lat="14.9728062004" lon="74.0250167437"><ele>0.62</ele><time>2023-12-10T05:41:51Z</time><extensions><gpxtpx:TrackPointExtension><gpxtpx:cad>0</gpxtpx:cad></gpxtpx:TrackPointExtension></extensions></trkpt><trkpt lat="14.9747259915" lon="74.0260200575"><ele>1.10</ele><time>2023-12-10T05:42:51Z</time><extensions><gpxtpx:TrackPointExtension><gpxtpx:cad>0</gpxtpx:cad></gpxtpx:TrackPointExtension></extensions></trkpt><trkpt lat="14.9766394123" lon="74.0271039214"><ele>-1.30</ele><time>2023-12-10T05:43:51Z</time><extensions><gpxtpx:TrackPointExtension><gpxtpx:cad>0</gpxtpx:cad></gpxtpx:TrackPointExtension></extensions></trkpt><trkpt lat="14.9784799106" lon="74.0283094067"><ele>-0.82</ele><time>2023-12-10T05:44:51Z</time><extensions><gpxtpx:TrackPointExtension><gpxtpx:cad>0</gpxtpx:cad></gpxtpx:TrackPointExtension></extensions></trkpt><trkpt lat="14.9801734742" lon="74.0296011418"><ele>1.10</ele><time>2023-12-10T05:45:51Z</time><extensions><gpxtpx:TrackPointExtension><gpxtpx:cad>0</gpxtpx:cad></gpxtpx:TrackPointExtension></extensions></trkpt><trkpt lat="14.9817447457" lon="74.0307707526"><ele>0.14</ele><time>2023-12-10T05:46:51Z</time><extensions><gpxtpx:TrackPointExtension><gpxtpx:cad>0</gpxtpx:cad></gpxtpx:TrackPointExtension></extensions></trkpt><trkpt lat="14.9835385568" lon="74.0321910661"><ele>-1.30</ele><time>2023-12-10T05:47:51Z</time><extensions><gpxtpx:TrackPointExtension><gpxtpx:cad>0</gpxtpx:cad></gpxtpx:TrackPointExtension></extensions></trkpt><trkpt lat="14.9846142903" lon="74.0339116193"><ele>-2.75</ele><time>2023-12-10T05:48:51Z</time><extensions><gpxtpx:TrackPointExtension><gpxtpx:cad>0</gpxtpx:cad></gpxtpx:TrackPointExtension></extensions></trkpt><trkpt lat="14.9847826827" lon="74.0360337496"><ele>-3.71</ele><time>2023-12-10T05:49:51Z</time><extensions><gpxtpx:TrackPointExtension><gpxtpx:cad>0</gpxtpx:cad></gpxtpx:TrackPointExtension></extensions></trkpt></trkseg></trk></gpx>