<?xml version="1.0" encoding="UTF-8" standalone="no" ?><gpx xmlns="http://www.topografix.com/GPX/1/1" xmlns:gpxx="http://www.garmin.com/xmlschemas/GpxExtensions/v3" xmlns:wptx1="http://www.garmin.com/xmlschemas/WaypointExtension/v1" xmlns:gpxtpx="http://www.garmin.com/xmlschemas/TrackPointExtension/v1" creator="eTrex 10 SEA" version="1.1" xmlns:xsi="http://www.w3.org/2001/XMLSchema-instance" xsi:schemaLocation="http://www.topografix.com/GPX/1/1 http://www.topografix.com/GPX/1/1/gpx.xsd http://www.garmin.com/xmlschemas/GpxExtensions/v3 http://www8.garmin.com/xmlschemas/GpxExtensionsv3.xsd http://www.garmin.com/xmlschemas/WaypointExtension/v1 http://www8.garmin.com/xmlschemas/WaypointExtensionv1.xsd http://www.garmin.com/xmlschemas/TrackPointExtension/v1 http://www.garmin.com/xmlschemas/TrackPointExtensionv1.xsd"><metadata><link href="http://www.garmin.com"><text>Garmin International</text></link><time>2023-12-08T05:20:20Z</time></metadata><trk><name>08-DEC-23 10:50:17</name><extensions><gpxx:TrackExtension><gpxx:DisplayColor>Cyan</gpxx:DisplayColor></gpxx:TrackExtension></extensions><trkseg><trkpt lat="15.6103360187" lon="73.7365905941"><ele>1.10</ele><time>2023-12-08T01:46:35Z</time><extensions><gpxtpx:TrackPointExtension><gpxtpx:cad>0</gpxtpx:cad></gpxtpx:TrackPointExtension></extensions></trkpt><trkpt lat="15.6095258240" lon="73.7348267902"><ele>-0.82</ele><time>2023-12-08T01:47:35Z</time><extensions><gpxtpx:TrackPointExtension><gpxtpx:cad>0</gpxtpx:cad></gpxtpx:TrackPointExtension></extensions></trkpt><trkpt lat="15.6091160327" lon="73.7330188975"><ele>1.10</ele><time>2023-12-08T01:48:35Z</time><extensions><gpxtpx:TrackPointExtension><gpxtpx:cad>0</gpxtpx:cad></gpxtpx:TrackPointExtension></extensions></trkpt><trkpt lat="15.6090383325" lon="73.7327728048"><ele>1.10</ele><time>2023-12-08T01:48:43Z</time><extensions><gpxtpx:TrackPointExtension><gpxtpx:cad>0</gpxtpx:cad></gpxtpx:TrackPointExtension></extensions></trkpt><trkpt lat="15.6079687178" lon="73.7312379945"><ele>0.14</ele><time>2023-12-08T01:49:43Z</time><extensions><gpxtpx:TrackPointExtension><gpxtpx:cad>0</gpxtpx:cad></gpxtpx:TrackPointExtension></extensions></trkpt><trkpt lat="15.6061252020" lon="73.7302387878"><ele>1.10</ele><time>2023-12-08T01:50:43Z</time><extensions><gpxtpx:TrackPointExtension><gpxtpx:cad>0</gpxtpx:cad></gpxtpx:TrackPointExtension></extensions></trkpt><trkpt lat="15.6045991927" lon="73.7289571110"><ele>2.54</ele><time>2023-12-08T01:51:43Z</time><extensions><gpxtpx:TrackPointExtension><gpxtpx:cad>0</gpxtpx:cad></gpxtpx:TrackPointExtension></extensions></trkpt><trkpt lat="15.6032497901" lon="73.7276258133"><ele>2.06</ele><time>2023-12-08T01:52:43Z</time><extensions><gpxtpx:TrackPointExtension><gpxtpx:cad>0</gpxtpx:cad></gpxtpx:TrackPointExtension></extensions></trkpt><trkpt lat="15.6022253539" lon="73.7260049209"><ele>1.58</ele><time>2023-12-08T01:53:43Z</time><extensions><gpxtpx:TrackPointExtension><gpxtpx:cad>0</gpxtpx:cad></gpxtpx:TrackPointExtension></extensions></trkpt><trkpt lat="15.6012175977" lon="73.7243818492"><ele>2.06</ele><time>2023-12-08T01:54:43Z</time><extensions><gpxtpx:TrackPointExtension><gpxtpx:cad>0</gpxtpx:cad></gpxtpx:TrackPointExtension></extensions></trkpt><trkpt lat="15.6002183072" lon="73.7227267586"><ele>2.06</ele><time>2023-12-08T01:55:43Z</time><extensions><gpxtpx:TrackPointExtension><gpxtpx:cad>0</gpxtpx:cad></gpxtpx:TrackPointExtension></extensions></trkpt><trkpt lat="15.5993935280" lon="73.7209772877"><ele>1.10</ele><time>2023-12-08T01:56:43Z</time><extensions><gpxtpx:TrackPointExtension><gpxtpx:cad>0</gpxtpx:cad></gpxtpx:TrackPointExtension></extensions></trkpt><trkpt lat="15.5987250712" lon="73.7191610131"><ele>2.06</ele><time>2023-12-08T01:57:43Z</time><extensions><gpxtpx:TrackPointExtension><gpxtpx:cad>0</gpxtpx:cad></gpxtpx:TrackPointExtension></extensions></trkpt><trkpt lat="15.5976209231" lon="73.7174793519"><ele>2.54</ele><time>2023-12-08T01:58:43Z</time><extensions><gpxtpx:TrackPointExtension><gpxtpx:cad>0</gpxtpx:cad></gpxtpx:TrackPointExtension></extensions></trkpt><trkpt lat="15.5963441916" lon="73.7159155402"><ele>3.50</ele><time>2023-12-08T01:59:43Z</time><extensions><gpxtpx:TrackPointExtension><gpxtpx:cad>0</gpxtpx:cad></gpxtpx:TrackPointExtension></extensions></trkpt><trkpt lat="15.5950125586" lon="73.7143897824"><ele>3.50</ele><time>2023-12-08T02:00:43Z</time><extensions><gpxtpx:TrackPointExtension><gpxtpx:cad>0</gpxtpx:cad></gpxtpx:TrackPointExtension></extensions></trkpt><trkpt lat="15.5936910678" lon="73.7128972169"><ele>3.50</ele><time>2023-12-08T02:01:43Z</time><extensions><gpxtpx:TrackPointExtension><gpxtpx:cad>0</gpxtpx:cad></gpxtpx:TrackPointExtension></extensions></trkpt><trkpt lat="15.5922544934" lon="73.7118370738"><ele>3.50</ele><time>2023-12-08T02:02:43Z</time><extensions><gpxtpx:TrackPointExtension><gpxtpx:cad>0</gpxtpx:cad></gpxtpx:TrackPointExtension></extensions></trkpt><trkpt lat="15.5910677835" lon="73.7131545413"><ele>6.87</ele><time>2023-12-08T02:03:43Z</time><extensions><gpxtpx:TrackPointExtension><gpxtpx:cad>0</gpxtpx:cad></gpxtpx:TrackPointExtension></extensions></trkpt><trkpt lat="15.5907949526" lon="73.7150253821"><ele>6.39</ele><time>2023-12-08T02:04:43Z</time><extensions><gpxtpx:TrackPointExtension><gpxtpx:cad>0</gpxtpx:cad></gpxtpx:TrackPointExtension></extensions></trkpt><trkpt lat="15.5910542887" lon="73.7168654613"><ele>2.54</ele><time>2023-12-08T02:05:43Z</time><extensions><gpxtpx:TrackPointExtension><gpxtpx:cad>0</gpxtpx:cad></gpxtpx:TrackPointExtension></extensions></trkpt><trkpt lat="15.5903433356" lon="73.7183356471"><ele>1.58</ele><time>2023-12-08T02:06:43Z</time><extensions><gpxtpx:TrackPointExtension><gpxtpx:cad>0</gpxtpx:cad></gpxtpx:TrackPointExtension></extensions></trkpt><trkpt lat="15.5888258759" lon="73.7194655277"><ele>1.58</ele><time>2023-12-08T02:07:43Z</time><extensions><gpxtpx:TrackPointExtension><gpxtpx:cad>0</gpxtpx:cad></gpxtpx:TrackPointExtension></extensions></trkpt><trkpt lat="15.5871888064" lon="73.7203875370"><ele>3.50</ele><time>2023-12-08T02:08:43Z</time><extensions><gpxtpx:TrackPointExtension><gpxtpx:cad>0</gpxtpx:cad></gpxtpx:TrackPointExtension></extensions></trkpt><trkpt lat="15.5855084863" lon="73.7212443352"><ele>2.54</ele><time>2023-12-08T02:09:43Z</time><extensions><gpxtpx:TrackPointExtension><gpxtpx:cad>0</gpxtpx:cad></gpxtpx:TrackPointExtension></extensions></trkpt><trkpt lat="15.5837922916" lon="73.7220405322"><ele>3.98</ele><time>2023-12-08T02:10:43Z</time><extensions><gpxtpx:TrackPointExtension><gpxtpx:cad>0</gpxtpx:cad></gpxtpx:TrackPointExtension></extensions></trkpt><trkpt lat="15.5821080320" lon="73.7229417544"><ele>4.46</ele><time>2023-12-08T02:11:43Z</time><extensions><gpxtpx:TrackPointExtension><gpxtpx:cad>0</gpxtpx:cad></gpxtpx:TrackPointExtension></extensions></trkpt><trkpt lat="15.5805094354" lon="73.7239468284"><ele>4.94</ele><time>2023-12-08T02:12:43Z</time><extensions><gpxtpx:TrackPointExtension><gpxtpx:cad>0</gpxtpx:cad></gpxtpx:TrackPointExtension></extensions></trkpt><trkpt lat="15.5789477192" lon="73.7249831669"><ele>4.46</ele><time>2023-12-08T02:13:43Z</time><extensions><gpxtpx:TrackPointExtension><gpxtpx:cad>0</gpxtpx:cad></gpxtpx:TrackPointExtension></extensions></trkpt><trkpt lat="15.5774841551" lon="73.7261538673"><ele>3.02</ele><time>2023-12-08T02:14:43Z</time><extensions><gpxtpx:TrackPointExtension><gpxtpx:cad>0</gpxtpx:cad></gpxtpx:TrackPointExtension></extensions></trkpt><trkpt lat="15.5759876501" lon="73.7272538245"><ele>4.46</ele><time>2023-12-08T02:15:43Z</time><extensions><gpxtpx:TrackPointExtension><gpxtpx:cad>0</gpxtpx:cad></gpxtpx:TrackPointExtension></extensions></trkpt><trkpt lat="15.5745131895" lon="73.7283369340"><ele>3.98</ele><time>2023-12-08T02:16:43Z</time><extensions><gpxtpx:TrackPointExtension><gpxtpx:cad>0</gpxtpx:cad></gpxtpx:TrackPointExtension></extensions></trkpt><trkpt lat="15.5730041116" lon="73.7293538265"><ele>3.98</ele><time>2023-12-08T02:17:43Z</time><extensions><gpxtpx:TrackPointExtension><gpxtpx:cad>0</gpxtpx:cad></gpxtpx:TrackPointExtension></extensions></trkpt><trkpt lat="15.5714760907" lon="73.7303825375"><ele>3.98</ele><time>2023-12-08T02:18:43Z</time><extensions><gpxtpx:TrackPointExtension><gpxtpx:cad>0</gpxtpx:cad></gpxtpx:TrackPointExtension></extensions></trkpt><trkpt lat="15.5699744727" lon="73.7313414272"><ele>3.50</ele><time>2023-12-08T02:19:43Z</time><extensions><gpxtpx:TrackPointExtension><gpxtpx:cad>0</gpxtpx:cad></gpxtpx:TrackPointExtension></extensions></trkpt><trkpt lat="15.5695339199" lon="73.7331438717"><ele>3.02</ele><time>2023-12-08T02:20:43Z</time><extensions><gpxtpx:TrackPointExtension><gpxtpx:cad>0</gpxtpx:cad></gpxtpx:TrackPointExtension></extensions></trkpt><trkpt lat="15.5695378594" lon="73.7349675223"><ele>5.42</ele><time>2023-12-08T02:21:43Z</time><extensions><gpxtpx:TrackPointExtension><gpxtpx:cad>0</gpxtpx:cad></gpxtpx:TrackPointExtension></extensions></trkpt><trkpt lat="15.5698414519" lon="73.7367677037"><ele>6.39</ele><time>2023-12-08T02:22:43Z</time><extensions><gpxtpx:TrackPointExtension><gpxtpx:cad>0</gpxtpx:cad></gpxtpx:TrackPointExtension></extensions></trkpt><trkpt lat="15.5697321519" lon="73.7383003347"><ele>5.42</ele><time>2023-12-08T02:23:43Z</time><extensions><gpxtpx:TrackPointExtension><gpxtpx:cad>0</gpxtpx:cad></gpxtpx:TrackPointExtension></extensions></trkpt><trkpt lat="15.5680597108" lon="73.7384459283"><ele>3.98</ele><time>2023-12-08T02:24:43Z</time><extensions><gpxtpx:TrackPointExtension><gpxtpx:cad>0</gpxtpx:cad></gpxtpx:TrackPointExtension></extensions></trkpt><trkpt lat="15.5668851547" lon="73.7369772512"><ele>3.98</ele><time>2023-12-08T02:25:43Z</time><extensions><gpxtpx:TrackPointExtension><gpxtpx:cad>0</gpxtpx:cad></gpxtpx:TrackPointExtension></extensions></trkpt><trkpt lat="15.5655185692" lon="73.7356752064"><ele>4.46</ele><time>2023-12-08T02:26:43Z</time><extensions><gpxtpx:TrackPointExtension><gpxtpx:cad>0</gpxtpx:cad></gpxtpx:TrackPointExtension></extensions></trkpt><trkpt lat="15.5639498122" lon="73.7346283067"><ele>4.46</ele><time>2023-12-08T02:27:43Z</time><extensions><gpxtpx:TrackPointExtension><gpxtpx:cad>0</gpxtpx:cad></gpxtpx:TrackPointExtension></extensions></trkpt><trkpt lat="15.5628171656" lon="73.7331826799"><ele>3.98</ele><time>2023-12-08T02:28:43Z</time><extensions><gpxtpx:TrackPointExtension><gpxtpx:cad>0</gpxtpx:cad></gpxtpx:TrackPointExtension></extensions></trkpt><trkpt lat="15.5621797219" lon="73.7314258330"><ele>3.02</ele><time>2023-12-08T02:29:43Z</time><extensions><gpxtpx:TrackPointExtension><gpxtpx:cad>0</gpxtpx:cad></gpxtpx:TrackPointExtension></extensions></trkpt><trkpt lat="15.5611500889" lon="73.7298545614"><ele>3.50</ele><time>2023-12-08T02:30:43Z</time><extensions><gpxtpx:TrackPointExtension><gpxtpx:cad>0</gpxtpx:cad></gpxtpx:TrackPointExtension></extensions></trkpt><trkpt lat="15.5598364770" lon="73.7285070028"><ele>3.50</ele><time>2023-12-08T02:31:43Z</time><extensions><gpxtpx:TrackPointExtension><gpxtpx:cad>0</gpxtpx:cad></gpxtpx:TrackPointExtension></extensions></trkpt><trkpt lat="15.5585094541" lon="73.7271643057"><ele>3.98</ele><time>2023-12-08T02:32:43Z</time><extensions><gpxtpx:TrackPointExtension><gpxtpx:cad>0</gpxtpx:cad></gpxtpx:TrackPointExtension></extensions></trkpt><trkpt lat="15.5573390052" lon="73.7256885879"><ele>3.98</ele><time>2023-12-08T02:33:43Z</time><extensions><gpxtpx:TrackPointExtension><gpxtpx:cad>0</gpxtpx:cad></gpxtpx:TrackPointExtension></extensions></trkpt><trkpt lat="15.5561253894" lon="73.7242284603"><ele>3.50</ele><time>2023-12-08T02:34:43Z</time><extensions><gpxtpx:TrackPointExtension><gpxtpx:cad>0</gpxtpx:cad></gpxtpx:TrackPointExtension></extensions></trkpt><trkpt lat="15.5548808444" lon="73.7228036206"><ele>3.02</ele><time>2023-12-08T02:35:43Z</time><extensions><gpxtpx:TrackPointExtension><gpxtpx:cad>0</gpxtpx:cad></gpxtpx:TrackPointExtension></extensions></trkpt><trkpt lat="15.5539959669" lon="73.7232978176"><ele>4.94</ele><time>2023-12-08T02:36:43Z</time><extensions><gpxtpx:TrackPointExtension><gpxtpx:cad>0</gpxtpx:cad></gpxtpx:TrackPointExtension></extensions></trkpt><trkpt lat="15.5535139237" lon="73.7251109071"><ele>5.91</ele><time>2023-12-08T02:37:43Z</time><extensions><gpxtpx:TrackPointExtension><gpxtpx:cad>0</gpxtpx:cad></gpxtpx:TrackPointExtension></extensions></trkpt><trkpt lat="15.5528356601" lon="73.7268183008"><ele>8.31</ele><time>2023-12-08T02:38:43Z</time><extensions><gpxtpx:TrackPointExtension><gpxtpx:cad>0</gpxtpx:cad></gpxtpx:TrackPointExtension></extensions></trkpt><trkpt lat="15.5521812011" lon="73.7285565399"><ele>5.42</ele><time>2023-12-08T02:39:43Z</time><extensions><gpxtpx:TrackPointExtension><gpxtpx:cad>0</gpxtpx:cad></gpxtpx:TrackPointExtension></extensions></trkpt><trkpt lat="15.5514979921" lon="73.7302188389"><ele>3.50</ele><time>2023-12-08T02:40:43Z</time><extensions><gpxtpx:TrackPointExtension><gpxtpx:cad>0</gpxtpx:cad></gpxtpx:TrackPointExtension></extensions></trkpt><trkpt lat="15.5506708659" lon="73.7318098079"><ele>3.02</ele><time>2023-12-08T02:41:43Z</time><extensions><gpxtpx:TrackPointExtension><gpxtpx:cad>0</gpxtpx:cad></gpxtpx:TrackPointExtension></extensions></trkpt><trkpt lat="15.5499470048" lon="73.7334531639"><ele>3.98</ele><time>2023-12-08T02:42:43Z</time><extensions><gpxtpx:TrackPointExtension><gpxtpx:cad>0</gpxtpx:cad></gpxtpx:TrackPointExtension></extensions></trkpt><trkpt lat="15.5490368977" lon="73.7350210827"><ele>3.98</ele><time>2023-12-08T02:43:43Z</time><extensions><gpxtpx:TrackPointExtension><gpxtpx:cad>0</gpxtpx:cad></gpxtpx:TrackPointExtension></extensions></trkpt><trkpt lat="15.5479659420" lon="73.7364945374"><ele>4.46</ele><time>2023-12-08T02:44:43Z</time><extensions><gpxtpx:TrackPointExtension><gpxtpx:cad>0</gpxtpx:cad></gpxtpx:TrackPointExtension></extensions></trkpt><trkpt lat="15.5469256639" lon="73.7380022742"><ele>6.87</ele><time>2023-12-08T02:45:43Z</time><extensions><gpxtpx:TrackPointExtension><gpxtpx:cad>0</gpxtpx:cad></gpxtpx:TrackPointExtension></extensions></trkpt><trkpt lat="15.5459827837" lon="73.7395722046"><ele>7.35</ele><time>2023-12-08T02:46:43Z</time><extensions><gpxtpx:TrackPointExtension><gpxtpx:cad>0</gpxtpx:cad></gpxtpx:TrackPointExtension></extensions></trkpt><trkpt lat="15.5455691367" lon="73.7413160596"><ele>7.35</ele><time>2023-12-08T02:47:43Z</time><extensions><gpxtpx:TrackPointExtension><gpxtpx:cad>0</gpxtpx:cad></gpxtpx:TrackPointExtension></extensions></trkpt><trkpt lat="15.5450559128" lon="73.7430444080"><ele>4.94</ele><time>2023-12-08T02:48:43Z</time><extensions><gpxtpx:TrackPointExtension><gpxtpx:cad>0</gpxtpx:cad></gpxtpx:TrackPointExtension></extensions></trkpt><trkpt lat="15.5441789143" lon="73.7446465250"><ele>3.98</ele><time>2023-12-08T02:49:43Z</time><extensions><gpxtpx:TrackPointExtension><gpxtpx:cad>0</gpxtpx:cad></gpxtpx:TrackPointExtension></extensions></trkpt><trkpt lat="15.5432577431" lon="73.7462093309"><ele>3.98</ele><time>2023-12-08T02:50:43Z</time><extensions><gpxtpx:TrackPointExtension><gpxtpx:cad>0</gpxtpx:cad></gpxtpx:TrackPointExtension></extensions></trkpt><trkpt lat="15.5423752125" lon="73.7478213385"><ele>3.02</ele><time>2023-12-08T02:51:43Z</time><extensions><gpxtpx:TrackPointExtension><gpxtpx:cad>0</gpxtpx:cad></gpxtpx:TrackPointExtension></extensions></trkpt><trkpt lat="15.5414371938" lon="73.7493792828"><ele>2.54</ele><time>2023-12-08T02:52:43Z</time><extensions><gpxtpx:TrackPointExtension><gpxtpx:cad>0</gpxtpx:cad></gpxtpx:TrackPointExtension></extensions></trkpt><trkpt lat="15.5404413398" lon="73.7509279232"><ele>2.54</ele><time>2023-12-08T02:53:43Z</time><extensions><gpxtpx:TrackPointExtension><gpxtpx:cad>0</gpxtpx:cad></gpxtpx:TrackPointExtension></extensions></trkpt><trkpt lat="15.5395270418" lon="73.7525139470"><ele>2.54</ele><time>2023-12-08T02:54:43Z</time><extensions><gpxtpx:TrackPointExtension><gpxtpx:cad>0</gpxtpx:cad></gpxtpx:TrackPointExtension></extensions></trkpt><trkpt lat="15.5386409909" lon="73.7541010603"><ele>3.98</ele><time>2023-12-08T02:55:43Z</time><extensions><gpxtpx:TrackPointExtension><gpxtpx:cad>0</gpxtpx:cad></gpxtpx:TrackPointExtension></extensions></trkpt><trkpt lat="15.5369735789" lon="73.7545830198"><ele>3.98</ele><time>2023-12-08T02:56:43Z</time><extensions><gpxtpx:TrackPointExtension><gpxtpx:cad>0</gpxtpx:cad></gpxtpx:TrackPointExtension></extensions></trkpt><trkpt lat="15.5364782922" lon="73.7529554218"><ele>3.50</ele><time>2023-12-08T02:57:43Z</time><extensions><gpxtpx:TrackPointExtension><gpxtpx:cad>0</gpxtpx:cad></gpxtpx:TrackPointExtension></extensions></trkpt><trkpt lat="15.5349899177" lon="73.7518646847"><ele>5.91</ele><time>2023-12-08T02:58:43Z</time><extensions><gpxtpx:TrackPointExtension><gpxtpx:cad>0</gpxtpx:cad></gpxtpx:TrackPointExtension></extensions></trkpt><trkpt lat="15.5334069114" lon="73.7508318666"><ele>4.94</ele><time>2023-12-08T02:59:43Z</time><extensions><gpxtpx:TrackPointExtension><gpxtpx:cad>0</gpxtpx:cad></gpxtpx:TrackPointExtension></extensions></trkpt><trkpt lat="15.5317400862" lon="73.7499215920"><ele>3.98</ele><time>2023-12-08T03:00:43Z</time><extensions><gpxtpx:TrackPointExtension><gpxtpx:cad>0</gpxtpx:cad></gpxtpx:TrackPointExtension></extensions></trkpt><trkpt lat="15.5299931299" lon="73.7492385507"><ele>5.42</ele><time>2023-12-08T03:01:43Z</time><extensions><gpxtpx:TrackPointExtension><gpxtpx:cad>0</gpxtpx:cad></gpxtpx:TrackPointExtension></extensions></trkpt><trkpt lat="15.5283380393" lon="73.7483584508"><ele>4.94</ele><time>2023-12-08T03:02:43Z</time><extensions><gpxtpx:TrackPointExtension><gpxtpx:cad>0</gpxtpx:cad></gpxtpx:TrackPointExtension></extensions></trkpt><trkpt lat="15.5268259440" lon="73.7472158298"><ele>3.50</ele><time>2023-12-08T03:03:43Z</time><extensions><gpxtpx:TrackPointExtension><gpxtpx:cad>0</gpxtpx:cad></gpxtpx:TrackPointExtension></extensions></trkpt><trkpt lat="15.5252232403" lon="73.7462352309"><ele>3.98</ele><time>2023-12-08T03:04:43Z</time><extensions><gpxtpx:TrackPointExtension><gpxtpx:cad>0</gpxtpx:cad></gpxtpx:TrackPointExtension></extensions></trkpt><trkpt lat="15.5237511266" lon="73.7450997345"><ele>4.46</ele><time>2023-12-08T03:05:43Z</time><extensions><gpxtpx:TrackPointExtension><gpxtpx:cad>0</gpxtpx:cad></gpxtpx:TrackPointExtension></extensions></trkpt><trkpt lat="15.5222974531" lon="73.7439088337"><ele>6.87</ele><time>2023-12-08T03:06:43Z</time><extensions><gpxtpx:TrackPointExtension><gpxtpx:cad>0</gpxtpx:cad></gpxtpx:TrackPointExtension></extensions></trkpt><trkpt lat="15.5206737947" lon="73.7429501954"><ele>7.35</ele><time>2023-12-08T03:07:43Z</time><extensions><gpxtpx:TrackPointExtension><gpxtpx:cad>0</gpxtpx:cad></gpxtpx:TrackPointExtension></extensions></trkpt><trkpt lat="15.5191110726" lon="73.7419019546"><ele>5.91</ele><time>2023-12-08T03:08:43Z</time><extensions><gpxtpx:TrackPointExtension><gpxtpx:cad>0</gpxtpx:cad></gpxtpx:TrackPointExtension></extensions></trkpt><trkpt lat="15.5173656251" lon="73.7412771676"><ele>5.91</ele><time>2023-12-08T03:09:43Z</time><extensions><gpxtpx:TrackPointExtension><gpxtpx:cad>0</gpxtpx:cad></gpxtpx:TrackPointExtension></extensions></trkpt><trkpt lat="15.5157340039" lon="73.7403808068"><ele>5.91</ele><time>2023-12-08T03:10:43Z</time><extensions><gpxtpx:TrackPointExtension><gpxtpx:cad>0</gpxtpx:cad></gpxtpx:TrackPointExtension></extensions></trkpt><trkpt lat="15.5141526740" lon="73.7393524311"><ele>5.42</ele><time>2023-12-08T03:11:43Z</time><extensions><gpxtpx:TrackPointExtension><gpxtpx:cad>0</gpxtpx:cad></gpxtpx:TrackPointExtension></extensions></trkpt><trkpt lat="15.5125623755" lon="73.7382881809"><ele>4.46</ele><time>2023-12-08T03:12:43Z</time><extensions><gpxtpx:TrackPointExtension><gpxtpx:cad>0</gpxtpx:cad></gpxtpx:TrackPointExtension></extensions></trkpt><trkpt lat="15.5110128969" lon="73.7371851224"><ele>3.50</ele><time>2023-12-08T03:13:43Z</time><extensions><gpxtpx:TrackPointExtension><gpxtpx:cad>0</gpxtpx:cad></gpxtpx:TrackPointExtension></extensions></trkpt><trkpt lat="15.5094702914" lon="73.7360564992"><ele>4.46</ele><time>2023-12-08T03:14:43Z</time><extensions><gpxtpx:TrackPointExtension><gpxtpx:cad>0</gpxtpx:cad></gpxtpx:TrackPointExtension></extensions></trkpt><trkpt lat="15.5078516621" lon="73.7362065352"><ele>4.46</ele><time>2023-12-08T03:15:43Z</time><extensions><gpxtpx:TrackPointExtension><gpxtpx:cad>0</gpxtpx:cad></gpxtpx:TrackPointExtension></extensions></trkpt><trkpt lat="15.5072455667" lon="73.7377682514"><ele>4.94</ele><time>2023-12-08T03:16:43Z</time><extensions><gpxtpx:TrackPointExtension><gpxtpx:cad>0</gpxtpx:cad></gpxtpx:TrackPointExtension></extensions></trkpt><trkpt lat="15.5063923728" lon="73.7393783312"><ele>2.54</ele><time>2023-12-08T03:17:43Z</time><extensions><gpxtpx:TrackPointExtension><gpxtpx:cad>0</gpxtpx:cad></gpxtpx:TrackPointExtension></extensions></trkpt><trkpt lat="15.5060427636" lon="73.7410593219"><ele>3.02</ele><time>2023-12-08T03:18:43Z</time><extensions><gpxtpx:TrackPointExtension><gpxtpx:cad>0</gpxtpx:cad></gpxtpx:TrackPointExtension></extensions></trkpt><trkpt lat="15.5051201675" lon="73.7426141649"><ele>2.54</ele><time>2023-12-08T03:19:43Z</time><extensions><gpxtpx:TrackPointExtension><gpxtpx:cad>0</gpxtpx:cad></gpxtpx:TrackPointExtension></extensions></trkpt><trkpt lat="15.5043476913" lon="73.7442255020"><ele>3.02</ele><time>2023-12-08T03:20:43Z</time><extensions><gpxtpx:TrackPointExtension><gpxtpx:cad>0</gpxtpx:cad></gpxtpx:TrackPointExtension></extensions></trkpt><trkpt lat="15.5032669287" lon="73.7456850428"><ele>3.50</ele><time>2023-12-08T03:21:43Z</time><extensions><gpxtpx:TrackPointExtension><gpxtpx:cad>0</gpxtpx:cad></gpxtpx:TrackPointExtension></extensions></trkpt><trkpt lat="15.5021370482" lon="73.7470925320"><ele>2.54</ele><time>2023-12-08T03:22:43Z</time><extensions><gpxtpx:TrackPointExtension><gpxtpx:cad>0</gpxtpx:cad></gpxtpx:TrackPointExtension></extensions></trkpt><trkpt lat="15.5011299625" lon="73.7485955749"><ele>2.54</ele><time>2023-12-08T03:23:43Z</time><extensions><gpxtpx:TrackPointExtension><gpxtpx:cad>0</gpxtpx:cad></gpxtpx:TrackPointExtension></extensions></trkpt><trkpt lat="15.5005783495" lon="73.7503041420"><ele>3.02</ele><time>2023-12-08T03:24:43Z</time><extensions><gpxtpx:TrackPointExtension><gpxtpx:cad>0</gpxtpx:cad></gpxtpx:TrackPointExtension></extensions></trkpt><trkpt lat="15.4997100681" lon="73.7518820353"><ele>4.94</ele><time>2023-12-08T03:25:43Z</time><extensions><gpxtpx:TrackPointExtension><gpxtpx:cad>0</gpxtpx:cad></gpxtpx:TrackPointExtension></extensions></trkpt><trkpt lat="15.4987205006" lon="73.7534246407"><ele>2.54</ele><time>2023-12-08T03:26:43Z</time><extensions><gpxtpx:TrackPointExtension><gpxtpx:cad>0</gpxtpx:cad></gpxtpx:TrackPointExtension></extensions></trkpt><trkpt lat="15.4978706595" lon="73.7550379895"><ele>0.62</ele><time>2023-12-08T03:27:43Z</time><extensions><gpxtpx:TrackPointExtension><gpxtpx:cad>0</gpxtpx:cad></gpxtpx:TrackPointExtension></extensions></trkpt><trkpt lat="15.4968448821" lon="73.7565537728"><ele>1.58</ele><time>2023-12-08T03:28:43Z</time><extensions><gpxtpx:TrackPointExtension><gpxtpx:cad>0</gpxtpx:cad></gpxtpx:TrackPointExtension></extensions></trkpt><trkpt lat="15.4959410615" lon="73.7581477594"><ele>4.46</ele><time>2023-12-08T03:29:43Z</time><extensions><gpxtpx:TrackPointExtension><gpxtpx:cad>0</gpxtpx:cad></gpxtpx:TrackPointExtension></extensions></trkpt><trkpt lat="15.4950633086" lon="73.7597017642"><ele>3.98</ele><time>2023-12-08T03:30:43Z</time><extensions><gpxtpx:TrackPointExtension><gpxtpx:cad>0</gpxtpx:cad></gpxtpx:TrackPointExtension></extensions></trkpt><trkpt lat="15.4941100348" lon="73.7611850258"><ele>3.98</ele><time>2023-12-08T03:31:43Z</time><extensions><gpxtpx:TrackPointExtension><gpxtpx:cad>0</gpxtpx:cad></gpxtpx:TrackPointExtension></extensions></trkpt><trkpt lat="15.4928491451" lon="73.7624279782"><ele>3.50</ele><time>2023-12-08T03:32:43Z</time><extensions><gpxtpx:TrackPointExtension><gpxtpx:cad>0</gpxtpx:cad></gpxtpx:TrackPointExtension></extensions></trkpt><trkpt lat="15.4916676320" lon="73.7637347169"><ele>4.46</ele><time>2023-12-08T03:33:43Z</time><extensions><gpxtpx:TrackPointExtension><gpxtpx:cad>0</gpxtpx:cad></gpxtpx:TrackPointExtension></extensions></trkpt><trkpt lat="15.4904313013" lon="73.7649294734"><ele>3.02</ele><time>2023-12-08T03:34:43Z</time><extensions><gpxtpx:TrackPointExtension><gpxtpx:cad>0</gpxtpx:cad></gpxtpx:TrackPointExtension></extensions></trkpt><trkpt lat="15.4889479559" lon="73.7658208888"><ele>3.02</ele><time>2023-12-08T03:35:43Z</time><extensions><gpxtpx:TrackPointExtension><gpxtpx:cad>0</gpxtpx:cad></gpxtpx:TrackPointExtension></extensions></trkpt><trkpt lat="15.4873819649" lon="73.7665337697"><ele>3.98</ele><time>2023-12-08T03:36:43Z</time><extensions><gpxtpx:TrackPointExtension><gpxtpx:cad>0</gpxtpx:cad></gpxtpx:TrackPointExtension></extensions></trkpt><trkpt lat="15.4857800994" lon="73.7672025617"><ele>3.02</ele><time>2023-12-08T03:37:43Z</time><extensions><gpxtpx:TrackPointExtension><gpxtpx:cad>0</gpxtpx:cad></gpxtpx:TrackPointExtension></extensions></trkpt><trkpt lat="15.4842555150" lon="73.7680463679"><ele>3.98</ele><time>2023-12-08T03:38:43Z</time><extensions><gpxtpx:TrackPointExtension><gpxtpx:cad>0</gpxtpx:cad></gpxtpx:TrackPointExtension></extensions></trkpt><trkpt lat="15.4826950561" lon="73.7688283995"><ele>4.94</ele><time>2023-12-08T03:39:43Z</time><extensions><gpxtpx:TrackPointExtension><gpxtpx:cad>0</gpxtpx:cad></gpxtpx:TrackPointExtension></extensions></trkpt><trkpt lat="15.4811141454" lon="73.7690443173"><ele>3.50</ele><time>2023-12-08T03:40:43Z</time><extensions><gpxtpx:TrackPointExtension><gpxtpx:cad>0</gpxtpx:cad></gpxtpx:TrackPointExtension></extensions></trkpt><trkpt lat="15.4798789043" lon="73.7675226666"><ele>2.06</ele><time>2023-12-08T03:41:43Z</time><extensions><gpxtpx:TrackPointExtension><gpxtpx:cad>0</gpxtpx:cad></gpxtpx:TrackPointExtension></extensions></trkpt><trkpt lat="15.4788590781" lon="73.7658643071"><ele>2.06</ele><time>2023-12-08T03:42:43Z</time><extensions><gpxtpx:TrackPointExtension><gpxtpx:cad>0</gpxtpx:cad></gpxtpx:TrackPointExtension></extensions></trkpt><trkpt lat="15.4781569261" lon="73.7640022673"><ele>2.06</ele><time>2023-12-08T03:43:43Z</time><extensions><gpxtpx:TrackPointExtension><gpxtpx:cad>0</gpxtpx:cad></gpxtpx:TrackPointExtension></extensions></trkpt><trkpt lat="15.4773184005" lon="73.7622154970"><ele>1.58</ele><time>2023-12-08T03:44:43Z</time><extensions><gpxtpx:TrackPointExtension><gpxtpx:cad>0</gpxtpx:cad></gpxtpx:TrackPointExtension></extensions></trkpt><trkpt lat="15.4763900209" lon="73.7604640145"><ele>1.58</ele><time>2023-12-08T03:45:43Z</time><extensions><gpxtpx:TrackPointExtension><gpxtpx:cad>0</gpxtpx:cad></gpxtpx:TrackPointExtension></extensions></trkpt><trkpt lat="15.4753578734" lon="73.7587719597"><ele>1.58</ele><time>2023-12-08T03:46:43Z</time><extensions><gpxtpx:TrackPointExtension><gpxtpx:cad>0</gpxtpx:cad></gpxtpx:TrackPointExtension></extensions></trkpt><trkpt lat="15.4744936991" lon="73.7569933198"><ele>1.10</ele><time>2023-12-08T03:47:43Z</time><extensions><gpxtpx:TrackPointExtension><gpxtpx:cad>0</gpxtpx:cad></gpxtpx:TrackPointExtension></extensions></trkpt><trkpt lat="15.4737888649" lon="73.7551298551"><ele>-0.34</ele><time>2023-12-08T03:48:43Z</time><extensions><gpxtpx:TrackPointExtension><gpxtpx:cad>0</gpxtpx:cad></gpxtpx:TrackPointExtension></extensions></trkpt><trkpt lat="15.4730640817" lon="73.7532580923"><ele>-0.82</ele><time>2023-12-08T03:49:43Z</time><extensions><gpxtpx:TrackPointExtension><gpxtpx:cad>0</gpxtpx:cad></gpxtpx:TrackPointExtension></extensions></trkpt><trkpt lat="15.4723341018" lon="73.7514009979"><ele>1.58</ele><time>2023-12-08T03:50:43Z</time><extensions><gpxtpx:TrackPointExtension><gpxtpx:cad>0</gpxtpx:cad></gpxtpx:TrackPointExtension></extensions></trkpt><trkpt lat="15.4712038022" lon="73.7499692012"><ele>1.10</ele><time>2023-12-08T03:51:43Z</time><extensions><gpxtpx:TrackPointExtension><gpxtpx:cad>0</gpxtpx:cad></gpxtpx:TrackPointExtension></extensions></trkpt><trkpt lat="15.4698361270" lon="73.7509967387"><ele>2.06</ele><time>2023-12-08T03:52:43Z</time><extensions><gpxtpx:TrackPointExtension><gpxtpx:cad>0</gpxtpx:cad></gpxtpx:TrackPointExtension></extensions></trkpt><trkpt lat="15.4684048332" lon="73.7520552054"><ele>3.02</ele><time>2023-12-08T03:53:43Z</time><extensions><gpxtpx:TrackPointExtension><gpxtpx:cad>0</gpxtpx:cad></gpxtpx:TrackPointExtension></extensions></trkpt><trkpt lat="15.4671006929" lon="73.7532243133"><ele>1.58</ele><time>2023-12-08T03:54:43Z</time><extensions><gpxtpx:TrackPointExtension><gpxtpx:cad>0</gpxtpx:cad></gpxtpx:TrackPointExtension></extensions></trkpt><trkpt lat="15.4659884982" lon="73.7545755599"><ele>1.10</ele><time>2023-12-08T03:55:43Z</time><extensions><gpxtpx:TrackPointExtension><gpxtpx:cad>0</gpxtpx:cad></gpxtpx:TrackPointExtension></extensions></trkpt><trkpt lat="15.4649559315" lon="73.7560147326"><ele>0.14</ele><time>2023-12-08T03:56:43Z</time><extensions><gpxtpx:TrackPointExtension><gpxtpx:cad>0</gpxtpx:cad></gpxtpx:TrackPointExtension></extensions></trkpt><trkpt lat="15.4635649547" lon="73.7571458705"><ele>2.06</ele><time>2023-12-08T03:57:43Z</time><extensions><gpxtpx:TrackPointExtension><gpxtpx:cad>0</gpxtpx:cad></gpxtpx:TrackPointExtension></extensions></trkpt><trkpt lat="15.4622048233" lon="73.7583355140"><ele>2.54</ele><time>2023-12-08T03:58:43Z</time><extensions><gpxtpx:TrackPointExtension><gpxtpx:cad>0</gpxtpx:cad></gpxtpx:TrackPointExtension></extensions></trkpt><trkpt lat="15.4608263355" lon="73.7594370637"><ele>1.10</ele><time>2023-12-08T03:59:43Z</time><extensions><gpxtpx:TrackPointExtension><gpxtpx:cad>0</gpxtpx:cad></gpxtpx:TrackPointExtension></extensions></trkpt><trkpt lat="15.4592193570" lon="73.7603156548"><ele>0.62</ele><time>2023-12-08T04:00:43Z</time><extensions><gpxtpx:TrackPointExtension><gpxtpx:cad>0</gpxtpx:cad></gpxtpx:TrackPointExtension></extensions></trkpt><trkpt lat="15.4578514304" lon="73.7614857685"><ele>2.06</ele><time>2023-12-08T04:01:43Z</time><extensions><gpxtpx:TrackPointExtension><gpxtpx:cad>0</gpxtpx:cad></gpxtpx:TrackPointExtension></extensions></trkpt><trkpt lat="15.4561868683" lon="73.7623120565"><ele>1.58</ele><time>2023-12-08T04:02:43Z</time><extensions><gpxtpx:TrackPointExtension><gpxtpx:cad>0</gpxtpx:cad></gpxtpx:TrackPointExtension></extensions></trkpt><trkpt lat="15.4544892814" lon="73.7630840298"><ele>0.62</ele><time>2023-12-08T04:03:43Z</time><extensions><gpxtpx:TrackPointExtension><gpxtpx:cad>0</gpxtpx:cad></gpxtpx:TrackPointExtension></extensions></trkpt><trkpt lat="15.4527837317" lon="73.7638468668"><ele>-1.79</ele><time>2023-12-08T04:04:43Z</time><extensions><gpxtpx:TrackPointExtension><gpxtpx:cad>0</gpxtpx:cad></gpxtpx:TrackPointExtension></extensions></trkpt><trkpt lat="15.4511212651" lon="73.7645952869"><ele>-5.63</ele><time>2023-12-08T04:05:43Z</time><extensions><gpxtpx:TrackPointExtension><gpxtpx:cad>0</gpxtpx:cad></gpxtpx:TrackPointExtension></extensions></trkpt><trkpt lat="15.4494182300" lon="73.7653437071"><ele>-6.59</ele><time>2023-12-08T04:06:43Z</time><extensions><gpxtpx:TrackPointExtension><gpxtpx:cad>0</gpxtpx:cad></gpxtpx:TrackPointExtension></extensions></trkpt><trkpt lat="15.4478472937" lon="73.7662801333"><ele>-4.19</ele><time>2023-12-08T04:07:43Z</time><extensions><gpxtpx:TrackPointExtension><gpxtpx:cad>0</gpxtpx:cad></gpxtpx:TrackPointExtension></extensions></trkpt><trkpt lat="15.4461469408" lon="73.7670353428"><ele>-3.71</ele><time>2023-12-08T04:08:43Z</time><extensions><gpxtpx:TrackPointExtension><gpxtpx:cad>0</gpxtpx:cad></gpxtpx:TrackPointExtension></extensions></trkpt><trkpt lat="15.4445348494" lon="73.7679201365"><ele>-2.27</ele><time>2023-12-08T04:09:43Z</time><extensions><gpxtpx:TrackPointExtension><gpxtpx:cad>0</gpxtpx:cad></gpxtpx:TrackPointExtension></extensions></trkpt><trkpt lat="15.4430278670" lon="73.7690359354"><ele>-2.75</ele><time>2023-12-08T04:10:43Z</time><extensions><gpxtpx:TrackPointExtension><gpxtpx:cad>0</gpxtpx:cad></gpxtpx:TrackPointExtension></extensions></trkpt><trkpt lat="15.4414498899" lon="73.7700053025"><ele>-2.27</ele><time>2023-12-08T04:11:43Z</time><extensions><gpxtpx:TrackPointExtension><gpxtpx:cad>0</gpxtpx:cad></gpxtpx:TrackPointExtension></extensions></trkpt><trkpt lat="15.4399336874" lon="73.7710576504"><ele>0.62</ele><time>2023-12-08T04:12:43Z</time><extensions><gpxtpx:TrackPointExtension><gpxtpx:cad>0</gpxtpx:cad></gpxtpx:TrackPointExtension></extensions></trkpt><trkpt lat="15.4386808444" lon="73.7723703403"><ele>2.54</ele><time>2023-12-08T04:13:43Z</time><extensions><gpxtpx:TrackPointExtension><gpxtpx:cad>0</gpxtpx:cad></gpxtpx:TrackPointExtension></extensions></trkpt><trkpt lat="15.4374545719" lon="73.7736611534"><ele>1.10</ele><time>2023-12-08T04:14:43Z</time><extensions><gpxtpx:TrackPointExtension><gpxtpx:cad>0</gpxtpx:cad></gpxtpx:TrackPointExtension></extensions></trkpt><trkpt lat="15.4366930760" lon="73.7751918565"><ele>2.54</ele><time>2023-12-08T04:15:43Z</time><extensions><gpxtpx:TrackPointExtension><gpxtpx:cad>0</gpxtpx:cad></gpxtpx:TrackPointExtension></extensions></trkpt><trkpt lat="15.4357957933" lon="73.7761133630"><ele>3.02</ele><time>2023-12-08T04:16:43Z</time><extensions><gpxtpx:TrackPointExtension><gpxtpx:cad>0</gpxtpx:cad></gpxtpx:TrackPointExtension></extensions></trkpt><trkpt lat="15.4356530495" lon="73.7770703249"><ele>3.02</ele><time>2023-12-08T04:17:43Z</time><extensions><gpxtpx:TrackPointExtension><gpxtpx:cad>0</gpxtpx:cad></gpxtpx:TrackPointExtension></extensions></trkpt><trkpt lat="15.4356596712" lon="73.7786370702"><ele>3.50</ele><time>2023-12-08T04:18:43Z</time><extensions><gpxtpx:TrackPointExtension><gpxtpx:cad>0</gpxtpx:cad></gpxtpx:TrackPointExtension></extensions></trkpt><trkpt lat="15.4358285666" lon="73.7801683601"><ele>3.50</ele><time>2023-12-08T04:19:43Z</time><extensions><gpxtpx:TrackPointExtension><gpxtpx:cad>0</gpxtpx:cad></gpxtpx:TrackPointExtension></extensions></trkpt><trkpt lat="15.4359367769" lon="73.7817589939"><ele>1.10</ele><time>2023-12-08T04:20:43Z</time><extensions><gpxtpx:TrackPointExtension><gpxtpx:cad>0</gpxtpx:cad></gpxtpx:TrackPointExtension></extensions></trkpt><trkpt lat="15.4359956179" lon="73.7833308522"><ele>-0.34</ele><time>2023-12-08T04:21:43Z</time><extensions><gpxtpx:TrackPointExtension><gpxtpx:cad>0</gpxtpx:cad></gpxtpx:TrackPointExtension></extensions></trkpt><trkpt lat="15.4358672909" lon="73.7848362420"><ele>3.02</ele><time>2023-12-08T04:22:43Z</time><extensions><gpxtpx:TrackPointExtension><gpxtpx:cad>0</gpxtpx:cad></gpxtpx:TrackPointExtension></extensions></trkpt><trkpt lat="15.4356823023" lon="73.7863496784"><ele>3.50</ele><time>2023-12-08T04:23:43Z</time><extensions><gpxtpx:TrackPointExtension><gpxtpx:cad>0</gpxtpx:cad></gpxtpx:TrackPointExtension></extensions></trkpt><trkpt lat="15.4357216973" lon="73.7879377138"><ele>4.46</ele><time>2023-12-08T04:24:43Z</time><extensions><gpxtpx:TrackPointExtension><gpxtpx:cad>0</gpxtpx:cad></gpxtpx:TrackPointExtension></extensions></trkpt><trkpt lat="15.4354051966" lon="73.7894919701"><ele>4.94</ele><time>2023-12-08T04:25:43Z</time><extensions><gpxtpx:TrackPointExtension><gpxtpx:cad>0</gpxtpx:cad></gpxtpx:TrackPointExtension></extensions></trkpt><trkpt lat="15.4360623378" lon="73.7906240299"><ele>3.98</ele><time>2023-12-08T04:26:43Z</time><extensions><gpxtpx:TrackPointExtension><gpxtpx:cad>0</gpxtpx:cad></gpxtpx:TrackPointExtension></extensions></trkpt><trkpt lat="15.4375721700" lon="73.7913218234"><ele>3.98</ele><time>2023-12-08T04:27:43Z</time><extensions><gpxtpx:TrackPointExtension><gpxtpx:cad>0</gpxtpx:cad></gpxtpx:TrackPointExtension></extensions></trkpt><trkpt lat="15.4390623048" lon="73.7920552399"><ele>3.02</ele><time>2023-12-08T04:28:43Z</time><extensions><gpxtpx:TrackPointExtension><gpxtpx:cad>0</gpxtpx:cad></gpxtpx:TrackPointExtension></extensions></trkpt><trkpt lat="15.4406843707" lon="73.7925023306"><ele>3.98</ele><time>2023-12-08T04:29:43Z</time><extensions><gpxtpx:TrackPointExtension><gpxtpx:cad>0</gpxtpx:cad></gpxtpx:TrackPointExtension></extensions></trkpt><trkpt lat="15.4423450772" lon="73.7928513531"><ele>3.50</ele><time>2023-12-08T04:30:43Z</time><extensions><gpxtpx:TrackPointExtension><gpxtpx:cad>0</gpxtpx:cad></gpxtpx:TrackPointExtension></extensions></trkpt><trkpt lat="15.4440349527" lon="73.7930292170"><ele>3.50</ele><time>2023-12-08T04:31:43Z</time><extensions><gpxtpx:TrackPointExtension><gpxtpx:cad>0</gpxtpx:cad></gpxtpx:TrackPointExtension></extensions></trkpt><trkpt lat="15.4457665700" lon="73.7927150633"><ele>3.50</ele><time>2023-12-08T04:32:43Z</time><extensions><gpxtpx:TrackPointExtension><gpxtpx:cad>0</gpxtpx:cad></gpxtpx:TrackPointExtension></extensions></trkpt><trkpt lat="15.4474570323" lon="73.7922284100"><ele>3.50</ele><time>2023-12-08T04:33:43Z</time><extensions><gpxtpx:TrackPointExtension><gpxtpx:cad>0</gpxtpx:cad></gpxtpx:TrackPointExtension></extensions></trkpt><trkpt lat="15.4490642622" lon="73.7912730407"><ele>4.94</ele><time>2023-12-08T04:34:43Z</time><extensions><gpxtpx:TrackPointExtension><gpxtpx:cad>0</gpxtpx:cad></gpxtpx:TrackPointExtension></extensions></trkpt><trkpt lat="15.4506428260" lon="73.7903008237"><ele>4.46</ele><time>2023-12-08T04:35:43Z</time><extensions><gpxtpx:TrackPointExtension><gpxtpx:cad>0</gpxtpx:cad></gpxtpx:TrackPointExtension></extensions></trkpt><trkpt lat="15.4521842580" lon="73.7892837636"><ele>3.02</ele><time>2023-12-08T04:36:43Z</time><extensions><gpxtpx:TrackPointExtension><gpxtpx:cad>0</gpxtpx:cad></gpxtpx:TrackPointExtension></extensions></trkpt><trkpt lat="15.4536159709" lon="73.7880932819"><ele>2.06</ele><time>2023-12-08T04:37:43Z</time><extensions><gpxtpx:TrackPointExtension><gpxtpx:cad>0</gpxtpx:cad></gpxtpx:TrackPointExtension></extensions></trkpt><trkpt lat="15.4549900163" lon="73.7868952565"><ele>3.50</ele><time>2023-12-08T04:38:43Z</time><extensions><gpxtpx:TrackPointExtension><gpxtpx:cad>0</gpxtpx:cad></gpxtpx:TrackPointExtension></extensions></trkpt><trkpt lat="15.4559451342" lon="73.7851946522"><ele>4.94</ele><time>2023-12-08T04:39:43Z</time><extensions><gpxtpx:TrackPointExtension><gpxtpx:cad>0</gpxtpx:cad></gpxtpx:TrackPointExtension></extensions></trkpt><trkpt lat="15.4570943769" lon="73.7835747655"><ele>3.98</ele><time>2023-12-08T04:40:43Z</time><extensions><gpxtpx:TrackPointExtension><gpxtpx:cad>0</gpxtpx:cad></gpxtpx:TrackPointExtension></extensions></trkpt><trkpt lat="15.4583200626" lon="73.7820287235"><ele>5.42</ele><time>2023-12-08T04:41:43Z</time><extensions><gpxtpx:TrackPointExtension><gpxtpx:cad>0</gpxtpx:cad></gpxtpx:TrackPointExtension></extensions></trkpt><trkpt lat="15.4594201036" lon="73.7805147842"><ele>5.91</ele><time>2023-12-08T04:42:43Z</time><extensions><gpxtpx:TrackPointExtension><gpxtpx:cad>0</gpxtpx:cad></gpxtpx:TrackPointExtension></extensions></trkpt><trkpt lat="15.4603240918" lon="73.7788108271"><ele>4.46</ele><time>2023-12-08T04:43:43Z</time><extensions><gpxtpx:TrackPointExtension><gpxtpx:cad>0</gpxtpx:cad></gpxtpx:TrackPointExtension></extensions></trkpt><trkpt lat="15.4619186651" lon="73.7779433839"><ele>5.91</ele><time>2023-12-08T04:44:43Z</time><extensions><gpxtpx:TrackPointExtension><gpxtpx:cad>0</gpxtpx:cad></gpxtpx:TrackPointExtension></extensions></trkpt><trkpt lat="15.4635844845" lon="73.7771830615"><ele>8.31</ele><time>2023-12-08T04:45:43Z</time><extensions><gpxtpx:TrackPointExtension><gpxtpx:cad>0</gpxtpx:cad></gpxtpx:TrackPointExtension></extensions></trkpt><trkpt lat="15.4653189518" lon="73.7765986752"><ele>8.79</ele><time>2023-12-08T04:46:43Z</time><extensions><gpxtpx:TrackPointExtension><gpxtpx:cad>0</gpxtpx:cad></gpxtpx:TrackPointExtension></extensions></trkpt><trkpt lat="15.4671199713" lon="73.7763356511"><ele>5.42</ele><time>2023-12-08T04:47:43Z</time><extensions><gpxtpx:TrackPointExtension><gpxtpx:cad>0</gpxtpx:cad></gpxtpx:TrackPointExtension></extensions></trkpt><trkpt lat="15.4689380899" lon="73.7759120297"><ele>6.87</ele><time>2023-12-08T04:48:43Z</time><extensions><gpxtpx:TrackPointExtension><gpxtpx:cad>0</gpxtpx:cad></gpxtpx:TrackPointExtension></extensions></trkpt><trkpt lat="15.4707775824" lon="73.7754034996"><ele>8.79</ele><time>2023-12-08T04:49:43Z</time><extensions><gpxtpx:TrackPointExtension><gpxtpx:cad>0</gpxtpx:cad></gpxtpx:TrackPointExtension></extensions></trkpt><trkpt lat="15.4726133030" lon="73.7750455923"><ele>7.35</ele><time>2023-12-08T04:50:43Z</time><extensions><gpxtpx:TrackPointExtension><gpxtpx:cad>0</gpxtpx:cad></gpxtpx:TrackPointExtension></extensions></trkpt><trkpt lat="15.4744790308" lon="73.7749479432"><ele>7.83</ele><time>2023-12-08T04:51:43Z</time><extensions><gpxtpx:TrackPointExtension><gpxtpx:cad>0</gpxtpx:cad></gpxtpx:TrackPointExtension></extensions></trkpt><trkpt lat="15.4763348680" lon="73.7747804727"><ele>7.83</ele><time>2023-12-08T04:52:43Z</time><extensions><gpxtpx:TrackPointExtension><gpxtpx:cad>0</gpxtpx:cad></gpxtpx:TrackPointExtension></extensions></trkpt><trkpt lat="15.4781819880" lon="73.7744144350"><ele>7.83</ele><time>2023-12-08T04:53:43Z</time><extensions><gpxtpx:TrackPointExtension><gpxtpx:cad>0</gpxtpx:cad></gpxtpx:TrackPointExtension></extensions></trkpt><trkpt lat="15.4800275993" lon="73.7738806754"><ele>6.87</ele><time>2023-12-08T04:54:43Z</time><extensions><gpxtpx:TrackPointExtension><gpxtpx:cad>0</gpxtpx:cad></gpxtpx:TrackPointExtension></extensions></trkpt><trkpt lat="15.4818444606" lon="73.7738586310"><ele>6.39</ele><time>2023-12-08T04:55:43Z</time><extensions><gpxtpx:TrackPointExtension><gpxtpx:cad>0</gpxtpx:cad></gpxtpx:TrackPointExtension></extensions></trkpt><trkpt lat="15.4835889023" lon="73.7743241619"><ele>3.98</ele><time>2023-12-08T04:56:43Z</time><extensions><gpxtpx:TrackPointExtension><gpxtpx:cad>0</gpxtpx:cad></gpxtpx:TrackPointExtension></extensions></trkpt><trkpt lat="15.4853030853" lon="73.7746679038"><ele>2.06</ele><time>2023-12-08T04:57:43Z</time><extensions><gpxtpx:TrackPointExtension><gpxtpx:cad>0</gpxtpx:cad></gpxtpx:TrackPointExtension></extensions></trkpt><trkpt lat="15.4869056214" lon="73.7750090472"><ele>2.06</ele><time>2023-12-08T04:58:43Z</time><extensions><gpxtpx:TrackPointExtension><gpxtpx:cad>0</gpxtpx:cad></gpxtpx:TrackPointExtension></extensions></trkpt><trkpt lat="15.4878255352" lon="73.7764588650"><ele>1.58</ele><time>2023-12-08T04:59:43Z</time><extensions><gpxtpx:TrackPointExtension><gpxtpx:cad>0</gpxtpx:cad></gpxtpx:TrackPointExtension></extensions></trkpt><trkpt lat="15.4887256678" lon="73.7779938430"><ele>1.10</ele><time>2023-12-08T05:00:43Z</time><extensions><gpxtpx:TrackPointExtension><gpxtpx:cad>0</gpxtpx:cad></gpxtpx:TrackPointExtension></extensions></trkpt><trkpt lat="15.4894391354" lon="73.7796123046"><ele>1.58</ele><time>2023-12-08T05:01:43Z</time><extensions><gpxtpx:TrackPointExtension><gpxtpx:cad>0</gpxtpx:cad></gpxtpx:TrackPointExtension></extensions></trkpt><trkpt lat="15.4902169760" lon="73.7811169401"><ele>4.94</ele><time>2023-12-08T05:02:43Z</time><extensions><gpxtpx:TrackPointExtension><gpxtpx:cad>0</gpxtpx:cad></gpxtpx:TrackPointExtension></extensions></trkpt><trkpt lat="15.4907798208" lon="73.7827589549"><ele>3.98</ele><time>2023-12-08T05:03:43Z</time><extensions><gpxtpx:TrackPointExtension><gpxtpx:cad>0</gpxtpx:cad></gpxtpx:TrackPointExtension></extensions></trkpt><trkpt lat="15.4913853295" lon="73.7843818590"><ele>0.62</ele><time>2023-12-08T05:04:43Z</time><extensions><gpxtpx:TrackPointExtension><gpxtpx:cad>0</gpxtpx:cad></gpxtpx:TrackPointExtension></extensions></trkpt><trkpt lat="15.4918567277" lon="73.7859922741"><ele>3.50</ele><time>2023-12-08T05:05:43Z</time><extensions><gpxtpx:TrackPointExtension><gpxtpx:cad>0</gpxtpx:cad></gpxtpx:TrackPointExtension></extensions></trkpt><trkpt lat="15.4918532073" lon="73.7871426903"><ele>3.50</ele><time>2023-12-08T05:06:43Z</time><extensions><gpxtpx:TrackPointExtension><gpxtpx:cad>0</gpxtpx:cad></gpxtpx:TrackPointExtension></extensions></trkpt><trkpt lat="15.4906897992" lon="73.7884234451"><ele>4.94</ele><time>2023-12-08T05:07:43Z</time><extensions><gpxtpx:TrackPointExtension><gpxtpx:cad>0</gpxtpx:cad></gpxtpx:TrackPointExtension></extensions></trkpt><trkpt lat="15.4892682284" lon="73.7895545829"><ele>2.06</ele><time>2023-12-08T05:08:43Z</time><extensions><gpxtpx:TrackPointExtension><gpxtpx:cad>0</gpxtpx:cad></gpxtpx:TrackPointExtension></extensions></trkpt><trkpt lat="15.4878148902" lon="73.7907119561"><ele>3.98</ele><time>2023-12-08T05:09:43Z</time><extensions><gpxtpx:TrackPointExtension><gpxtpx:cad>0</gpxtpx:cad></gpxtpx:TrackPointExtension></extensions></trkpt><trkpt lat="15.4860147927" lon="73.7918204628"><ele>4.46</ele><time>2023-12-08T05:10:43Z</time><extensions><gpxtpx:TrackPointExtension><gpxtpx:cad>0</gpxtpx:cad></gpxtpx:TrackPointExtension></extensions></trkpt><trkpt lat="15.4842348956" lon="73.7930563744"><ele>4.46</ele><time>2023-12-08T05:11:43Z</time><extensions><gpxtpx:TrackPointExtension><gpxtpx:cad>0</gpxtpx:cad></gpxtpx:TrackPointExtension></extensions></trkpt><trkpt lat="15.4828575812" lon="73.7946327589"><ele>3.02</ele><time>2023-12-08T05:12:43Z</time><extensions><gpxtpx:TrackPointExtension><gpxtpx:cad>0</gpxtpx:cad></gpxtpx:TrackPointExtension></extensions></trkpt><trkpt lat="15.4816475697" lon="73.7962865084"><ele>4.46</ele><time>2023-12-08T05:13:43Z</time><extensions><gpxtpx:TrackPointExtension><gpxtpx:cad>0</gpxtpx:cad></gpxtpx:TrackPointExtension></extensions></trkpt><trkpt lat="15.4807095509" lon="73.7980210595"><ele>3.50</ele><time>2023-12-08T05:14:43Z</time><extensions><gpxtpx:TrackPointExtension><gpxtpx:cad>0</gpxtpx:cad></gpxtpx:TrackPointExtension></extensions></trkpt><trkpt lat="15.4796972685" lon="73.7997492403"><ele>3.98</ele><time>2023-12-08T05:15:43Z</time><extensions><gpxtpx:TrackPointExtension><gpxtpx:cad>0</gpxtpx:cad></gpxtpx:TrackPointExtension></extensions></trkpt><trkpt lat="15.4789557215" lon="73.8017441332"><ele>3.50</ele><time>2023-12-08T05:16:43Z</time><extensions><gpxtpx:TrackPointExtension><gpxtpx:cad>0</gpxtpx:cad></gpxtpx:TrackPointExtension></extensions></trkpt><trkpt lat="15.4794508405" lon="73.8031641953"><ele>1.58</ele><time>2023-12-08T05:17:43Z</time><extensions><gpxtpx:TrackPointExtension><gpxtpx:cad>0</gpxtpx:cad></gpxtpx:TrackPointExtension></extensions></trkpt><trkpt lat="15.4807730857" lon="73.8042566087"><ele>6.39</ele><time>2023-12-08T05:18:43Z</time><extensions><gpxtpx:TrackPointExtension><gpxtpx:cad>0</gpxtpx:cad></gpxtpx:TrackPointExtension></extensions></trkpt><trkpt lat="15.4821668286" lon="73.8051743433"><ele>6.39</ele><time>2023-12-08T05:19:43Z</time><extensions><gpxtpx:TrackPointExtension><gpxtpx:cad>0</gpxtpx:cad></gpxtpx:TrackPointExtension></extensions></trkpt></trkseg></trk></gpx>