<?xml version="1.0" encoding="UTF-8" standalone="no" ?><gpx xmlns="http://www.topografix.com/GPX/1/1" xmlns:gpxx="http://www.garmin.com/xmlschemas/GpxExtensions/v3" xmlns:wptx1="http://www.garmin.com/xmlschemas/WaypointExtension/v1" xmlns:gpxtpx="http://www.garmin.com/xmlschemas/TrackPointExtension/v1" creator="eTrex 10 SEA" version="1.1" xmlns:xsi="http://www.w3.org/2001/XMLSchema-instance" xsi:schemaLocation="http://www.topografix.com/GPX/1/1 http://www.topografix.com/GPX/1/1/gpx.xsd http://www.garmin.com/xmlschemas/GpxExtensions/v3 http://www8.garmin.com/xmlschemas/GpxExtensionsv3.xsd http://www.garmin.com/xmlschemas/WaypointExtension/v1 http://www8.garmin.com/xmlschemas/WaypointExtensionv1.xsd http://www.garmin.com/xmlschemas/TrackPointExtension/v1 http://www.garmin.com/xmlschemas/TrackPointExtensionv1.xsd"><metadata><link href="http://www.garmin.com"><text>Garmin International</text></link><time>2023-12-12T06:43:33Z</time></metadata><trk><name>12-DEC-23 12:13:31</name><extensions><gpxx:TrackExtension><gpxx:DisplayColor>Cyan</gpxx:DisplayColor></gpxx:TrackExtension></extensions><trkseg><trkpt lat="15.1428825594" lon="73.9505940769"><ele>2.06</ele><time>2023-12-12T01:17:41Z</time><extensions><gpxtpx:TrackPointExtension><gpxtpx:cad>0</gpxtpx:cad></gpxtpx:TrackPointExtension></extensions></trkpt><trkpt lat="15.1426650491" lon="73.9504806697"><ele>3.02</ele><time>2023-12-12T01:17:49Z</time><extensions><gpxtpx:TrackPointExtension><gpxtpx:cad>0</gpxtpx:cad></gpxtpx:TrackPointExtension></extensions></trkpt><trkpt lat="15.1425240654" lon="73.9489197079"><ele>1.10</ele><time>2023-12-12T01:18:49Z</time><extensions><gpxtpx:TrackPointExtension><gpxtpx:cad>0</gpxtpx:cad></gpxtpx:TrackPointExtension></extensions></trkpt><trkpt lat="15.1429248042" lon="73.9468363859"><ele>0.62</ele><time>2023-12-12T01:19:49Z</time><extensions><gpxtpx:TrackPointExtension><gpxtpx:cad>0</gpxtpx:cad></gpxtpx:TrackPointExtension></extensions></trkpt><trkpt lat="15.1433135569" lon="73.9449953847"><ele>1.10</ele><time>2023-12-12T01:20:49Z</time><extensions><gpxtpx:TrackPointExtension><gpxtpx:cad>0</gpxtpx:cad></gpxtpx:TrackPointExtension></extensions></trkpt><trkpt lat="15.1437621564" lon="73.9430889208"><ele>1.10</ele><time>2023-12-12T01:21:49Z</time><extensions><gpxtpx:TrackPointExtension><gpxtpx:cad>0</gpxtpx:cad></gpxtpx:TrackPointExtension></extensions></trkpt><trkpt lat="15.1445103250" lon="73.9412387833"><ele>0.62</ele><time>2023-12-12T01:22:49Z</time><extensions><gpxtpx:TrackPointExtension><gpxtpx:cad>0</gpxtpx:cad></gpxtpx:TrackPointExtension></extensions></trkpt><trkpt lat="15.1453185081" lon="73.9394210838"><ele>0.14</ele><time>2023-12-12T01:23:49Z</time><extensions><gpxtpx:TrackPointExtension><gpxtpx:cad>0</gpxtpx:cad></gpxtpx:TrackPointExtension></extensions></trkpt><trkpt lat="15.1459614839" lon="73.9375335630"><ele>-0.34</ele><time>2023-12-12T01:24:49Z</time><extensions><gpxtpx:TrackPointExtension><gpxtpx:cad>0</gpxtpx:cad></gpxtpx:TrackPointExtension></extensions></trkpt><trkpt lat="15.1467319485" lon="73.9357088227"><ele>-0.34</ele><time>2023-12-12T01:25:49Z</time><extensions><gpxtpx:TrackPointExtension><gpxtpx:cad>0</gpxtpx:cad></gpxtpx:TrackPointExtension></extensions></trkpt><trkpt lat="15.1470625307" lon="73.9337451104"><ele>1.10</ele><time>2023-12-12T01:26:49Z</time><extensions><gpxtpx:TrackPointExtension><gpxtpx:cad>0</gpxtpx:cad></gpxtpx:TrackPointExtension></extensions></trkpt><trkpt lat="15.1479567960" lon="73.9319845755"><ele>0.14</ele><time>2023-12-12T01:27:49Z</time><extensions><gpxtpx:TrackPointExtension><gpxtpx:cad>0</gpxtpx:cad></gpxtpx:TrackPointExtension></extensions></trkpt><trkpt lat="15.1488836668" lon="73.9302771818"><ele>0.14</ele><time>2023-12-12T01:28:49Z</time><extensions><gpxtpx:TrackPointExtension><gpxtpx:cad>0</gpxtpx:cad></gpxtpx:TrackPointExtension></extensions></trkpt><trkpt lat="15.1498113759" lon="73.9285677765"><ele>-0.82</ele><time>2023-12-12T01:29:49Z</time><extensions><gpxtpx:TrackPointExtension><gpxtpx:cad>0</gpxtpx:cad></gpxtpx:TrackPointExtension></extensions></trkpt><trkpt lat="15.1506420225" lon="73.9267764799"><ele>-0.34</ele><time>2023-12-12T01:30:49Z</time><extensions><gpxtpx:TrackPointExtension><gpxtpx:cad>0</gpxtpx:cad></gpxtpx:TrackPointExtension></extensions></trkpt><trkpt lat="15.1513932087" lon="73.9249478001"><ele>-0.82</ele><time>2023-12-12T01:31:49Z</time><extensions><gpxtpx:TrackPointExtension><gpxtpx:cad>0</gpxtpx:cad></gpxtpx:TrackPointExtension></extensions></trkpt><trkpt lat="15.1521964464" lon="73.9231267478"><ele>-0.34</ele><time>2023-12-12T01:32:49Z</time><extensions><gpxtpx:TrackPointExtension><gpxtpx:cad>0</gpxtpx:cad></gpxtpx:TrackPointExtension></extensions></trkpt><trkpt lat="15.1530686673" lon="73.9213603456"><ele>-0.82</ele><time>2023-12-12T01:33:49Z</time><extensions><gpxtpx:TrackPointExtension><gpxtpx:cad>0</gpxtpx:cad></gpxtpx:TrackPointExtension></extensions></trkpt><trkpt lat="15.1542966999" lon="73.9205638971"><ele>2.06</ele><time>2023-12-12T01:34:49Z</time><extensions><gpxtpx:TrackPointExtension><gpxtpx:cad>0</gpxtpx:cad></gpxtpx:TrackPointExtension></extensions></trkpt><trkpt lat="15.1557248086" lon="73.9218587335"><ele>1.10</ele><time>2023-12-12T01:35:49Z</time><extensions><gpxtpx:TrackPointExtension><gpxtpx:cad>0</gpxtpx:cad></gpxtpx:TrackPointExtension></extensions></trkpt><trkpt lat="15.1571763866" lon="73.9230742771"><ele>1.10</ele><time>2023-12-12T01:36:49Z</time><extensions><gpxtpx:TrackPointExtension><gpxtpx:cad>0</gpxtpx:cad></gpxtpx:TrackPointExtension></extensions></trkpt><trkpt lat="15.1585179940" lon="73.9244909864"><ele>0.62</ele><time>2023-12-12T01:37:49Z</time><extensions><gpxtpx:TrackPointExtension><gpxtpx:cad>0</gpxtpx:cad></gpxtpx:TrackPointExtension></extensions></trkpt><trkpt lat="15.1599342003" lon="73.9257859904"><ele>1.58</ele><time>2023-12-12T01:38:49Z</time><extensions><gpxtpx:TrackPointExtension><gpxtpx:cad>0</gpxtpx:cad></gpxtpx:TrackPointExtension></extensions></trkpt><trkpt lat="15.1613864489" lon="73.9270537533"><ele>0.62</ele><time>2023-12-12T01:39:49Z</time><extensions><gpxtpx:TrackPointExtension><gpxtpx:cad>0</gpxtpx:cad></gpxtpx:TrackPointExtension></extensions></trkpt><trkpt lat="15.1627755817" lon="73.9283740707"><ele>0.14</ele><time>2023-12-12T01:40:49Z</time><extensions><gpxtpx:TrackPointExtension><gpxtpx:cad>0</gpxtpx:cad></gpxtpx:TrackPointExtension></extensions></trkpt><trkpt lat="15.1642272435" lon="73.9296355471"><ele>1.10</ele><time>2023-12-12T01:41:49Z</time><extensions><gpxtpx:TrackPointExtension><gpxtpx:cad>0</gpxtpx:cad></gpxtpx:TrackPointExtension></extensions></trkpt><trkpt lat="15.1657576114" lon="73.9308044035"><ele>1.58</ele><time>2023-12-12T01:42:49Z</time><extensions><gpxtpx:TrackPointExtension><gpxtpx:cad>0</gpxtpx:cad></gpxtpx:TrackPointExtension></extensions></trkpt><trkpt lat="15.1673786715" lon="73.9318120759"><ele>0.14</ele><time>2023-12-12T01:43:49Z</time><extensions><gpxtpx:TrackPointExtension><gpxtpx:cad>0</gpxtpx:cad></gpxtpx:TrackPointExtension></extensions></trkpt><trkpt lat="15.1689759269" lon="73.9328730572"><ele>1.58</ele><time>2023-12-12T01:44:49Z</time><extensions><gpxtpx:TrackPointExtension><gpxtpx:cad>0</gpxtpx:cad></gpxtpx:TrackPointExtension></extensions></trkpt><trkpt lat="15.1706683170" lon="73.9337513968"><ele>-0.82</ele><time>2023-12-12T01:45:49Z</time><extensions><gpxtpx:TrackPointExtension><gpxtpx:cad>0</gpxtpx:cad></gpxtpx:TrackPointExtension></extensions></trkpt><trkpt lat="15.1722747926" lon="73.9347688761"><ele>0.62</ele><time>2023-12-12T01:46:49Z</time><extensions><gpxtpx:TrackPointExtension><gpxtpx:cad>0</gpxtpx:cad></gpxtpx:TrackPointExtension></extensions></trkpt><trkpt lat="15.1737220120" lon="73.9360140916"><ele>1.58</ele><time>2023-12-12T01:47:49Z</time><extensions><gpxtpx:TrackPointExtension><gpxtpx:cad>0</gpxtpx:cad></gpxtpx:TrackPointExtension></extensions></trkpt><trkpt lat="15.1752443332" lon="73.9371854626"><ele>1.58</ele><time>2023-12-12T01:48:49Z</time><extensions><gpxtpx:TrackPointExtension><gpxtpx:cad>0</gpxtpx:cad></gpxtpx:TrackPointExtension></extensions></trkpt><trkpt lat="15.1768328715" lon="73.9374038111"><ele>1.10</ele><time>2023-12-12T01:49:49Z</time><extensions><gpxtpx:TrackPointExtension><gpxtpx:cad>0</gpxtpx:cad></gpxtpx:TrackPointExtension></extensions></trkpt><trkpt lat="15.1776499394" lon="73.9355991036"><ele>0.62</ele><time>2023-12-12T01:50:49Z</time><extensions><gpxtpx:TrackPointExtension><gpxtpx:cad>0</gpxtpx:cad></gpxtpx:TrackPointExtension></extensions></trkpt><trkpt lat="15.1784843579" lon="73.9338230621"><ele>0.14</ele><time>2023-12-12T01:51:49Z</time><extensions><gpxtpx:TrackPointExtension><gpxtpx:cad>0</gpxtpx:cad></gpxtpx:TrackPointExtension></extensions></trkpt><trkpt lat="15.1795697305" lon="73.9321892615"><ele>0.62</ele><time>2023-12-12T01:52:49Z</time><extensions><gpxtpx:TrackPointExtension><gpxtpx:cad>0</gpxtpx:cad></gpxtpx:TrackPointExtension></extensions></trkpt><trkpt lat="15.1807679236" lon="73.9306546189"><ele>0.14</ele><time>2023-12-12T01:53:49Z</time><extensions><gpxtpx:TrackPointExtension><gpxtpx:cad>0</gpxtpx:cad></gpxtpx:TrackPointExtension></extensions></trkpt><trkpt lat="15.1818944514" lon="73.9290695172"><ele>0.62</ele><time>2023-12-12T01:54:49Z</time><extensions><gpxtpx:TrackPointExtension><gpxtpx:cad>0</gpxtpx:cad></gpxtpx:TrackPointExtension></extensions></trkpt><trkpt lat="15.1830172911" lon="73.9274575096"><ele>0.62</ele><time>2023-12-12T01:55:49Z</time><extensions><gpxtpx:TrackPointExtension><gpxtpx:cad>0</gpxtpx:cad></gpxtpx:TrackPointExtension></extensions></trkpt><trkpt lat="15.1840846427" lon="73.9258022513"><ele>-0.34</ele><time>2023-12-12T01:56:49Z</time><extensions><gpxtpx:TrackPointExtension><gpxtpx:cad>0</gpxtpx:cad></gpxtpx:TrackPointExtension></extensions></trkpt><trkpt lat="15.1851204783" lon="73.9241464902"><ele>0.14</ele><time>2023-12-12T01:57:49Z</time><extensions><gpxtpx:TrackPointExtension><gpxtpx:cad>0</gpxtpx:cad></gpxtpx:TrackPointExtension></extensions></trkpt><trkpt lat="15.1859181840" lon="73.9223404415"><ele>0.14</ele><time>2023-12-12T01:58:49Z</time><extensions><gpxtpx:TrackPointExtension><gpxtpx:cad>0</gpxtpx:cad></gpxtpx:TrackPointExtension></extensions></trkpt><trkpt lat="15.1870411914" lon="73.9207049645"><ele>-0.82</ele><time>2023-12-12T01:59:49Z</time><extensions><gpxtpx:TrackPointExtension><gpxtpx:cad>0</gpxtpx:cad></gpxtpx:TrackPointExtension></extensions></trkpt><trkpt lat="15.1880910248" lon="73.9190124907"><ele>-0.82</ele><time>2023-12-12T02:00:49Z</time><extensions><gpxtpx:TrackPointExtension><gpxtpx:cad>0</gpxtpx:cad></gpxtpx:TrackPointExtension></extensions></trkpt><trkpt lat="15.1890947577" lon="73.9172834717"><ele>-0.34</ele><time>2023-12-12T02:01:49Z</time><extensions><gpxtpx:TrackPointExtension><gpxtpx:cad>0</gpxtpx:cad></gpxtpx:TrackPointExtension></extensions></trkpt><trkpt lat="15.1899234764" lon="73.9154940192"><ele>0.62</ele><time>2023-12-12T02:02:49Z</time><extensions><gpxtpx:TrackPointExtension><gpxtpx:cad>0</gpxtpx:cad></gpxtpx:TrackPointExtension></extensions></trkpt><trkpt lat="15.1905171666" lon="73.9135696180"><ele>0.62</ele><time>2023-12-12T02:03:49Z</time><extensions><gpxtpx:TrackPointExtension><gpxtpx:cad>0</gpxtpx:cad></gpxtpx:TrackPointExtension></extensions></trkpt><trkpt lat="15.1911231782" lon="73.9116424508"><ele>1.10</ele><time>2023-12-12T02:04:49Z</time><extensions><gpxtpx:TrackPointExtension><gpxtpx:cad>0</gpxtpx:cad></gpxtpx:TrackPointExtension></extensions></trkpt><trkpt lat="15.1916057244" lon="73.9096653275"><ele>0.62</ele><time>2023-12-12T02:05:49Z</time><extensions><gpxtpx:TrackPointExtension><gpxtpx:cad>0</gpxtpx:cad></gpxtpx:TrackPointExtension></extensions></trkpt><trkpt lat="15.1924092975" lon="73.9078643080"><ele>0.14</ele><time>2023-12-12T02:06:49Z</time><extensions><gpxtpx:TrackPointExtension><gpxtpx:cad>0</gpxtpx:cad></gpxtpx:TrackPointExtension></extensions></trkpt><trkpt lat="15.1937789004" lon="73.9090052526"><ele>3.98</ele><time>2023-12-12T02:07:49Z</time><extensions><gpxtpx:TrackPointExtension><gpxtpx:cad>0</gpxtpx:cad></gpxtpx:TrackPointExtension></extensions></trkpt><trkpt lat="15.1952914987" lon="73.9101575129"><ele>2.06</ele><time>2023-12-12T02:08:49Z</time><extensions><gpxtpx:TrackPointExtension><gpxtpx:cad>0</gpxtpx:cad></gpxtpx:TrackPointExtension></extensions></trkpt><trkpt lat="15.1968417317" lon="73.9112880640"><ele>2.06</ele><time>2023-12-12T02:09:49Z</time><extensions><gpxtpx:TrackPointExtension><gpxtpx:cad>0</gpxtpx:cad></gpxtpx:TrackPointExtension></extensions></trkpt><trkpt lat="15.1983722672" lon="73.9124604408"><ele>2.54</ele><time>2023-12-12T02:10:49Z</time><extensions><gpxtpx:TrackPointExtension><gpxtpx:cad>0</gpxtpx:cad></gpxtpx:TrackPointExtension></extensions></trkpt><trkpt lat="15.1998249348" lon="73.9136650879"><ele>2.54</ele><time>2023-12-12T02:11:49Z</time><extensions><gpxtpx:TrackPointExtension><gpxtpx:cad>0</gpxtpx:cad></gpxtpx:TrackPointExtension></extensions></trkpt><trkpt lat="15.2013125550" lon="73.9148665499"><ele>2.06</ele><time>2023-12-12T02:12:49Z</time><extensions><gpxtpx:TrackPointExtension><gpxtpx:cad>0</gpxtpx:cad></gpxtpx:TrackPointExtension></extensions></trkpt><trkpt lat="15.2028683200" lon="73.9159709495"><ele>1.58</ele><time>2023-12-12T02:13:49Z</time><extensions><gpxtpx:TrackPointExtension><gpxtpx:cad>0</gpxtpx:cad></gpxtpx:TrackPointExtension></extensions></trkpt><trkpt lat="15.2044340596" lon="73.9170685597"><ele>1.10</ele><time>2023-12-12T02:14:49Z</time><extensions><gpxtpx:TrackPointExtension><gpxtpx:cad>0</gpxtpx:cad></gpxtpx:TrackPointExtension></extensions></trkpt><trkpt lat="15.2060634177" lon="73.9180399384"><ele>1.58</ele><time>2023-12-12T02:15:49Z</time><extensions><gpxtpx:TrackPointExtension><gpxtpx:cad>0</gpxtpx:cad></gpxtpx:TrackPointExtension></extensions></trkpt><trkpt lat="15.2072957251" lon="73.9195274748"><ele>2.06</ele><time>2023-12-12T02:16:49Z</time><extensions><gpxtpx:TrackPointExtension><gpxtpx:cad>0</gpxtpx:cad></gpxtpx:TrackPointExtension></extensions></trkpt><trkpt lat="15.2086658310" lon="73.9208358899"><ele>1.58</ele><time>2023-12-12T02:17:49Z</time><extensions><gpxtpx:TrackPointExtension><gpxtpx:cad>0</gpxtpx:cad></gpxtpx:TrackPointExtension></extensions></trkpt><trkpt lat="15.2102670260" lon="73.9218493458"><ele>2.54</ele><time>2023-12-12T02:18:49Z</time><extensions><gpxtpx:TrackPointExtension><gpxtpx:cad>0</gpxtpx:cad></gpxtpx:TrackPointExtension></extensions></trkpt><trkpt lat="15.2118257247" lon="73.9228906296"><ele>1.58</ele><time>2023-12-12T02:19:49Z</time><extensions><gpxtpx:TrackPointExtension><gpxtpx:cad>0</gpxtpx:cad></gpxtpx:TrackPointExtension></extensions></trkpt><trkpt lat="15.2134366427" lon="73.9238763414"><ele>2.06</ele><time>2023-12-12T02:20:49Z</time><extensions><gpxtpx:TrackPointExtension><gpxtpx:cad>0</gpxtpx:cad></gpxtpx:TrackPointExtension></extensions></trkpt><trkpt lat="15.2151281107" lon="73.9246673416"><ele>1.58</ele><time>2023-12-12T02:21:49Z</time><extensions><gpxtpx:TrackPointExtension><gpxtpx:cad>0</gpxtpx:cad></gpxtpx:TrackPointExtension></extensions></trkpt><trkpt lat="15.2167726401" lon="73.9255921170"><ele>2.54</ele><time>2023-12-12T02:22:49Z</time><extensions><gpxtpx:TrackPointExtension><gpxtpx:cad>0</gpxtpx:cad></gpxtpx:TrackPointExtension></extensions></trkpt><trkpt lat="15.2185617574" lon="73.9261303190"><ele>2.54</ele><time>2023-12-12T02:23:49Z</time><extensions><gpxtpx:TrackPointExtension><gpxtpx:cad>0</gpxtpx:cad></gpxtpx:TrackPointExtension></extensions></trkpt><trkpt lat="15.2203976456" lon="73.9264866337"><ele>1.10</ele><time>2023-12-12T02:24:49Z</time><extensions><gpxtpx:TrackPointExtension><gpxtpx:cad>0</gpxtpx:cad></gpxtpx:TrackPointExtension></extensions></trkpt><trkpt lat="15.2222776227" lon="73.9265838638"><ele>3.02</ele><time>2023-12-12T02:25:49Z</time><extensions><gpxtpx:TrackPointExtension><gpxtpx:cad>0</gpxtpx:cad></gpxtpx:TrackPointExtension></extensions></trkpt><trkpt lat="15.2232209221" lon="73.9249145240"><ele>2.54</ele><time>2023-12-12T02:26:49Z</time><extensions><gpxtpx:TrackPointExtension><gpxtpx:cad>0</gpxtpx:cad></gpxtpx:TrackPointExtension></extensions></trkpt><trkpt lat="15.2239628043" lon="73.9231055416"><ele>3.02</ele><time>2023-12-12T02:27:49Z</time><extensions><gpxtpx:TrackPointExtension><gpxtpx:cad>0</gpxtpx:cad></gpxtpx:TrackPointExtension></extensions></trkpt><trkpt lat="15.2246800438" lon="73.9213020075"><ele>1.58</ele><time>2023-12-12T02:28:49Z</time><extensions><gpxtpx:TrackPointExtension><gpxtpx:cad>0</gpxtpx:cad></gpxtpx:TrackPointExtension></extensions></trkpt><trkpt lat="15.2256885543" lon="73.9196587354"><ele>2.06</ele><time>2023-12-12T02:29:49Z</time><extensions><gpxtpx:TrackPointExtension><gpxtpx:cad>0</gpxtpx:cad></gpxtpx:TrackPointExtension></extensions></trkpt><trkpt lat="15.2270167507" lon="73.9182852767"><ele>-0.82</ele><time>2023-12-12T02:30:49Z</time><extensions><gpxtpx:TrackPointExtension><gpxtpx:cad>0</gpxtpx:cad></gpxtpx:TrackPointExtension></extensions></trkpt><trkpt lat="15.2280924842" lon="73.9167119935"><ele>2.54</ele><time>2023-12-12T02:31:49Z</time><extensions><gpxtpx:TrackPointExtension><gpxtpx:cad>0</gpxtpx:cad></gpxtpx:TrackPointExtension></extensions></trkpt><trkpt lat="15.2289926168" lon="73.9150232915"><ele>1.10</ele><time>2023-12-12T02:32:49Z</time><extensions><gpxtpx:TrackPointExtension><gpxtpx:cad>0</gpxtpx:cad></gpxtpx:TrackPointExtension></extensions></trkpt><trkpt lat="15.2297957707" lon="73.9132674504"><ele>1.10</ele><time>2023-12-12T02:33:49Z</time><extensions><gpxtpx:TrackPointExtension><gpxtpx:cad>0</gpxtpx:cad></gpxtpx:TrackPointExtension></extensions></trkpt><trkpt lat="15.2308662236" lon="73.9117036387"><ele>1.58</ele><time>2023-12-12T02:34:49Z</time><extensions><gpxtpx:TrackPointExtension><gpxtpx:cad>0</gpxtpx:cad></gpxtpx:TrackPointExtension></extensions></trkpt><trkpt lat="15.2322101779" lon="73.9103442617"><ele>1.10</ele><time>2023-12-12T02:35:49Z</time><extensions><gpxtpx:TrackPointExtension><gpxtpx:cad>0</gpxtpx:cad></gpxtpx:TrackPointExtension></extensions></trkpt><trkpt lat="15.2332267351" lon="73.9086874947"><ele>0.62</ele><time>2023-12-12T02:36:49Z</time><extensions><gpxtpx:TrackPointExtension><gpxtpx:cad>0</gpxtpx:cad></gpxtpx:TrackPointExtension></extensions></trkpt><trkpt lat="15.2342580445" lon="73.9070588071"><ele>1.10</ele><time>2023-12-12T02:37:49Z</time><extensions><gpxtpx:TrackPointExtension><gpxtpx:cad>0</gpxtpx:cad></gpxtpx:TrackPointExtension></extensions></trkpt><trkpt lat="15.2352339495" lon="73.9053922333"><ele>0.62</ele><time>2023-12-12T02:38:49Z</time><extensions><gpxtpx:TrackPointExtension><gpxtpx:cad>0</gpxtpx:cad></gpxtpx:TrackPointExtension></extensions></trkpt><trkpt lat="15.2358635142" lon="73.9035758749"><ele>1.10</ele><time>2023-12-12T02:39:49Z</time><extensions><gpxtpx:TrackPointExtension><gpxtpx:cad>0</gpxtpx:cad></gpxtpx:TrackPointExtension></extensions></trkpt><trkpt lat="15.2367124334" lon="73.9018253144"><ele>1.10</ele><time>2023-12-12T02:40:49Z</time><extensions><gpxtpx:TrackPointExtension><gpxtpx:cad>0</gpxtpx:cad></gpxtpx:TrackPointExtension></extensions></trkpt><trkpt lat="15.2375095524" lon="73.9000600856"><ele>1.58</ele><time>2023-12-12T02:41:49Z</time><extensions><gpxtpx:TrackPointExtension><gpxtpx:cad>0</gpxtpx:cad></gpxtpx:TrackPointExtension></extensions></trkpt><trkpt lat="15.2382938471" lon="73.8982977904"><ele>2.06</ele><time>2023-12-12T02:42:49Z</time><extensions><gpxtpx:TrackPointExtension><gpxtpx:cad>0</gpxtpx:cad></gpxtpx:TrackPointExtension></extensions></trkpt><trkpt lat="15.2393718436" lon="73.8967359904"><ele>0.62</ele><time>2023-12-12T02:43:49Z</time><extensions><gpxtpx:TrackPointExtension><gpxtpx:cad>0</gpxtpx:cad></gpxtpx:TrackPointExtension></extensions></trkpt><trkpt lat="15.2403042465" lon="73.8950422592"><ele>2.06</ele><time>2023-12-12T02:44:49Z</time><extensions><gpxtpx:TrackPointExtension><gpxtpx:cad>0</gpxtpx:cad></gpxtpx:TrackPointExtension></extensions></trkpt><trkpt lat="15.2414874360" lon="73.8947043009"><ele>3.02</ele><time>2023-12-12T02:45:49Z</time><extensions><gpxtpx:TrackPointExtension><gpxtpx:cad>0</gpxtpx:cad></gpxtpx:TrackPointExtension></extensions></trkpt><trkpt lat="15.2429191489" lon="73.8960102852"><ele>4.46</ele><time>2023-12-12T02:46:49Z</time><extensions><gpxtpx:TrackPointExtension><gpxtpx:cad>0</gpxtpx:cad></gpxtpx:TrackPointExtension></extensions></trkpt><trkpt lat="15.2444646042" lon="73.8971860148"><ele>3.98</ele><time>2023-12-12T02:47:49Z</time><extensions><gpxtpx:TrackPointExtension><gpxtpx:cad>0</gpxtpx:cad></gpxtpx:TrackPointExtension></extensions></trkpt><trkpt lat="15.2460331935" lon="73.8982961141"><ele>2.54</ele><time>2023-12-12T02:48:49Z</time><extensions><gpxtpx:TrackPointExtension><gpxtpx:cad>0</gpxtpx:cad></gpxtpx:TrackPointExtension></extensions></trkpt><trkpt lat="15.2473947499" lon="73.8996344525"><ele>1.10</ele><time>2023-12-12T02:49:49Z</time><extensions><gpxtpx:TrackPointExtension><gpxtpx:cad>0</gpxtpx:cad></gpxtpx:TrackPointExtension></extensions></trkpt><trkpt lat="15.2487270534" lon="73.9010058995"><ele>3.98</ele><time>2023-12-12T02:50:49Z</time><extensions><gpxtpx:TrackPointExtension><gpxtpx:cad>0</gpxtpx:cad></gpxtpx:TrackPointExtension></extensions></trkpt><trkpt lat="15.2504113130" lon="73.9019450080"><ele>3.98</ele><time>2023-12-12T02:51:49Z</time><extensions><gpxtpx:TrackPointExtension><gpxtpx:cad>0</gpxtpx:cad></gpxtpx:TrackPointExtension></extensions></trkpt><trkpt lat="15.2521851752" lon="73.9026542008"><ele>3.50</ele><time>2023-12-12T02:52:49Z</time><extensions><gpxtpx:TrackPointExtension><gpxtpx:cad>0</gpxtpx:cad></gpxtpx:TrackPointExtension></extensions></trkpt><trkpt lat="15.2537128609" lon="73.9037520625"><ele>3.98</ele><time>2023-12-12T02:53:49Z</time><extensions><gpxtpx:TrackPointExtension><gpxtpx:cad>0</gpxtpx:cad></gpxtpx:TrackPointExtension></extensions></trkpt><trkpt lat="15.2549577411" lon="73.9052542672"><ele>4.46</ele><time>2023-12-12T02:54:49Z</time><extensions><gpxtpx:TrackPointExtension><gpxtpx:cad>0</gpxtpx:cad></gpxtpx:TrackPointExtension></extensions></trkpt><trkpt lat="15.2564163599" lon="73.9065196831"><ele>4.46</ele><time>2023-12-12T02:55:49Z</time><extensions><gpxtpx:TrackPointExtension><gpxtpx:cad>0</gpxtpx:cad></gpxtpx:TrackPointExtension></extensions></trkpt><trkpt lat="15.2580297925" lon="73.9075468015"><ele>3.98</ele><time>2023-12-12T02:56:49Z</time><extensions><gpxtpx:TrackPointExtension><gpxtpx:cad>0</gpxtpx:cad></gpxtpx:TrackPointExtension></extensions></trkpt><trkpt lat="15.2594733238" lon="73.9087332599"><ele>3.98</ele><time>2023-12-12T02:57:49Z</time><extensions><gpxtpx:TrackPointExtension><gpxtpx:cad>0</gpxtpx:cad></gpxtpx:TrackPointExtension></extensions></trkpt><trkpt lat="15.2607082296" lon="73.9102608617"><ele>4.46</ele><time>2023-12-12T02:58:49Z</time><extensions><gpxtpx:TrackPointExtension><gpxtpx:cad>0</gpxtpx:cad></gpxtpx:TrackPointExtension></extensions></trkpt><trkpt lat="15.2620880585" lon="73.9116050676"><ele>3.98</ele><time>2023-12-12T02:59:49Z</time><extensions><gpxtpx:TrackPointExtension><gpxtpx:cad>0</gpxtpx:cad></gpxtpx:TrackPointExtension></extensions></trkpt><trkpt lat="15.2635786962" lon="73.9128255565"><ele>3.98</ele><time>2023-12-12T03:00:49Z</time><extensions><gpxtpx:TrackPointExtension><gpxtpx:cad>0</gpxtpx:cad></gpxtpx:TrackPointExtension></extensions></trkpt><trkpt lat="15.2652127482" lon="73.9138561115"><ele>3.98</ele><time>2023-12-12T03:01:49Z</time><extensions><gpxtpx:TrackPointExtension><gpxtpx:cad>0</gpxtpx:cad></gpxtpx:TrackPointExtension></extensions></trkpt><trkpt lat="15.2665075846" lon="73.9131527022"><ele>1.10</ele><time>2023-12-12T03:02:49Z</time><extensions><gpxtpx:TrackPointExtension><gpxtpx:cad>0</gpxtpx:cad></gpxtpx:TrackPointExtension></extensions></trkpt><trkpt lat="15.2676055301" lon="73.9115411974"><ele>1.58</ele><time>2023-12-12T03:03:49Z</time><extensions><gpxtpx:TrackPointExtension><gpxtpx:cad>0</gpxtpx:cad></gpxtpx:TrackPointExtension></extensions></trkpt><trkpt lat="15.2688242588" lon="73.9100109972"><ele>0.62</ele><time>2023-12-12T03:04:49Z</time><extensions><gpxtpx:TrackPointExtension><gpxtpx:cad>0</gpxtpx:cad></gpxtpx:TrackPointExtension></extensions></trkpt><trkpt lat="15.2700533811" lon="73.9084818866"><ele>2.06</ele><time>2023-12-12T03:05:49Z</time><extensions><gpxtpx:TrackPointExtension><gpxtpx:cad>0</gpxtpx:cad></gpxtpx:TrackPointExtension></extensions></trkpt><trkpt lat="15.2712686732" lon="73.9069467410"><ele>1.58</ele><time>2023-12-12T03:06:49Z</time><extensions><gpxtpx:TrackPointExtension><gpxtpx:cad>0</gpxtpx:cad></gpxtpx:TrackPointExtension></extensions></trkpt><trkpt lat="15.2725003939" lon="73.9054032974"><ele>1.58</ele><time>2023-12-12T03:07:49Z</time><extensions><gpxtpx:TrackPointExtension><gpxtpx:cad>0</gpxtpx:cad></gpxtpx:TrackPointExtension></extensions></trkpt><trkpt lat="15.2738604415" lon="73.9039797150"><ele>1.58</ele><time>2023-12-12T03:08:49Z</time><extensions><gpxtpx:TrackPointExtension><gpxtpx:cad>0</gpxtpx:cad></gpxtpx:TrackPointExtension></extensions></trkpt><trkpt lat="15.2752697747" lon="73.9026261214"><ele>2.06</ele><time>2023-12-12T03:09:49Z</time><extensions><gpxtpx:TrackPointExtension><gpxtpx:cad>0</gpxtpx:cad></gpxtpx:TrackPointExtension></extensions></trkpt><trkpt lat="15.2764071990" lon="73.9010457136"><ele>2.06</ele><time>2023-12-12T03:10:49Z</time><extensions><gpxtpx:TrackPointExtension><gpxtpx:cad>0</gpxtpx:cad></gpxtpx:TrackPointExtension></extensions></trkpt><trkpt lat="15.2774177212" lon="73.8993513957"><ele>2.06</ele><time>2023-12-12T03:11:49Z</time><extensions><gpxtpx:TrackPointExtension><gpxtpx:cad>0</gpxtpx:cad></gpxtpx:TrackPointExtension></extensions></trkpt><trkpt lat="15.2782090567" lon="73.8975441735"><ele>1.58</ele><time>2023-12-12T03:12:49Z</time><extensions><gpxtpx:TrackPointExtension><gpxtpx:cad>0</gpxtpx:cad></gpxtpx:TrackPointExtension></extensions></trkpt><trkpt lat="15.2792931721" lon="73.8958886638"><ele>1.58</ele><time>2023-12-12T03:13:49Z</time><extensions><gpxtpx:TrackPointExtension><gpxtpx:cad>0</gpxtpx:cad></gpxtpx:TrackPointExtension></extensions></trkpt><trkpt lat="15.2805189416" lon="73.8943218347"><ele>2.54</ele><time>2023-12-12T03:14:49Z</time><extensions><gpxtpx:TrackPointExtension><gpxtpx:cad>0</gpxtpx:cad></gpxtpx:TrackPointExtension></extensions></trkpt><trkpt lat="15.2816538513" lon="73.8926991820"><ele>2.06</ele><time>2023-12-12T03:15:49Z</time><extensions><gpxtpx:TrackPointExtension><gpxtpx:cad>0</gpxtpx:cad></gpxtpx:TrackPointExtension></extensions></trkpt><trkpt lat="15.2823833283" lon="73.8908526488"><ele>0.14</ele><time>2023-12-12T03:16:49Z</time><extensions><gpxtpx:TrackPointExtension><gpxtpx:cad>0</gpxtpx:cad></gpxtpx:TrackPointExtension></extensions></trkpt><trkpt lat="15.2835838683" lon="73.8892728277"><ele>1.58</ele><time>2023-12-12T03:17:49Z</time><extensions><gpxtpx:TrackPointExtension><gpxtpx:cad>0</gpxtpx:cad></gpxtpx:TrackPointExtension></extensions></trkpt><trkpt lat="15.2848804649" lon="73.8877786696"><ele>2.06</ele><time>2023-12-12T03:18:49Z</time><extensions><gpxtpx:TrackPointExtension><gpxtpx:cad>0</gpxtpx:cad></gpxtpx:TrackPointExtension></extensions></trkpt><trkpt lat="15.2861328050" lon="73.8862290233"><ele>-0.34</ele><time>2023-12-12T03:19:49Z</time><extensions><gpxtpx:TrackPointExtension><gpxtpx:cad>0</gpxtpx:cad></gpxtpx:TrackPointExtension></extensions></trkpt><trkpt lat="15.2874120511" lon="73.8847051095"><ele>0.62</ele><time>2023-12-12T03:20:49Z</time><extensions><gpxtpx:TrackPointExtension><gpxtpx:cad>0</gpxtpx:cad></gpxtpx:TrackPointExtension></extensions></trkpt><trkpt lat="15.2888059616" lon="73.8850528747"><ele>3.02</ele><time>2023-12-12T03:21:49Z</time><extensions><gpxtpx:TrackPointExtension><gpxtpx:cad>0</gpxtpx:cad></gpxtpx:TrackPointExtension></extensions></trkpt><trkpt lat="15.2902883012" lon="73.8863620441"><ele>1.58</ele><time>2023-12-12T03:22:49Z</time><extensions><gpxtpx:TrackPointExtension><gpxtpx:cad>0</gpxtpx:cad></gpxtpx:TrackPointExtension></extensions></trkpt><trkpt lat="15.2919874806" lon="73.8873681240"><ele>2.06</ele><time>2023-12-12T03:23:49Z</time><extensions><gpxtpx:TrackPointExtension><gpxtpx:cad>0</gpxtpx:cad></gpxtpx:TrackPointExtension></extensions></trkpt><trkpt lat="15.2935778629" lon="73.8885254133"><ele>2.06</ele><time>2023-12-12T03:24:49Z</time><extensions><gpxtpx:TrackPointExtension><gpxtpx:cad>0</gpxtpx:cad></gpxtpx:TrackPointExtension></extensions></trkpt><trkpt lat="15.2951994259" lon="73.8896394521"><ele>2.06</ele><time>2023-12-12T03:25:49Z</time><extensions><gpxtpx:TrackPointExtension><gpxtpx:cad>0</gpxtpx:cad></gpxtpx:TrackPointExtension></extensions></trkpt><trkpt lat="15.2968963422" lon="73.8906184584"><ele>2.54</ele><time>2023-12-12T03:26:49Z</time><extensions><gpxtpx:TrackPointExtension><gpxtpx:cad>0</gpxtpx:cad></gpxtpx:TrackPointExtension></extensions></trkpt><trkpt lat="15.2985467389" lon="73.8916343451"><ele>2.54</ele><time>2023-12-12T03:27:49Z</time><extensions><gpxtpx:TrackPointExtension><gpxtpx:cad>0</gpxtpx:cad></gpxtpx:TrackPointExtension></extensions></trkpt><trkpt lat="15.3001387138" lon="73.8927783910"><ele>2.06</ele><time>2023-12-12T03:28:49Z</time><extensions><gpxtpx:TrackPointExtension><gpxtpx:cad>0</gpxtpx:cad></gpxtpx:TrackPointExtension></extensions></trkpt><trkpt lat="15.3016987536" lon="73.8939451519"><ele>1.58</ele><time>2023-12-12T03:29:49Z</time><extensions><gpxtpx:TrackPointExtension><gpxtpx:cad>0</gpxtpx:cad></gpxtpx:TrackPointExtension></extensions></trkpt><trkpt lat="15.3033299558" lon="73.8949830830"><ele>2.06</ele><time>2023-12-12T03:30:49Z</time><extensions><gpxtpx:TrackPointExtension><gpxtpx:cad>0</gpxtpx:cad></gpxtpx:TrackPointExtension></extensions></trkpt><trkpt lat="15.3050544485" lon="73.8958920166"><ele>3.02</ele><time>2023-12-12T03:31:49Z</time><extensions><gpxtpx:TrackPointExtension><gpxtpx:cad>0</gpxtpx:cad></gpxtpx:TrackPointExtension></extensions></trkpt><trkpt lat="15.3065996524" lon="73.8970566820"><ele>2.06</ele><time>2023-12-12T03:32:49Z</time><extensions><gpxtpx:TrackPointExtension><gpxtpx:cad>0</gpxtpx:cad></gpxtpx:TrackPointExtension></extensions></trkpt><trkpt lat="15.3082888573" lon="73.8978855684"><ele>-0.34</ele><time>2023-12-12T03:33:49Z</time><extensions><gpxtpx:TrackPointExtension><gpxtpx:cad>0</gpxtpx:cad></gpxtpx:TrackPointExtension></extensions></trkpt><trkpt lat="15.3101866040" lon="73.8980668690"><ele>1.10</ele><time>2023-12-12T03:34:49Z</time><extensions><gpxtpx:TrackPointExtension><gpxtpx:cad>0</gpxtpx:cad></gpxtpx:TrackPointExtension></extensions></trkpt><trkpt lat="15.3115024790" lon="73.8971208036"><ele>-0.34</ele><time>2023-12-12T03:35:49Z</time><extensions><gpxtpx:TrackPointExtension><gpxtpx:cad>0</gpxtpx:cad></gpxtpx:TrackPointExtension></extensions></trkpt><trkpt lat="15.3122164495" lon="73.8952474482"><ele>0.14</ele><time>2023-12-12T03:36:49Z</time><extensions><gpxtpx:TrackPointExtension><gpxtpx:cad>0</gpxtpx:cad></gpxtpx:TrackPointExtension></extensions></trkpt><trkpt lat="15.3131667897" lon="73.8934743404"><ele>1.58</ele><time>2023-12-12T03:37:49Z</time><extensions><gpxtpx:TrackPointExtension><gpxtpx:cad>0</gpxtpx:cad></gpxtpx:TrackPointExtension></extensions></trkpt><trkpt lat="15.3139584605" lon="73.8916298188"><ele>2.06</ele><time>2023-12-12T03:38:49Z</time><extensions><gpxtpx:TrackPointExtension><gpxtpx:cad>0</gpxtpx:cad></gpxtpx:TrackPointExtension></extensions></trkpt><trkpt lat="15.3147605248" lon="73.8897838723"><ele>2.54</ele><time>2023-12-12T03:39:49Z</time><extensions><gpxtpx:TrackPointExtension><gpxtpx:cad>0</gpxtpx:cad></gpxtpx:TrackPointExtension></extensions></trkpt><trkpt lat="15.3156572208" lon="73.8880063221"><ele>1.10</ele><time>2023-12-12T03:40:49Z</time><extensions><gpxtpx:TrackPointExtension><gpxtpx:cad>0</gpxtpx:cad></gpxtpx:TrackPointExtension></extensions></trkpt><trkpt lat="15.3162047267" lon="73.8867760263"><ele>0.62</ele><time>2023-12-12T03:41:49Z</time><extensions><gpxtpx:TrackPointExtension><gpxtpx:cad>0</gpxtpx:cad></gpxtpx:TrackPointExtension></extensions></trkpt><trkpt lat="15.3161266074" lon="73.8863568474"><ele>1.58</ele><time>2023-12-12T03:42:49Z</time><extensions><gpxtpx:TrackPointExtension><gpxtpx:cad>0</gpxtpx:cad></gpxtpx:TrackPointExtension></extensions></trkpt><trkpt lat="15.3156127967" lon="73.8864987530"><ele>1.58</ele><time>2023-12-12T03:43:49Z</time><extensions><gpxtpx:TrackPointExtension><gpxtpx:cad>0</gpxtpx:cad></gpxtpx:TrackPointExtension></extensions></trkpt><trkpt lat="15.3150269855" lon="73.8865177799"><ele>0.14</ele><time>2023-12-12T03:44:49Z</time><extensions><gpxtpx:TrackPointExtension><gpxtpx:cad>0</gpxtpx:cad></gpxtpx:TrackPointExtension></extensions></trkpt><trkpt lat="15.3148206230" lon="73.8858637400"><ele>0.14</ele><time>2023-12-12T03:45:49Z</time><extensions><gpxtpx:TrackPointExtension><gpxtpx:cad>0</gpxtpx:cad></gpxtpx:TrackPointExtension></extensions></trkpt><trkpt lat="15.3149932902" lon="73.8852060121"><ele>0.62</ele><time>2023-12-12T03:46:49Z</time><extensions><gpxtpx:TrackPointExtension><gpxtpx:cad>0</gpxtpx:cad></gpxtpx:TrackPointExtension></extensions></trkpt><trkpt lat="15.3141444549" lon="73.8855659310"><ele>0.14</ele><time>2023-12-12T03:47:49Z</time><extensions><gpxtpx:TrackPointExtension><gpxtpx:cad>0</gpxtpx:cad></gpxtpx:TrackPointExtension></extensions></trkpt><trkpt lat="15.3141766414" lon="73.8848206121"><ele>-0.34</ele><time>2023-12-12T03:48:49Z</time><extensions><gpxtpx:TrackPointExtension><gpxtpx:cad>0</gpxtpx:cad></gpxtpx:TrackPointExtension></extensions></trkpt><trkpt lat="15.3142892104" lon="73.8841520716"><ele>-1.30</ele><time>2023-12-12T03:49:49Z</time><extensions><gpxtpx:TrackPointExtension><gpxtpx:cad>0</gpxtpx:cad></gpxtpx:TrackPointExtension></extensions></trkpt><trkpt lat="15.3138566203" lon="73.8838821743"><ele>0.14</ele><time>2023-12-12T03:50:49Z</time><extensions><gpxtpx:TrackPointExtension><gpxtpx:cad>0</gpxtpx:cad></gpxtpx:TrackPointExtension></extensions></trkpt><trkpt lat="15.3130296618" lon="73.8837175537"><ele>2.06</ele><time>2023-12-12T03:51:49Z</time><extensions><gpxtpx:TrackPointExtension><gpxtpx:cad>0</gpxtpx:cad></gpxtpx:TrackPointExtension></extensions></trkpt><trkpt lat="15.3132743295" lon="73.8828551397"><ele>1.10</ele><time>2023-12-12T03:52:49Z</time><extensions><gpxtpx:TrackPointExtension><gpxtpx:cad>0</gpxtpx:cad></gpxtpx:TrackPointExtension></extensions></trkpt><trkpt lat="15.3144752048" lon="73.8810582273"><ele>1.10</ele><time>2023-12-12T03:53:49Z</time><extensions><gpxtpx:TrackPointExtension><gpxtpx:cad>0</gpxtpx:cad></gpxtpx:TrackPointExtension></extensions></trkpt><trkpt lat="15.3157329094" lon="73.8793708663"><ele>2.06</ele><time>2023-12-12T03:54:49Z</time><extensions><gpxtpx:TrackPointExtension><gpxtpx:cad>0</gpxtpx:cad></gpxtpx:TrackPointExtension></extensions></trkpt><trkpt lat="15.3169337008" lon="73.8776267599"><ele>2.06</ele><time>2023-12-12T03:55:49Z</time><extensions><gpxtpx:TrackPointExtension><gpxtpx:cad>0</gpxtpx:cad></gpxtpx:TrackPointExtension></extensions></trkpt><trkpt lat="15.3182091750" lon="73.8759134989"><ele>2.54</ele><time>2023-12-12T03:56:49Z</time><extensions><gpxtpx:TrackPointExtension><gpxtpx:cad>0</gpxtpx:cad></gpxtpx:TrackPointExtension></extensions></trkpt><trkpt lat="15.3194824699" lon="73.8742276467"><ele>2.54</ele><time>2023-12-12T03:57:49Z</time><extensions><gpxtpx:TrackPointExtension><gpxtpx:cad>0</gpxtpx:cad></gpxtpx:TrackPointExtension></extensions></trkpt><trkpt lat="15.3207148612" lon="73.8724957779"><ele>2.54</ele><time>2023-12-12T03:58:49Z</time><extensions><gpxtpx:TrackPointExtension><gpxtpx:cad>0</gpxtpx:cad></gpxtpx:TrackPointExtension></extensions></trkpt><trkpt lat="15.3219357692" lon="73.8707604725"><ele>1.58</ele><time>2023-12-12T03:59:49Z</time><extensions><gpxtpx:TrackPointExtension><gpxtpx:cad>0</gpxtpx:cad></gpxtpx:TrackPointExtension></extensions></trkpt><trkpt lat="15.3231895342" lon="73.8690482173"><ele>1.10</ele><time>2023-12-12T04:00:49Z</time><extensions><gpxtpx:TrackPointExtension><gpxtpx:cad>0</gpxtpx:cad></gpxtpx:TrackPointExtension></extensions></trkpt><trkpt lat="15.3243929241" lon="73.8672680687"><ele>0.62</ele><time>2023-12-12T04:01:49Z</time><extensions><gpxtpx:TrackPointExtension><gpxtpx:cad>0</gpxtpx:cad></gpxtpx:TrackPointExtension></extensions></trkpt><trkpt lat="15.3257144149" lon="73.8656040095"><ele>1.58</ele><time>2023-12-12T04:02:49Z</time><extensions><gpxtpx:TrackPointExtension><gpxtpx:cad>0</gpxtpx:cad></gpxtpx:TrackPointExtension></extensions></trkpt><trkpt lat="15.3272716887" lon="73.8648353890"><ele>2.06</ele><time>2023-12-12T04:03:49Z</time><extensions><gpxtpx:TrackPointExtension><gpxtpx:cad>0</gpxtpx:cad></gpxtpx:TrackPointExtension></extensions></trkpt><trkpt lat="15.3290303797" lon="73.8657725696"><ele>4.94</ele><time>2023-12-12T04:04:49Z</time><extensions><gpxtpx:TrackPointExtension><gpxtpx:cad>0</gpxtpx:cad></gpxtpx:TrackPointExtension></extensions></trkpt><trkpt lat="15.3307579737" lon="73.8667840138"><ele>5.42</ele><time>2023-12-12T04:05:49Z</time><extensions><gpxtpx:TrackPointExtension><gpxtpx:cad>0</gpxtpx:cad></gpxtpx:TrackPointExtension></extensions></trkpt><trkpt lat="15.3324496094" lon="73.8678376190"><ele>4.94</ele><time>2023-12-12T04:06:49Z</time><extensions><gpxtpx:TrackPointExtension><gpxtpx:cad>0</gpxtpx:cad></gpxtpx:TrackPointExtension></extensions></trkpt><trkpt lat="15.3342606034" lon="73.8686489873"><ele>3.98</ele><time>2023-12-12T04:07:49Z</time><extensions><gpxtpx:TrackPointExtension><gpxtpx:cad>0</gpxtpx:cad></gpxtpx:TrackPointExtension></extensions></trkpt><trkpt lat="15.3361260798" lon="73.8693705015"><ele>3.98</ele><time>2023-12-12T04:08:49Z</time><extensions><gpxtpx:TrackPointExtension><gpxtpx:cad>0</gpxtpx:cad></gpxtpx:TrackPointExtension></extensions></trkpt><trkpt lat="15.3380213957" lon="73.8699759264"><ele>6.87</ele><time>2023-12-12T04:09:49Z</time><extensions><gpxtpx:TrackPointExtension><gpxtpx:cad>0</gpxtpx:cad></gpxtpx:TrackPointExtension></extensions></trkpt><trkpt lat="15.3398840223" lon="73.8706668466"><ele>6.87</ele><time>2023-12-12T04:10:49Z</time><extensions><gpxtpx:TrackPointExtension><gpxtpx:cad>0</gpxtpx:cad></gpxtpx:TrackPointExtension></extensions></trkpt><trkpt lat="15.3417193238" lon="73.8714568410"><ele>6.39</ele><time>2023-12-12T04:11:49Z</time><extensions><gpxtpx:TrackPointExtension><gpxtpx:cad>0</gpxtpx:cad></gpxtpx:TrackPointExtension></extensions></trkpt><trkpt lat="15.3435599059" lon="73.8721787743"><ele>5.42</ele><time>2023-12-12T04:12:49Z</time><extensions><gpxtpx:TrackPointExtension><gpxtpx:cad>0</gpxtpx:cad></gpxtpx:TrackPointExtension></extensions></trkpt><trkpt lat="15.3454902582" lon="73.8726666849"><ele>4.46</ele><time>2023-12-12T04:13:49Z</time><extensions><gpxtpx:TrackPointExtension><gpxtpx:cad>0</gpxtpx:cad></gpxtpx:TrackPointExtension></extensions></trkpt><trkpt lat="15.3474372067" lon="73.8730011228"><ele>4.94</ele><time>2023-12-12T04:14:49Z</time><extensions><gpxtpx:TrackPointExtension><gpxtpx:cad>0</gpxtpx:cad></gpxtpx:TrackPointExtension></extensions></trkpt><trkpt lat="15.3487497289" lon="73.8742565643"><ele>5.91</ele><time>2023-12-12T04:15:49Z</time><extensions><gpxtpx:TrackPointExtension><gpxtpx:cad>0</gpxtpx:cad></gpxtpx:TrackPointExtension></extensions></trkpt><trkpt lat="15.3501456510" lon="73.8754541706"><ele>5.91</ele><time>2023-12-12T04:16:49Z</time><extensions><gpxtpx:TrackPointExtension><gpxtpx:cad>0</gpxtpx:cad></gpxtpx:TrackPointExtension></extensions></trkpt><trkpt lat="15.3516863286" lon="73.8764803670"><ele>6.87</ele><time>2023-12-12T04:17:49Z</time><extensions><gpxtpx:TrackPointExtension><gpxtpx:cad>0</gpxtpx:cad></gpxtpx:TrackPointExtension></extensions></trkpt><trkpt lat="15.3532142658" lon="73.8774878718"><ele>6.39</ele><time>2023-12-12T04:18:49Z</time><extensions><gpxtpx:TrackPointExtension><gpxtpx:cad>0</gpxtpx:cad></gpxtpx:TrackPointExtension></extensions></trkpt><trkpt lat="15.3547755629" lon="73.8784760982"><ele>5.42</ele><time>2023-12-12T04:19:49Z</time><extensions><gpxtpx:TrackPointExtension><gpxtpx:cad>0</gpxtpx:cad></gpxtpx:TrackPointExtension></extensions></trkpt><trkpt lat="15.3565842938" lon="73.8787223585"><ele>5.42</ele><time>2023-12-12T04:20:49Z</time><extensions><gpxtpx:TrackPointExtension><gpxtpx:cad>0</gpxtpx:cad></gpxtpx:TrackPointExtension></extensions></trkpt><trkpt lat="15.3583454993" lon="73.8780801371"><ele>6.87</ele><time>2023-12-12T04:21:49Z</time><extensions><gpxtpx:TrackPointExtension><gpxtpx:cad>0</gpxtpx:cad></gpxtpx:TrackPointExtension></extensions></trkpt><trkpt lat="15.3585503530" lon="73.8761889283"><ele>5.42</ele><time>2023-12-12T04:22:49Z</time><extensions><gpxtpx:TrackPointExtension><gpxtpx:cad>0</gpxtpx:cad></gpxtpx:TrackPointExtension></extensions></trkpt><trkpt lat="15.3587052505" lon="73.8742283173"><ele>2.06</ele><time>2023-12-12T04:23:49Z</time><extensions><gpxtpx:TrackPointExtension><gpxtpx:cad>0</gpxtpx:cad></gpxtpx:TrackPointExtension></extensions></trkpt><trkpt lat="15.3588585556" lon="73.8722996414"><ele>3.50</ele><time>2023-12-12T04:24:49Z</time><extensions><gpxtpx:TrackPointExtension><gpxtpx:cad>0</gpxtpx:cad></gpxtpx:TrackPointExtension></extensions></trkpt><trkpt lat="15.3587852139" lon="73.8715837430"><ele>3.98</ele><time>2023-12-12T04:25:49Z</time><extensions><gpxtpx:TrackPointExtension><gpxtpx:cad>0</gpxtpx:cad></gpxtpx:TrackPointExtension></extensions></trkpt><trkpt lat="15.3588384390" lon="73.8712876104"><ele>6.39</ele><time>2023-12-12T04:26:49Z</time><extensions><gpxtpx:TrackPointExtension><gpxtpx:cad>0</gpxtpx:cad></gpxtpx:TrackPointExtension></extensions></trkpt><trkpt lat="15.3588313144" lon="73.8712050486"><ele>0.14</ele><time>2023-12-12T04:27:49Z</time><extensions><gpxtpx:TrackPointExtension><gpxtpx:cad>0</gpxtpx:cad></gpxtpx:TrackPointExtension></extensions></trkpt><trkpt lat="15.3587567154" lon="73.8709373306"><ele>0.62</ele><time>2023-12-12T04:28:49Z</time><extensions><gpxtpx:TrackPointExtension><gpxtpx:cad>0</gpxtpx:cad></gpxtpx:TrackPointExtension></extensions></trkpt><trkpt lat="15.3587299772" lon="73.8708456326"><ele>1.10</ele><time>2023-12-12T04:29:49Z</time><extensions><gpxtpx:TrackPointExtension><gpxtpx:cad>0</gpxtpx:cad></gpxtpx:TrackPointExtension></extensions></trkpt><trkpt lat="15.3587065917" lon="73.8707461394"><ele>-0.82</ele><time>2023-12-12T04:30:49Z</time><extensions><gpxtpx:TrackPointExtension><gpxtpx:cad>0</gpxtpx:cad></gpxtpx:TrackPointExtension></extensions></trkpt><trkpt lat="15.3586806916" lon="73.8706440479"><ele>-5.15</ele><time>2023-12-12T04:31:49Z</time><extensions><gpxtpx:TrackPointExtension><gpxtpx:cad>0</gpxtpx:cad></gpxtpx:TrackPointExtension></extensions></trkpt><trkpt lat="15.3586283885" lon="73.8705030642"><ele>-4.67</ele><time>2023-12-12T04:32:49Z</time><extensions><gpxtpx:TrackPointExtension><gpxtpx:cad>0</gpxtpx:cad></gpxtpx:TrackPointExtension></extensions></trkpt><trkpt lat="15.3585878201" lon="73.8703171536"><ele>-4.67</ele><time>2023-12-12T04:33:48Z</time><extensions><gpxtpx:TrackPointExtension><gpxtpx:cad>0</gpxtpx:cad></gpxtpx:TrackPointExtension></extensions></trkpt><trkpt lat="15.3585676197" lon="73.8701433968"><ele>-4.67</ele><time>2023-12-12T04:34:49Z</time><extensions><gpxtpx:TrackPointExtension><gpxtpx:cad>0</gpxtpx:cad></gpxtpx:TrackPointExtension></extensions></trkpt><trkpt lat="15.3585245367" lon="73.8699973002"><ele>-2.75</ele><time>2023-12-12T04:35:49Z</time><extensions><gpxtpx:TrackPointExtension><gpxtpx:cad>0</gpxtpx:cad></gpxtpx:TrackPointExtension></extensions></trkpt><trkpt lat="15.3584884107" lon="73.8698955439"><ele>-1.30</ele><time>2023-12-12T04:36:49Z</time><extensions><gpxtpx:TrackPointExtension><gpxtpx:cad>0</gpxtpx:cad></gpxtpx:TrackPointExtension></extensions></trkpt><trkpt lat="15.3584891651" lon="73.8697522972"><ele>-1.79</ele><time>2023-12-12T04:37:49Z</time><extensions><gpxtpx:TrackPointExtension><gpxtpx:cad>0</gpxtpx:cad></gpxtpx:TrackPointExtension></extensions></trkpt><trkpt lat="15.3584568109" lon="73.8694764487"><ele>-0.34</ele><time>2023-12-12T04:38:49Z</time><extensions><gpxtpx:TrackPointExtension><gpxtpx:cad>0</gpxtpx:cad></gpxtpx:TrackPointExtension></extensions></trkpt><trkpt lat="15.3588442225" lon="73.8687416911"><ele>3.02</ele><time>2023-12-12T04:39:49Z</time><extensions><gpxtpx:TrackPointExtension><gpxtpx:cad>0</gpxtpx:cad></gpxtpx:TrackPointExtension></extensions></trkpt><trkpt lat="15.3591787443" lon="73.8669341337"><ele>2.54</ele><time>2023-12-12T04:40:49Z</time><extensions><gpxtpx:TrackPointExtension><gpxtpx:cad>0</gpxtpx:cad></gpxtpx:TrackPointExtension></extensions></trkpt><trkpt lat="15.3592427820" lon="73.8649098203"><ele>2.54</ele><time>2023-12-12T04:41:49Z</time><extensions><gpxtpx:TrackPointExtension><gpxtpx:cad>0</gpxtpx:cad></gpxtpx:TrackPointExtension></extensions></trkpt><trkpt lat="15.3593683429" lon="73.8629026059"><ele>1.10</ele><time>2023-12-12T04:42:49Z</time><extensions><gpxtpx:TrackPointExtension><gpxtpx:cad>0</gpxtpx:cad></gpxtpx:TrackPointExtension></extensions></trkpt><trkpt lat="15.3592409380" lon="73.8608870935"><ele>3.02</ele><time>2023-12-12T04:43:49Z</time><extensions><gpxtpx:TrackPointExtension><gpxtpx:cad>0</gpxtpx:cad></gpxtpx:TrackPointExtension></extensions></trkpt><trkpt lat="15.3589971084" lon="73.8588873390"><ele>2.06</ele><time>2023-12-12T04:44:49Z</time><extensions><gpxtpx:TrackPointExtension><gpxtpx:cad>0</gpxtpx:cad></gpxtpx:TrackPointExtension></extensions></trkpt><trkpt lat="15.3587066755" lon="73.8568776939"><ele>2.54</ele><time>2023-12-12T04:45:49Z</time><extensions><gpxtpx:TrackPointExtension><gpxtpx:cad>0</gpxtpx:cad></gpxtpx:TrackPointExtension></extensions></trkpt><trkpt lat="15.3586185817" lon="73.8548553921"><ele>3.98</ele><time>2023-12-12T04:46:49Z</time><extensions><gpxtpx:TrackPointExtension><gpxtpx:cad>0</gpxtpx:cad></gpxtpx:TrackPointExtension></extensions></trkpt><trkpt lat="15.3586083557" lon="73.8528255466"><ele>3.50</ele><time>2023-12-12T04:47:49Z</time><extensions><gpxtpx:TrackPointExtension><gpxtpx:cad>0</gpxtpx:cad></gpxtpx:TrackPointExtension></extensions></trkpt><trkpt lat="15.3586718068" lon="73.8507889118"><ele>4.46</ele><time>2023-12-12T04:48:49Z</time><extensions><gpxtpx:TrackPointExtension><gpxtpx:cad>0</gpxtpx:cad></gpxtpx:TrackPointExtension></extensions></trkpt><trkpt lat="15.3587025683" lon="73.8487373572"><ele>3.02</ele><time>2023-12-12T04:49:49Z</time><extensions><gpxtpx:TrackPointExtension><gpxtpx:cad>0</gpxtpx:cad></gpxtpx:TrackPointExtension></extensions></trkpt><trkpt lat="15.3587324917" lon="73.8466822822"><ele>1.58</ele><time>2023-12-12T04:50:49Z</time><extensions><gpxtpx:TrackPointExtension><gpxtpx:cad>0</gpxtpx:cad></gpxtpx:TrackPointExtension></extensions></trkpt><trkpt lat="15.3588809352" lon="73.8446205854"><ele>1.10</ele><time>2023-12-12T04:51:49Z</time><extensions><gpxtpx:TrackPointExtension><gpxtpx:cad>0</gpxtpx:cad></gpxtpx:TrackPointExtension></extensions></trkpt><trkpt lat="15.3585849702" lon="73.8426046539"><ele>3.02</ele><time>2023-12-12T04:52:49Z</time><extensions><gpxtpx:TrackPointExtension><gpxtpx:cad>0</gpxtpx:cad></gpxtpx:TrackPointExtension></extensions></trkpt><trkpt lat="15.3583228681" lon="73.8405313902"><ele>3.02</ele><time>2023-12-12T04:53:49Z</time><extensions><gpxtpx:TrackPointExtension><gpxtpx:cad>0</gpxtpx:cad></gpxtpx:TrackPointExtension></extensions></trkpt><trkpt lat="15.3580204491" lon="73.8385064900"><ele>7.35</ele><time>2023-12-12T04:54:49Z</time><extensions><gpxtpx:TrackPointExtension><gpxtpx:cad>0</gpxtpx:cad></gpxtpx:TrackPointExtension></extensions></trkpt><trkpt lat="15.3579170164" lon="73.8364591263"><ele>3.98</ele><time>2023-12-12T04:55:49Z</time><extensions><gpxtpx:TrackPointExtension><gpxtpx:cad>0</gpxtpx:cad></gpxtpx:TrackPointExtension></extensions></trkpt><trkpt lat="15.3576982487" lon="73.8344401773"><ele>3.50</ele><time>2023-12-12T04:56:49Z</time><extensions><gpxtpx:TrackPointExtension><gpxtpx:cad>0</gpxtpx:cad></gpxtpx:TrackPointExtension></extensions></trkpt><trkpt lat="15.3580502886" lon="73.8323989324"><ele>2.54</ele><time>2023-12-12T04:57:49Z</time><extensions><gpxtpx:TrackPointExtension><gpxtpx:cad>0</gpxtpx:cad></gpxtpx:TrackPointExtension></extensions></trkpt><trkpt lat="15.3584077768" lon="73.8303415943"><ele>3.50</ele><time>2023-12-12T04:58:49Z</time><extensions><gpxtpx:TrackPointExtension><gpxtpx:cad>0</gpxtpx:cad></gpxtpx:TrackPointExtension></extensions></trkpt><trkpt lat="15.3589389380" lon="73.8283179514"><ele>3.02</ele><time>2023-12-12T04:59:49Z</time><extensions><gpxtpx:TrackPointExtension><gpxtpx:cad>0</gpxtpx:cad></gpxtpx:TrackPointExtension></extensions></trkpt><trkpt lat="15.3593736235" lon="73.8262760360"><ele>2.54</ele><time>2023-12-12T05:00:49Z</time><extensions><gpxtpx:TrackPointExtension><gpxtpx:cad>0</gpxtpx:cad></gpxtpx:TrackPointExtension></extensions></trkpt><trkpt lat="15.3597871028" lon="73.8242078852"><ele>3.98</ele><time>2023-12-12T05:01:49Z</time><extensions><gpxtpx:TrackPointExtension><gpxtpx:cad>0</gpxtpx:cad></gpxtpx:TrackPointExtension></extensions></trkpt><trkpt lat="15.3601842374" lon="73.8221637905"><ele>3.50</ele><time>2023-12-12T05:02:49Z</time><extensions><gpxtpx:TrackPointExtension><gpxtpx:cad>0</gpxtpx:cad></gpxtpx:TrackPointExtension></extensions></trkpt><trkpt lat="15.3605733253" lon="73.8201024290"><ele>5.42</ele><time>2023-12-12T05:03:49Z</time><extensions><gpxtpx:TrackPointExtension><gpxtpx:cad>0</gpxtpx:cad></gpxtpx:TrackPointExtension></extensions></trkpt><trkpt lat="15.3610660136" lon="73.8180783670"><ele>3.50</ele><time>2023-12-12T05:04:49Z</time><extensions><gpxtpx:TrackPointExtension><gpxtpx:cad>0</gpxtpx:cad></gpxtpx:TrackPointExtension></extensions></trkpt><trkpt lat="15.3612945881" lon="73.8160165027"><ele>3.02</ele><time>2023-12-12T05:05:49Z</time><extensions><gpxtpx:TrackPointExtension><gpxtpx:cad>0</gpxtpx:cad></gpxtpx:TrackPointExtension></extensions></trkpt><trkpt lat="15.3616547585" lon="73.8139599189"><ele>3.02</ele><time>2023-12-12T05:06:49Z</time><extensions><gpxtpx:TrackPointExtension><gpxtpx:cad>0</gpxtpx:cad></gpxtpx:TrackPointExtension></extensions></trkpt><trkpt lat="15.3620031103" lon="73.8118846435"><ele>3.02</ele><time>2023-12-12T05:07:49Z</time><extensions><gpxtpx:TrackPointExtension><gpxtpx:cad>0</gpxtpx:cad></gpxtpx:TrackPointExtension></extensions></trkpt><trkpt lat="15.3623300046" lon="73.8098093681"><ele>3.02</ele><time>2023-12-12T05:08:49Z</time><extensions><gpxtpx:TrackPointExtension><gpxtpx:cad>0</gpxtpx:cad></gpxtpx:TrackPointExtension></extensions></trkpt><trkpt lat="15.3629894927" lon="73.8077885751"><ele>6.39</ele><time>2023-12-12T05:09:49Z</time><extensions><gpxtpx:TrackPointExtension><gpxtpx:cad>0</gpxtpx:cad></gpxtpx:TrackPointExtension></extensions></trkpt><trkpt lat="15.3635636531" lon="73.8057713024"><ele>5.42</ele><time>2023-12-12T05:10:49Z</time><extensions><gpxtpx:TrackPointExtension><gpxtpx:cad>0</gpxtpx:cad></gpxtpx:TrackPointExtension></extensions></trkpt><trkpt lat="15.3644735087" lon="73.8040570356"><ele>2.06</ele><time>2023-12-12T05:11:49Z</time><extensions><gpxtpx:TrackPointExtension><gpxtpx:cad>0</gpxtpx:cad></gpxtpx:TrackPointExtension></extensions></trkpt><trkpt lat="15.3664178587" lon="73.8038580492"><ele>2.06</ele><time>2023-12-12T05:12:49Z</time><extensions><gpxtpx:TrackPointExtension><gpxtpx:cad>0</gpxtpx:cad></gpxtpx:TrackPointExtension></extensions></trkpt><trkpt lat="15.3683669027" lon="73.8040486537"><ele>2.06</ele><time>2023-12-12T05:13:49Z</time><extensions><gpxtpx:TrackPointExtension><gpxtpx:cad>0</gpxtpx:cad></gpxtpx:TrackPointExtension></extensions></trkpt><trkpt lat="15.3702450357" lon="73.8042055629"><ele>2.54</ele><time>2023-12-12T05:14:49Z</time><extensions><gpxtpx:TrackPointExtension><gpxtpx:cad>0</gpxtpx:cad></gpxtpx:TrackPointExtension></extensions></trkpt><trkpt lat="15.3721855301" lon="73.8044186309"><ele>2.06</ele><time>2023-12-12T05:15:49Z</time><extensions><gpxtpx:TrackPointExtension><gpxtpx:cad>0</gpxtpx:cad></gpxtpx:TrackPointExtension></extensions></trkpt><trkpt lat="15.3741331492" lon="73.8045910466"><ele>2.54</ele><time>2023-12-12T05:16:49Z</time><extensions><gpxtpx:TrackPointExtension><gpxtpx:cad>0</gpxtpx:cad></gpxtpx:TrackPointExtension></extensions></trkpt><trkpt lat="15.3760979511" lon="73.8046132587"><ele>5.42</ele><time>2023-12-12T05:17:49Z</time><extensions><gpxtpx:TrackPointExtension><gpxtpx:cad>0</gpxtpx:cad></gpxtpx:TrackPointExtension></extensions></trkpt><trkpt lat="15.3779910877" lon="73.8050446752"><ele>5.91</ele><time>2023-12-12T05:18:49Z</time><extensions><gpxtpx:TrackPointExtension><gpxtpx:cad>0</gpxtpx:cad></gpxtpx:TrackPointExtension></extensions></trkpt><trkpt lat="15.3797779419" lon="73.8053159136"><ele>6.87</ele><time>2023-12-12T05:19:49Z</time><extensions><gpxtpx:TrackPointExtension><gpxtpx:cad>0</gpxtpx:cad></gpxtpx:TrackPointExtension></extensions></trkpt><trkpt lat="15.3813781310" lon="73.8041340653"><ele>6.87</ele><time>2023-12-12T05:20:49Z</time><extensions><gpxtpx:TrackPointExtension><gpxtpx:cad>0</gpxtpx:cad></gpxtpx:TrackPointExtension></extensions></trkpt><trkpt lat="15.3820882458" lon="73.8022439461"><ele>7.83</ele><time>2023-12-12T05:21:49Z</time><extensions><gpxtpx:TrackPointExtension><gpxtpx:cad>0</gpxtpx:cad></gpxtpx:TrackPointExtension></extensions></trkpt><trkpt lat="15.3827051539" lon="73.8003485464"><ele>6.39</ele><time>2023-12-12T05:22:49Z</time><extensions><gpxtpx:TrackPointExtension><gpxtpx:cad>0</gpxtpx:cad></gpxtpx:TrackPointExtension></extensions></trkpt><trkpt lat="15.3831692599" lon="73.7983653881"><ele>3.50</ele><time>2023-12-12T05:23:49Z</time><extensions><gpxtpx:TrackPointExtension><gpxtpx:cad>0</gpxtpx:cad></gpxtpx:TrackPointExtension></extensions></trkpt><trkpt lat="15.3835712560" lon="73.7963606045"><ele>4.94</ele><time>2023-12-12T05:24:49Z</time><extensions><gpxtpx:TrackPointExtension><gpxtpx:cad>0</gpxtpx:cad></gpxtpx:TrackPointExtension></extensions></trkpt><trkpt lat="15.3840750083" lon="73.7944427412"><ele>5.42</ele><time>2023-12-12T05:25:49Z</time><extensions><gpxtpx:TrackPointExtension><gpxtpx:cad>0</gpxtpx:cad></gpxtpx:TrackPointExtension></extensions></trkpt><trkpt lat="15.3846665192" lon="73.7926885765"><ele>3.02</ele><time>2023-12-12T05:26:49Z</time><extensions><gpxtpx:TrackPointExtension><gpxtpx:cad>0</gpxtpx:cad></gpxtpx:TrackPointExtension></extensions></trkpt><trkpt lat="15.3855295200" lon="73.7908942625"><ele>0.62</ele><time>2023-12-12T05:27:49Z</time><extensions><gpxtpx:TrackPointExtension><gpxtpx:cad>0</gpxtpx:cad></gpxtpx:TrackPointExtension></extensions></trkpt><trkpt lat="15.3865208477" lon="73.7891764753"><ele>-0.34</ele><time>2023-12-12T05:28:49Z</time><extensions><gpxtpx:TrackPointExtension><gpxtpx:cad>0</gpxtpx:cad></gpxtpx:TrackPointExtension></extensions></trkpt><trkpt lat="15.3874681704" lon="73.7874783017"><ele>1.10</ele><time>2023-12-12T05:29:49Z</time><extensions><gpxtpx:TrackPointExtension><gpxtpx:cad>0</gpxtpx:cad></gpxtpx:TrackPointExtension></extensions></trkpt><trkpt lat="15.3884737473" lon="73.7857859116"><ele>3.50</ele><time>2023-12-12T05:30:49Z</time><extensions><gpxtpx:TrackPointExtension><gpxtpx:cad>0</gpxtpx:cad></gpxtpx:TrackPointExtension></extensions></trkpt><trkpt lat="15.3896418493" lon="73.7842485029"><ele>3.02</ele><time>2023-12-12T05:31:49Z</time><extensions><gpxtpx:TrackPointExtension><gpxtpx:cad>0</gpxtpx:cad></gpxtpx:TrackPointExtension></extensions></trkpt><trkpt lat="15.3910364304" lon="73.7830387428"><ele>3.02</ele><time>2023-12-12T05:32:49Z</time><extensions><gpxtpx:TrackPointExtension><gpxtpx:cad>0</gpxtpx:cad></gpxtpx:TrackPointExtension></extensions></trkpt><trkpt lat="15.3928648587" lon="73.7824697793"><ele>1.10</ele><time>2023-12-12T05:33:49Z</time><extensions><gpxtpx:TrackPointExtension><gpxtpx:cad>0</gpxtpx:cad></gpxtpx:TrackPointExtension></extensions></trkpt><trkpt lat="15.3947352804" lon="73.7819636799"><ele>2.54</ele><time>2023-12-12T05:34:49Z</time><extensions><gpxtpx:TrackPointExtension><gpxtpx:cad>0</gpxtpx:cad></gpxtpx:TrackPointExtension></extensions></trkpt><trkpt lat="15.3966284171" lon="73.7815082073"><ele>2.06</ele><time>2023-12-12T05:35:49Z</time><extensions><gpxtpx:TrackPointExtension><gpxtpx:cad>0</gpxtpx:cad></gpxtpx:TrackPointExtension></extensions></trkpt><trkpt lat="15.3984960727" lon="73.7811367214"><ele>2.06</ele><time>2023-12-12T05:36:49Z</time><extensions><gpxtpx:TrackPointExtension><gpxtpx:cad>0</gpxtpx:cad></gpxtpx:TrackPointExtension></extensions></trkpt><trkpt lat="15.4003790673" lon="73.7809367292"><ele>2.54</ele><time>2023-12-12T05:37:49Z</time><extensions><gpxtpx:TrackPointExtension><gpxtpx:cad>0</gpxtpx:cad></gpxtpx:TrackPointExtension></extensions></trkpt><trkpt lat="15.4022380058" lon="73.7806473020"><ele>2.54</ele><time>2023-12-12T05:38:49Z</time><extensions><gpxtpx:TrackPointExtension><gpxtpx:cad>0</gpxtpx:cad></gpxtpx:TrackPointExtension></extensions></trkpt><trkpt lat="15.4040940944" lon="73.7803859543"><ele>3.50</ele><time>2023-12-12T05:39:49Z</time><extensions><gpxtpx:TrackPointExtension><gpxtpx:cad>0</gpxtpx:cad></gpxtpx:TrackPointExtension></extensions></trkpt><trkpt lat="15.4058773443" lon="73.7798859738"><ele>1.58</ele><time>2023-12-12T05:40:49Z</time><extensions><gpxtpx:TrackPointExtension><gpxtpx:cad>0</gpxtpx:cad></gpxtpx:TrackPointExtension></extensions></trkpt><trkpt lat="15.4077020008" lon="73.7796706427"><ele>1.58</ele><time>2023-12-12T05:41:49Z</time><extensions><gpxtpx:TrackPointExtension><gpxtpx:cad>0</gpxtpx:cad></gpxtpx:TrackPointExtension></extensions></trkpt><trkpt lat="15.4092123359" lon="73.7790014315"><ele>-0.82</ele><time>2023-12-12T05:42:49Z</time><extensions><gpxtpx:TrackPointExtension><gpxtpx:cad>0</gpxtpx:cad></gpxtpx:TrackPointExtension></extensions></trkpt><trkpt lat="15.4103183281" lon="73.7774316687"><ele>0.14</ele><time>2023-12-12T05:43:49Z</time><extensions><gpxtpx:TrackPointExtension><gpxtpx:cad>0</gpxtpx:cad></gpxtpx:TrackPointExtension></extensions></trkpt><trkpt lat="15.4115278367" lon="73.7759545259"><ele>-0.82</ele><time>2023-12-12T05:44:48Z</time><extensions><gpxtpx:TrackPointExtension><gpxtpx:cad>0</gpxtpx:cad></gpxtpx:TrackPointExtension></extensions></trkpt><trkpt lat="15.4129538499" lon="73.7746082246"><ele>-1.79</ele><time>2023-12-12T05:45:49Z</time><extensions><gpxtpx:TrackPointExtension><gpxtpx:cad>0</gpxtpx:cad></gpxtpx:TrackPointExtension></extensions></trkpt><trkpt lat="15.4143755883" lon="73.7733291462"><ele>-0.82</ele><time>2023-12-12T05:46:49Z</time><extensions><gpxtpx:TrackPointExtension><gpxtpx:cad>0</gpxtpx:cad></gpxtpx:TrackPointExtension></extensions></trkpt><trkpt lat="15.4159142543" lon="73.7721970025"><ele>0.14</ele><time>2023-12-12T05:47:49Z</time><extensions><gpxtpx:TrackPointExtension><gpxtpx:cad>0</gpxtpx:cad></gpxtpx:TrackPointExtension></extensions></trkpt><trkpt lat="15.4174321331" lon="73.7710514478"><ele>0.62</ele><time>2023-12-12T05:48:49Z</time><extensions><gpxtpx:TrackPointExtension><gpxtpx:cad>0</gpxtpx:cad></gpxtpx:TrackPointExtension></extensions></trkpt><trkpt lat="15.4189322423" lon="73.7698359042"><ele>2.54</ele><time>2023-12-12T05:49:49Z</time><extensions><gpxtpx:TrackPointExtension><gpxtpx:cad>0</gpxtpx:cad></gpxtpx:TrackPointExtension></extensions></trkpt><trkpt lat="15.4204973113" lon="73.7687204406"><ele>3.50</ele><time>2023-12-12T05:50:49Z</time><extensions><gpxtpx:TrackPointExtension><gpxtpx:cad>0</gpxtpx:cad></gpxtpx:TrackPointExtension></extensions></trkpt><trkpt lat="15.4220983386" lon="73.7676768098"><ele>1.10</ele><time>2023-12-12T05:51:49Z</time><extensions><gpxtpx:TrackPointExtension><gpxtpx:cad>0</gpxtpx:cad></gpxtpx:TrackPointExtension></extensions></trkpt><trkpt lat="15.4237423651" lon="73.7666889187"><ele>2.06</ele><time>2023-12-12T05:52:49Z</time><extensions><gpxtpx:TrackPointExtension><gpxtpx:cad>0</gpxtpx:cad></gpxtpx:TrackPointExtension></extensions></trkpt><trkpt lat="15.4253423028" lon="73.7664860766"><ele>2.06</ele><time>2023-12-12T05:53:49Z</time><extensions><gpxtpx:TrackPointExtension><gpxtpx:cad>0</gpxtpx:cad></gpxtpx:TrackPointExtension></extensions></trkpt><trkpt lat="15.4270783626" lon="73.7669295631"><ele>2.06</ele><time>2023-12-12T05:54:49Z</time><extensions><gpxtpx:TrackPointExtension><gpxtpx:cad>0</gpxtpx:cad></gpxtpx:TrackPointExtension></extensions></trkpt><trkpt lat="15.4287620354" lon="73.7675099261"><ele>1.10</ele><time>2023-12-12T05:55:49Z</time><extensions><gpxtpx:TrackPointExtension><gpxtpx:cad>0</gpxtpx:cad></gpxtpx:TrackPointExtension></extensions></trkpt><trkpt lat="15.4304592032" lon="73.7680275086"><ele>0.62</ele><time>2023-12-12T05:56:49Z</time><extensions><gpxtpx:TrackPointExtension><gpxtpx:cad>0</gpxtpx:cad></gpxtpx:TrackPointExtension></extensions></trkpt><trkpt lat="15.4321610648" lon="73.7685456779"><ele>2.54</ele><time>2023-12-12T05:57:49Z</time><extensions><gpxtpx:TrackPointExtension><gpxtpx:cad>0</gpxtpx:cad></gpxtpx:TrackPointExtension></extensions></trkpt><trkpt lat="15.4338268004" lon="73.7691845465"><ele>1.10</ele><time>2023-12-12T05:58:49Z</time><extensions><gpxtpx:TrackPointExtension><gpxtpx:cad>0</gpxtpx:cad></gpxtpx:TrackPointExtension></extensions></trkpt><trkpt lat="15.4355186038" lon="73.7697335612"><ele>3.02</ele><time>2023-12-12T05:59:49Z</time><extensions><gpxtpx:TrackPointExtension><gpxtpx:cad>0</gpxtpx:cad></gpxtpx:TrackPointExtension></extensions></trkpt><trkpt lat="15.4371652286" lon="73.7703979947"><ele>3.98</ele><time>2023-12-12T06:00:49Z</time><extensions><gpxtpx:TrackPointExtension><gpxtpx:cad>0</gpxtpx:cad></gpxtpx:TrackPointExtension></extensions></trkpt><trkpt lat="15.4388098419" lon="73.7710630987"><ele>8.31</ele><time>2023-12-12T06:01:49Z</time><extensions><gpxtpx:TrackPointExtension><gpxtpx:cad>0</gpxtpx:cad></gpxtpx:TrackPointExtension></extensions></trkpt><trkpt lat="15.4404165689" lon="73.7718381733"><ele>8.31</ele><time>2023-12-12T06:02:49Z</time><extensions><gpxtpx:TrackPointExtension><gpxtpx:cad>0</gpxtpx:cad></gpxtpx:TrackPointExtension></extensions></trkpt><trkpt lat="15.4420978948" lon="73.7724665646"><ele>3.98</ele><time>2023-12-12T06:03:49Z</time><extensions><gpxtpx:TrackPointExtension><gpxtpx:cad>0</gpxtpx:cad></gpxtpx:TrackPointExtension></extensions></trkpt><trkpt lat="15.4438062105" lon="73.7730540521"><ele>2.06</ele><time>2023-12-12T06:04:49Z</time><extensions><gpxtpx:TrackPointExtension><gpxtpx:cad>0</gpxtpx:cad></gpxtpx:TrackPointExtension></extensions></trkpt><trkpt lat="15.4453087505" lon="73.7734004762"><ele>1.10</ele><time>2023-12-12T06:05:49Z</time><extensions><gpxtpx:TrackPointExtension><gpxtpx:cad>0</gpxtpx:cad></gpxtpx:TrackPointExtension></extensions></trkpt><trkpt lat="15.4469384439" lon="73.7733421382"><ele>0.62</ele><time>2023-12-12T06:06:49Z</time><extensions><gpxtpx:TrackPointExtension><gpxtpx:cad>0</gpxtpx:cad></gpxtpx:TrackPointExtension></extensions></trkpt><trkpt lat="15.4485870805" lon="73.7735635880"><ele>1.58</ele><time>2023-12-12T06:07:49Z</time><extensions><gpxtpx:TrackPointExtension><gpxtpx:cad>0</gpxtpx:cad></gpxtpx:TrackPointExtension></extensions></trkpt><trkpt lat="15.4503413290" lon="73.7737073377"><ele>2.54</ele><time>2023-12-12T06:08:49Z</time><extensions><gpxtpx:TrackPointExtension><gpxtpx:cad>0</gpxtpx:cad></gpxtpx:TrackPointExtension></extensions></trkpt><trkpt lat="15.4522132594" lon="73.7736611534"><ele>3.02</ele><time>2023-12-12T06:09:49Z</time><extensions><gpxtpx:TrackPointExtension><gpxtpx:cad>0</gpxtpx:cad></gpxtpx:TrackPointExtension></extensions></trkpt><trkpt lat="15.4539810866" lon="73.7738128658"><ele>1.10</ele><time>2023-12-12T06:10:49Z</time><extensions><gpxtpx:TrackPointExtension><gpxtpx:cad>0</gpxtpx:cad></gpxtpx:TrackPointExtension></extensions></trkpt><trkpt lat="15.4557521828" lon="73.7740655802"><ele>-0.34</ele><time>2023-12-12T06:11:49Z</time><extensions><gpxtpx:TrackPointExtension><gpxtpx:cad>0</gpxtpx:cad></gpxtpx:TrackPointExtension></extensions></trkpt><trkpt lat="15.4575452395" lon="73.7745743617"><ele>0.14</ele><time>2023-12-12T06:12:49Z</time><extensions><gpxtpx:TrackPointExtension><gpxtpx:cad>0</gpxtpx:cad></gpxtpx:TrackPointExtension></extensions></trkpt><trkpt lat="15.4594124760" lon="73.7747114059"><ele>1.58</ele><time>2023-12-12T06:13:49Z</time><extensions><gpxtpx:TrackPointExtension><gpxtpx:cad>0</gpxtpx:cad></gpxtpx:TrackPointExtension></extensions></trkpt><trkpt lat="15.4612670559" lon="73.7750748452"><ele>1.10</ele><time>2023-12-12T06:14:49Z</time><extensions><gpxtpx:TrackPointExtension><gpxtpx:cad>0</gpxtpx:cad></gpxtpx:TrackPointExtension></extensions></trkpt><trkpt lat="15.4630210530" lon="73.7757179048"><ele>2.06</ele><time>2023-12-12T06:15:49Z</time><extensions><gpxtpx:TrackPointExtension><gpxtpx:cad>0</gpxtpx:cad></gpxtpx:TrackPointExtension></extensions></trkpt><trkpt lat="15.4649037961" lon="73.7758101057"><ele>1.10</ele><time>2023-12-12T06:16:49Z</time><extensions><gpxtpx:TrackPointExtension><gpxtpx:cad>0</gpxtpx:cad></gpxtpx:TrackPointExtension></extensions></trkpt><trkpt lat="15.4667670093" lon="73.7762779836"><ele>1.58</ele><time>2023-12-12T06:17:49Z</time><extensions><gpxtpx:TrackPointExtension><gpxtpx:cad>0</gpxtpx:cad></gpxtpx:TrackPointExtension></extensions></trkpt><trkpt lat="15.4686111119" lon="73.7766907085"><ele>3.02</ele><time>2023-12-12T06:18:49Z</time><extensions><gpxtpx:TrackPointExtension><gpxtpx:cad>0</gpxtpx:cad></gpxtpx:TrackPointExtension></extensions></trkpt><trkpt lat="15.4703726526" lon="73.7774439901"><ele>2.54</ele><time>2023-12-12T06:19:49Z</time><extensions><gpxtpx:TrackPointExtension><gpxtpx:cad>0</gpxtpx:cad></gpxtpx:TrackPointExtension></extensions></trkpt><trkpt lat="15.4721385520" lon="73.7777695432"><ele>3.02</ele><time>2023-12-12T06:20:49Z</time><extensions><gpxtpx:TrackPointExtension><gpxtpx:cad>0</gpxtpx:cad></gpxtpx:TrackPointExtension></extensions></trkpt><trkpt lat="15.4736384097" lon="73.7789204624"><ele>2.06</ele><time>2023-12-12T06:21:49Z</time><extensions><gpxtpx:TrackPointExtension><gpxtpx:cad>0</gpxtpx:cad></gpxtpx:TrackPointExtension></extensions></trkpt><trkpt lat="15.4749635048" lon="73.7802383490"><ele>2.54</ele><time>2023-12-12T06:22:49Z</time><extensions><gpxtpx:TrackPointExtension><gpxtpx:cad>0</gpxtpx:cad></gpxtpx:TrackPointExtension></extensions></trkpt><trkpt lat="15.4766725749" lon="73.7811005116"><ele>3.02</ele><time>2023-12-12T06:23:49Z</time><extensions><gpxtpx:TrackPointExtension><gpxtpx:cad>0</gpxtpx:cad></gpxtpx:TrackPointExtension></extensions></trkpt><trkpt lat="15.4784832336" lon="73.7817927729"><ele>3.50</ele><time>2023-12-12T06:24:49Z</time><extensions><gpxtpx:TrackPointExtension><gpxtpx:cad>0</gpxtpx:cad></gpxtpx:TrackPointExtension></extensions></trkpt><trkpt lat="15.4801600333" lon="73.7827013712"><ele>2.54</ele><time>2023-12-12T06:25:49Z</time><extensions><gpxtpx:TrackPointExtension><gpxtpx:cad>0</gpxtpx:cad></gpxtpx:TrackPointExtension></extensions></trkpt><trkpt lat="15.4819717817" lon="73.7832157686"><ele>4.46</ele><time>2023-12-12T06:26:49Z</time><extensions><gpxtpx:TrackPointExtension><gpxtpx:cad>0</gpxtpx:cad></gpxtpx:TrackPointExtension></extensions></trkpt><trkpt lat="15.4837494157" lon="73.7838292401"><ele>3.98</ele><time>2023-12-12T06:27:49Z</time><extensions><gpxtpx:TrackPointExtension><gpxtpx:cad>0</gpxtpx:cad></gpxtpx:TrackPointExtension></extensions></trkpt><trkpt lat="15.4851053562" lon="73.7849017885"><ele>3.02</ele><time>2023-12-12T06:28:49Z</time><extensions><gpxtpx:TrackPointExtension><gpxtpx:cad>0</gpxtpx:cad></gpxtpx:TrackPointExtension></extensions></trkpt><trkpt lat="15.4837945942" lon="73.7862199266"><ele>3.02</ele><time>2023-12-12T06:29:49Z</time><extensions><gpxtpx:TrackPointExtension><gpxtpx:cad>0</gpxtpx:cad></gpxtpx:TrackPointExtension></extensions></trkpt><trkpt lat="15.4821608774" lon="73.7871840969"><ele>2.54</ele><time>2023-12-12T06:30:49Z</time><extensions><gpxtpx:TrackPointExtension><gpxtpx:cad>0</gpxtpx:cad></gpxtpx:TrackPointExtension></extensions></trkpt><trkpt lat="15.4805442598" lon="73.7881269772"><ele>2.54</ele><time>2023-12-12T06:31:49Z</time><extensions><gpxtpx:TrackPointExtension><gpxtpx:cad>0</gpxtpx:cad></gpxtpx:TrackPointExtension></extensions></trkpt><trkpt lat="15.4788577370" lon="73.7886888999"><ele>3.98</ele><time>2023-12-12T06:32:49Z</time><extensions><gpxtpx:TrackPointExtension><gpxtpx:cad>0</gpxtpx:cad></gpxtpx:TrackPointExtension></extensions></trkpt><trkpt lat="15.4773951788" lon="73.7893087417"><ele>3.02</ele><time>2023-12-12T06:33:49Z</time><extensions><gpxtpx:TrackPointExtension><gpxtpx:cad>0</gpxtpx:cad></gpxtpx:TrackPointExtension></extensions></trkpt><trkpt lat="15.4758842569" lon="73.7898337003"><ele>3.50</ele><time>2023-12-12T06:34:49Z</time><extensions><gpxtpx:TrackPointExtension><gpxtpx:cad>0</gpxtpx:cad></gpxtpx:TrackPointExtension></extensions></trkpt><trkpt lat="15.4741750192" lon="73.7901615165"><ele>3.50</ele><time>2023-12-12T06:35:49Z</time><extensions><gpxtpx:TrackPointExtension><gpxtpx:cad>0</gpxtpx:cad></gpxtpx:TrackPointExtension></extensions></trkpt><trkpt lat="15.4724878259" lon="73.7904718146"><ele>3.50</ele><time>2023-12-12T06:36:49Z</time><extensions><gpxtpx:TrackPointExtension><gpxtpx:cad>0</gpxtpx:cad></gpxtpx:TrackPointExtension></extensions></trkpt><trkpt lat="15.4708458111" lon="73.7911679316"><ele>4.94</ele><time>2023-12-12T06:37:49Z</time><extensions><gpxtpx:TrackPointExtension><gpxtpx:cad>0</gpxtpx:cad></gpxtpx:TrackPointExtension></extensions></trkpt><trkpt lat="15.4692669958" lon="73.7920569163"><ele>5.42</ele><time>2023-12-12T06:38:49Z</time><extensions><gpxtpx:TrackPointExtension><gpxtpx:cad>0</gpxtpx:cad></gpxtpx:TrackPointExtension></extensions></trkpt><trkpt lat="15.4676940478" lon="73.7929532770"><ele>4.46</ele><time>2023-12-12T06:39:49Z</time><extensions><gpxtpx:TrackPointExtension><gpxtpx:cad>0</gpxtpx:cad></gpxtpx:TrackPointExtension></extensions></trkpt><trkpt lat="15.4661800247" lon="73.7939356361"><ele>3.02</ele><time>2023-12-12T06:40:49Z</time><extensions><gpxtpx:TrackPointExtension><gpxtpx:cad>0</gpxtpx:cad></gpxtpx:TrackPointExtension></extensions></trkpt><trkpt lat="15.4646535125" lon="73.7949074339"><ele>5.91</ele><time>2023-12-12T06:41:49Z</time><extensions><gpxtpx:TrackPointExtension><gpxtpx:cad>0</gpxtpx:cad></gpxtpx:TrackPointExtension></extensions></trkpt><trkpt lat="15.4633088876" lon="73.7961639650"><ele>3.50</ele><time>2023-12-12T06:42:49Z</time><extensions><gpxtpx:TrackPointExtension><gpxtpx:cad>0</gpxtpx:cad></gpxtpx:TrackPointExtension></extensions></trkpt></trkseg></trk></gpx>