<?xml version="1.0" encoding="UTF-8" standalone="no" ?><gpx xmlns="http://www.topografix.com/GPX/1/1" xmlns:gpxx="http://www.garmin.com/xmlschemas/GpxExtensions/v3" xmlns:wptx1="http://www.garmin.com/xmlschemas/WaypointExtension/v1" xmlns:gpxtpx="http://www.garmin.com/xmlschemas/TrackPointExtension/v1" creator="eTrex 10 SEA" version="1.1" xmlns:xsi="http://www.w3.org/2001/XMLSchema-instance" xsi:schemaLocation="http://www.topografix.com/GPX/1/1 http://www.topografix.com/GPX/1/1/gpx.xsd http://www.garmin.com/xmlschemas/GpxExtensions/v3 http://www8.garmin.com/xmlschemas/GpxExtensionsv3.xsd http://www.garmin.com/xmlschemas/WaypointExtension/v1 http://www8.garmin.com/xmlschemas/WaypointExtensionv1.xsd http://www.garmin.com/xmlschemas/TrackPointExtension/v1 http://www.garmin.com/xmlschemas/TrackPointExtensionv1.xsd"><metadata><link href="http://www.garmin.com"><text>Garmin International</text></link><time>2023-12-10T01:17:57Z</time></metadata><wpt lat="15.142925" lon="73.945184"><ele>-3.526985</ele><time>2023-12-10T01:17:57Z</time><name>153</name><sym>Flag, Blue</sym></wpt><wpt lat="15.138174" lon="73.935513"><ele>-1.246674</ele><time>2023-12-10T01:22:57Z</time><name>154</name><sym>Flag, Blue</sym></wpt><wpt lat="15.135733" lon="73.924856"><ele>-0.650093</ele><time>2023-12-10T01:28:28Z</time><name>155</name><sym>Flag, Blue</sym></wpt><wpt lat="15.128722" lon="73.924348"><ele>-2.419029</ele><time>2023-12-10T01:32:51Z</time><name>156</name><sym>Flag, Blue</sym></wpt><wpt lat="15.117688" lon="73.929585"><ele>1.138481</ele><time>2023-12-10T01:39:05Z</time><name>157</name><sym>Flag, Blue</sym></wpt><wpt lat="15.115337" lon="73.922918"><ele>-0.089188</ele><time>2023-12-10T01:43:38Z</time><name>158</name><sym>Flag, Blue</sym></wpt><wpt lat="15.109649" lon="73.914133"><ele>0.689232</ele><time>2023-12-10T01:49:26Z</time><name>159</name><sym>Flag, Blue</sym></wpt><wpt lat="15.101051" lon="73.919835"><ele>0.971504</ele><time>2023-12-10T01:54:44Z</time><name>160</name><sym>Flag, Blue</sym></wpt><wpt lat="15.095208" lon="73.918583"><ele>2.790306</ele><time>2023-12-10T01:59:15Z</time><name>161</name><sym>Flag, Blue</sym></wpt><wpt lat="15.087442" lon="73.910101"><ele>2.587662</ele><time>2023-12-10T02:05:07Z</time><name>162</name><sym>Flag, Blue</sym></wpt><wpt lat="15.082359" lon="73.904686"><ele>2.510445</ele><time>2023-12-10T02:10:38Z</time><name>163</name><sym>Flag, Blue</sym></wpt><wpt lat="15.078635" lon="73.918862"><ele>2.320335</ele><time>2023-12-10T02:18:58Z</time><name>164</name><sym>Flag, Blue</sym></wpt><wpt lat="15.077224" lon="73.928174"><ele>2.889961</ele><time>2023-12-10T02:24:56Z</time><name>165</name><sym>Flag, Blue</sym></wpt><wpt lat="15.069080" lon="73.930986"><ele>3.546494</ele><time>2023-12-10T02:29:46Z</time><name>166</name><sym>Flag, Blue</sym></wpt><wpt lat="15.061449" lon="73.933080"><ele>2.118378</ele><time>2023-12-10T02:34:15Z</time><name>167</name><sym>Flag, Blue</sym></wpt><wpt lat="15.057684" lon="73.934959"><ele>2.509796</ele><time>2023-12-10T02:36:54Z</time><name>168</name><sym>Flag, Blue</sym></wpt><wpt lat="15.058322" lon="73.950233"><ele>3.260315</ele><time>2023-12-10T02:45:29Z</time><name>169</name><sym>Flag, Blue</sym></wpt><wpt lat="15.059330" lon="73.957046"><ele>2.569786</ele><time>2023-12-10T02:49:16Z</time><name>170</name><sym>Flag, Blue</sym></wpt><wpt lat="15.060594" lon="73.961300"><ele>4.964256</ele><time>2023-12-10T02:51:41Z</time><name>171</name><sym>Flag, Blue</sym></wpt><wpt lat="15.056944" lon="73.961343"><ele>1.967300</ele><time>2023-12-10T02:54:47Z</time><name>172</name><sym>Flag, Blue</sym></wpt><wpt lat="15.042505" lon="73.952112"><ele>3.612267</ele><time>2023-12-10T03:04:13Z</time><name>173</name><sym>Flag, Blue</sym></wpt><wpt lat="15.035686" lon="73.952438"><ele>2.784904</ele><time>2023-12-10T03:10:06Z</time><name>174</name><sym>Flag, Blue</sym></wpt><wpt lat="15.032622" lon="73.959728"><ele>2.378471</ele><time>2023-12-10T03:14:46Z</time><name>175</name><sym>Flag, Blue</sym></wpt><wpt lat="15.026372" lon="73.976102"><ele>2.436020</ele><time>2023-12-10T03:24:30Z</time><name>176</name><sym>Flag, Blue</sym></wpt><wpt lat="15.024551" lon="73.983215"><ele>3.940636</ele><time>2023-12-10T03:28:36Z</time><name>177</name><sym>Flag, Blue</sym></wpt><wpt lat="15.023808" lon="73.984812"><ele>3.376450</ele><time>2023-12-10T03:29:58Z</time><name>178</name><sym>Flag, Blue</sym></wpt><wpt lat="15.017737" lon="73.983687"><ele>3.071487</ele><time>2023-12-10T03:33:34Z</time><name>179</name><sym>Flag, Blue</sym></wpt><wpt lat="15.008572" lon="73.984660"><ele>1.643616</ele><time>2023-12-10T03:40:41Z</time><name>180</name><sym>Flag, Blue</sym></wpt><wpt lat="15.006321" lon="73.993228"><ele>0.940849</ele><time>2023-12-10T03:45:51Z</time><name>181</name><sym>Flag, Blue</sym></wpt><wpt lat="15.001925" lon="74.007116"><ele>-1.311127</ele><time>2023-12-10T03:54:01Z</time><name>182</name><sym>Flag, Blue</sym></wpt><wpt lat="15.000375" lon="74.011596"><ele>-1.123329</ele><time>2023-12-10T03:56:35Z</time><name>183</name><sym>Flag, Blue</sym></wpt><wpt lat="14.999339" lon="74.014950"><ele>-0.448860</ele><time>2023-12-10T03:58:37Z</time><name>184</name><sym>Flag, Blue</sym></wpt><wpt lat="14.995730" lon="74.026361"><ele>-0.859184</ele><time>2023-12-10T04:05:20Z</time><name>185</name><sym>Flag, Blue</sym></wpt><wpt lat="14.991863" lon="74.029516"><ele>2.288483</ele><time>2023-12-10T04:09:32Z</time><name>186</name><sym>Flag, Blue</sym></wpt><wpt lat="14.985883" lon="74.024698"><ele>2.203911</ele><time>2023-12-10T04:13:36Z</time><name>187</name><sym>Flag, Blue</sym></wpt><wpt lat="14.980164" lon="74.017799"><ele>2.251328</ele><time>2023-12-10T04:18:20Z</time><name>188</name><sym>Flag, Blue</sym></wpt><wpt lat="14.975813" lon="74.015353"><ele>0.545334</ele><time>2023-12-10T04:21:03Z</time><name>189</name><sym>Flag, Blue</sym></wpt><wpt lat="14.970843" lon="74.019196"><ele>-0.295685</ele><time>2023-12-10T04:25:26Z</time><name>190</name><sym>Flag, Blue</sym></wpt><wpt lat="14.969389" lon="74.021297"><ele>1.110924</ele><time>2023-12-10T04:26:51Z</time><name>191</name><sym>Flag, Blue</sym></wpt><wpt lat="14.963912" lon="74.033283"><ele>1.924721</ele><time>2023-12-10T04:34:04Z</time><name>192</name><sym>Flag, Blue</sym></wpt><wpt lat="14.960135" lon="74.040877"><ele>3.374199</ele><time>2023-12-10T04:38:38Z</time><name>193</name><sym>Flag, Blue</sym></wpt><wpt lat="14.954041" lon="74.042829"><ele>-0.391136</ele><time>2023-12-10T04:43:12Z</time><name>194</name><sym>Flag, Blue</sym></wpt><wpt lat="14.953059" lon="74.039394"><ele>-1.528450</ele><time>2023-12-10T04:45:02Z</time><name>195</name><sym>Flag, Blue</sym></wpt><wpt lat="14.951581" lon="74.035343"><ele>-0.693474</ele><time>2023-12-10T04:47:19Z</time><name>196</name><sym>Flag, Blue</sym></wpt><wpt lat="14.944347" lon="74.024121"><ele>-0.519112</ele><time>2023-12-10T04:54:26Z</time><name>197</name><sym>Flag, Blue</sym></wpt><wpt lat="14.937026" lon="74.025898"><ele>1.286888</ele><time>2023-12-10T05:00:16Z</time><name>198</name><sym>Flag, Blue</sym></wpt><wpt lat="14.931267" lon="74.030435"><ele>3.217178</ele><time>2023-12-10T05:04:27Z</time><name>199</name><sym>Flag, Blue</sym></wpt><wpt lat="14.925582" lon="74.035277"><ele>0.819031</ele><time>2023-12-10T05:08:45Z</time><name>200</name><sym>Flag, Blue</sym></wpt><wpt lat="14.921655" lon="74.039587"><ele>0.712563</ele><time>2023-12-10T05:12:08Z</time><name>201</name><sym>Flag, Blue</sym></wpt><wpt lat="14.925605" lon="74.035935"><ele>0.800781</ele><time>2023-12-10T05:16:59Z</time><name>202</name><sym>Flag, Blue</sym></wpt><wpt lat="14.927547" lon="74.034379"><ele>2.412445</ele><time>2023-12-10T05:18:04Z</time><name>203</name><sym>Flag, Blue</sym></wpt><wpt lat="14.931366" lon="74.030542"><ele>-3.246162</ele><time>2023-12-10T05:20:30Z</time><name>204</name><sym>Flag, Blue</sym></wpt><wpt lat="14.936741" lon="74.025416"><ele>-6.628036</ele><time>2023-12-10T05:23:49Z</time><name>205</name><sym>Flag, Blue</sym></wpt><wpt lat="14.947453" lon="74.018740"><ele>-0.786003</ele><time>2023-12-10T05:29:34Z</time><name>206</name><sym>Flag, Blue</sym></wpt><wpt lat="14.959058" lon="74.019973"><ele>0.675407</ele><time>2023-12-10T05:34:56Z</time><name>207</name><sym>Flag, Blue</sym></wpt><wpt lat="14.966457" lon="74.022197"><ele>-0.292305</ele><time>2023-12-10T05:38:33Z</time><name>208</name><sym>Flag, Blue</sym></wpt><wpt lat="14.976510" lon="74.027022"><ele>-1.660126</ele><time>2023-12-10T05:43:47Z</time><name>209</name><sym>Flag, Blue</sym></wpt><wpt lat="14.978548" lon="74.028369"><ele>-0.690483</ele><time>2023-12-10T05:44:54Z</time><name>210</name><sym>Flag, Blue</sym></wpt><wpt lat="14.980840" lon="74.030061"><ele>3.171539</ele><time>2023-12-10T05:46:19Z</time><name>211</name><sym>Flag, Blue</sym></wpt></gpx>