<?xml version="1.0" encoding="UTF-8" standalone="no" ?><gpx xmlns="http://www.topografix.com/GPX/1/1" xmlns:gpxx="http://www.garmin.com/xmlschemas/GpxExtensions/v3" xmlns:wptx1="http://www.garmin.com/xmlschemas/WaypointExtension/v1" xmlns:gpxtpx="http://www.garmin.com/xmlschemas/TrackPointExtension/v1" creator="eTrex 10 SEA" version="1.1" xmlns:xsi="http://www.w3.org/2001/XMLSchema-instance" xsi:schemaLocation="http://www.topografix.com/GPX/1/1 http://www.topografix.com/GPX/1/1/gpx.xsd http://www.garmin.com/xmlschemas/GpxExtensions/v3 http://www8.garmin.com/xmlschemas/GpxExtensionsv3.xsd http://www.garmin.com/xmlschemas/WaypointExtension/v1 http://www8.garmin.com/xmlschemas/WaypointExtensionv1.xsd http://www.garmin.com/xmlschemas/TrackPointExtension/v1 http://www.garmin.com/xmlschemas/TrackPointExtensionv1.xsd"><metadata><link href="http://www.garmin.com"><text>Garmin International</text></link><time>2023-12-09T01:53:51Z</time></metadata><wpt lat="15.466143" lon="73.787666"><ele>4.304008</ele><time>2023-12-09T01:53:51Z</time><name>102</name><sym>Flag, Blue</sym></wpt><wpt lat="15.456640" lon="73.782140"><ele>2.362228</ele><time>2023-12-09T01:58:55Z</time><name>103</name><sym>Flag, Blue</sym></wpt><wpt lat="15.446568" lon="73.776537"><ele>0.743042</ele><time>2023-12-09T02:03:52Z</time><name>104</name><sym>Flag, Blue</sym></wpt><wpt lat="15.438976" lon="73.771042"><ele>0.828148</ele><time>2023-12-09T02:07:41Z</time><name>105</name><sym>Flag, Blue</sym></wpt><wpt lat="15.435206" lon="73.769012"><ele>0.850304</ele><time>2023-12-09T02:09:35Z</time><name>106</name><sym>Flag, Blue</sym></wpt><wpt lat="15.429762" lon="73.766981"><ele>1.516190</ele><time>2023-12-09T02:12:13Z</time><name>107</name><sym>Flag, Blue</sym></wpt><wpt lat="15.417094" lon="73.758163"><ele>1.172455</ele><time>2023-12-09T02:19:03Z</time><name>108</name><sym>Flag, Blue</sym></wpt><wpt lat="15.408515" lon="73.762062"><ele>0.622803</ele><time>2023-12-09T02:24:45Z</time><name>109</name><sym>Flag, Blue</sym></wpt><wpt lat="15.397785" lon="73.767075"><ele>3.086617</ele><time>2023-12-09T02:30:14Z</time><name>110</name><sym>Flag, Blue</sym></wpt><wpt lat="15.382261" lon="73.775727"><ele>2.205414</ele><time>2023-12-09T02:38:35Z</time><name>111</name><sym>Flag, Blue</sym></wpt><wpt lat="15.370015" lon="73.780382"><ele>0.897591</ele><time>2023-12-09T02:44:59Z</time><name>112</name><sym>Flag, Blue</sym></wpt><wpt lat="15.356294" lon="73.788067"><ele>2.001480</ele><time>2023-12-09T02:52:47Z</time><name>113</name><sym>Flag, Blue</sym></wpt><wpt lat="15.354584" lon="73.800153"><ele>2.401924</ele><time>2023-12-09T02:59:01Z</time><name>114</name><sym>Flag, Blue</sym></wpt><wpt lat="15.354874" lon="73.803779"><ele>3.807167</ele><time>2023-12-09T03:00:49Z</time><name>115</name><sym>Flag, Blue</sym></wpt><wpt lat="15.356381" lon="73.809347"><ele>4.492500</ele><time>2023-12-09T03:03:41Z</time><name>116</name><sym>Flag, Blue</sym></wpt><wpt lat="15.355172" lon="73.821351"><ele>4.499237</ele><time>2023-12-09T03:09:24Z</time><name>117</name><sym>Flag, Blue</sym></wpt><wpt lat="15.355766" lon="73.836833"><ele>3.272980</ele><time>2023-12-09T03:16:52Z</time><name>118</name><sym>Flag, Blue</sym></wpt><wpt lat="15.356598" lon="73.840550"><ele>5.094780</ele><time>2023-12-09T03:18:46Z</time><name>119</name><sym>Flag, Blue</sym></wpt><wpt lat="15.357681" lon="73.847485"><ele>3.054482</ele><time>2023-12-09T03:23:14Z</time><name>120</name><sym>Flag, Blue</sym></wpt><wpt lat="15.361905" lon="73.863722"><ele>2.261124</ele><time>2023-12-09T03:32:13Z</time><name>121</name><sym>Flag, Blue</sym></wpt><wpt lat="15.362666" lon="73.870502"><ele>3.074234</ele><time>2023-12-09T03:36:50Z</time><name>122</name><sym>Flag, Blue</sym></wpt><wpt lat="15.354118" lon="73.865306"><ele>2.192436</ele><time>2023-12-09T03:42:08Z</time><name>123</name><sym>Flag, Blue</sym></wpt><wpt lat="15.343988" lon="73.863882"><ele>0.571686</ele><time>2023-12-09T03:47:54Z</time><name>124</name><sym>Flag, Blue</sym></wpt><wpt lat="15.340612" lon="73.876284"><ele>1.636169</ele><time>2023-12-09T03:54:47Z</time><name>125</name><sym>Flag, Blue</sym></wpt><wpt lat="15.334643" lon="73.888348"><ele>1.477196</ele><time>2023-12-09T04:02:32Z</time><name>126</name><sym>Flag, Blue</sym></wpt><wpt lat="15.331403" lon="73.885806"><ele>-0.806259</ele><time>2023-12-09T04:04:38Z</time><name>127</name><sym>Flag, Blue</sym></wpt><wpt lat="15.323878" lon="73.881635"><ele>-0.425957</ele><time>2023-12-09T04:09:07Z</time><name>128</name><sym>Flag, Blue</sym></wpt><wpt lat="15.316362" lon="73.876673"><ele>-1.030289</ele><time>2023-12-09T04:13:44Z</time><name>129</name><sym>Flag, Blue</sym></wpt><wpt lat="15.307347" lon="73.882665"><ele>-0.421173</ele><time>2023-12-09T04:42:40Z</time><name>130</name><sym>Flag, Blue</sym></wpt><wpt lat="15.301287" lon="73.888091"><ele>-0.765968</ele><time>2023-12-09T04:47:03Z</time><name>131</name><sym>Flag, Blue</sym></wpt><wpt lat="15.294038" lon="73.893438"><ele>3.255302</ele><time>2023-12-09T04:51:57Z</time><name>132</name><sym>Flag, Blue</sym></wpt><wpt lat="15.286326" lon="73.898918"><ele>3.192589</ele><time>2023-12-09T05:00:47Z</time><name>133</name><sym>Flag, Blue</sym></wpt><wpt lat="15.277104" lon="73.891751"><ele>1.845329</ele><time>2023-12-09T05:07:00Z</time><name>134</name><sym>Flag, Blue</sym></wpt><wpt lat="15.271943" lon="73.894677"><ele>-0.879143</ele><time>2023-12-09T05:11:09Z</time><name>135</name><sym>Flag, Blue</sym></wpt><wpt lat="15.265557" lon="73.904788"><ele>5.220360</ele><time>2023-12-09T05:17:17Z</time><name>136</name><sym>Flag, Blue</sym></wpt><wpt lat="15.257587" lon="73.911289"><ele>2.397972</ele><time>2023-12-09T05:23:39Z</time><name>137</name><sym>Flag, Blue</sym></wpt><wpt lat="15.244385" lon="73.907272"><ele>0.716125</ele><time>2023-12-09T05:30:37Z</time><name>138</name><sym>Flag, Blue</sym></wpt><wpt lat="15.235086" lon="73.913627"><ele>1.735619</ele><time>2023-12-09T05:37:05Z</time><name>139</name><sym>Flag, Blue</sym></wpt><wpt lat="15.229884" lon="73.921946"><ele>0.054634</ele><time>2023-12-09T05:42:54Z</time><name>140</name><sym>Flag, Blue</sym></wpt><wpt lat="15.219770" lon="73.916997"><ele>-1.284737</ele><time>2023-12-09T05:49:01Z</time><name>141</name><sym>Flag, Blue</sym></wpt><wpt lat="15.218591" lon="73.916383"><ele>0.901138</ele><time>2023-12-09T05:49:57Z</time><name>142</name><sym>Flag, Blue</sym></wpt><wpt lat="15.210593" lon="73.913349"><ele>-0.370872</ele><time>2023-12-09T05:55:23Z</time><name>143</name><sym>Flag, Blue</sym></wpt><wpt lat="15.200585" lon="73.913663"><ele>-0.520348</ele><time>2023-12-09T06:00:59Z</time><name>144</name><sym>Flag, Blue</sym></wpt><wpt lat="15.194634" lon="73.922091"><ele>-1.214378</ele><time>2023-12-09T06:06:08Z</time><name>145</name><sym>Flag, Blue</sym></wpt><wpt lat="15.190436" lon="73.928399"><ele>1.056763</ele><time>2023-12-09T06:09:56Z</time><name>146</name><sym>Flag, Blue</sym></wpt><wpt lat="15.189305" lon="73.930634"><ele>0.163414</ele><time>2023-12-09T06:11:11Z</time><name>147</name><sym>Flag, Blue</sym></wpt><wpt lat="15.179010" lon="73.934900"><ele>-5.844490</ele><time>2023-12-09T06:17:34Z</time><name>148</name><sym>Flag, Blue</sym></wpt><wpt lat="15.170112" lon="73.930875"><ele>-1.858055</ele><time>2023-12-09T06:22:34Z</time><name>149</name><sym>Flag, Blue</sym></wpt><wpt lat="15.158186" lon="73.927413"><ele>-0.090508</ele><time>2023-12-09T06:30:08Z</time><name>150</name><sym>Flag, Blue</sym></wpt><wpt lat="15.150701" lon="73.936795"><ele>-0.706680</ele><time>2023-12-09T06:35:51Z</time><name>151</name><sym>Flag, Blue</sym></wpt><wpt lat="15.144125" lon="73.944847"><ele>4.158722</ele><time>2023-12-09T06:41:00Z</time><name>152</name><sym>Flag, Blue</sym></wpt></gpx>