<?xml version="1.0" encoding="UTF-8" standalone="no" ?><gpx xmlns="http://www.topografix.com/GPX/1/1" xmlns:gpxx="http://www.garmin.com/xmlschemas/GpxExtensions/v3" xmlns:wptx1="http://www.garmin.com/xmlschemas/WaypointExtension/v1" xmlns:gpxtpx="http://www.garmin.com/xmlschemas/TrackPointExtension/v1" creator="eTrex 10 SEA" version="1.1" xmlns:xsi="http://www.w3.org/2001/XMLSchema-instance" xsi:schemaLocation="http://www.topografix.com/GPX/1/1 http://www.topografix.com/GPX/1/1/gpx.xsd http://www.garmin.com/xmlschemas/GpxExtensions/v3 http://www8.garmin.com/xmlschemas/GpxExtensionsv3.xsd http://www.garmin.com/xmlschemas/WaypointExtension/v1 http://www8.garmin.com/xmlschemas/WaypointExtensionv1.xsd http://www.garmin.com/xmlschemas/TrackPointExtension/v1 http://www.garmin.com/xmlschemas/TrackPointExtensionv1.xsd"><metadata><link href="http://www.garmin.com"><text>Garmin International</text></link><time>2023-12-13T01:20:25Z</time></metadata><wpt lat="15.466140" lon="73.790386"><ele>1.184532</ele><time>2023-12-13T01:20:25Z</time><name>310</name><sym>Flag, Blue</sym></wpt><wpt lat="15.462631" lon="73.784864"><ele>0.044403</ele><time>2023-12-13T01:25:34Z</time><name>311</name><sym>Flag, Blue</sym></wpt><wpt lat="15.455216" lon="73.790465"><ele>-0.270828</ele><time>2023-12-13T01:30:33Z</time><name>312</name><sym>Flag, Blue</sym></wpt><wpt lat="15.447642" lon="73.798380"><ele>-0.907005</ele><time>2023-12-13T01:36:07Z</time><name>313</name><sym>Flag, Blue</sym></wpt><wpt lat="15.443265" lon="73.806455"><ele>-0.295158</ele><time>2023-12-13T01:40:49Z</time><name>314</name><sym>Flag, Blue</sym></wpt><wpt lat="15.439098" lon="73.814570"><ele>0.190292</ele><time>2023-12-13T01:45:29Z</time><name>315</name><sym>Flag, Blue</sym></wpt><wpt lat="15.434054" lon="73.824726"><ele>1.043457</ele><time>2023-12-13T01:51:34Z</time><name>316</name><sym>Flag, Blue</sym></wpt><wpt lat="15.432885" lon="73.819166"><ele>0.601471</ele><time>2023-12-13T01:56:04Z</time><name>317</name><sym>Flag, Blue</sym></wpt><wpt lat="15.433647" lon="73.802426"><ele>0.788292</ele><time>2023-12-13T02:04:34Z</time><name>318</name><sym>Flag, Blue</sym></wpt><wpt lat="15.436527" lon="73.792535"><ele>1.577095</ele><time>2023-12-13T02:09:46Z</time><name>319</name><sym>Flag, Blue</sym></wpt><wpt lat="15.443704" lon="73.782203"><ele>0.397057</ele><time>2023-12-13T02:16:34Z</time><name>320</name><sym>Flag, Blue</sym></wpt><wpt lat="15.452554" lon="73.778725"><ele>1.973557</ele><time>2023-12-13T02:21:32Z</time><name>321</name><sym>Flag, Blue</sym></wpt><wpt lat="15.460848" lon="73.776706"><ele>2.931046</ele><time>2023-12-13T02:25:57Z</time><name>322</name><sym>Flag, Blue</sym></wpt><wpt lat="15.467411" lon="73.774341"><ele>1.698776</ele><time>2023-12-13T02:29:36Z</time><name>323</name><sym>Flag, Blue</sym></wpt><wpt lat="15.470524" lon="73.773739"><ele>2.390274</ele><time>2023-12-13T02:31:18Z</time><name>324</name><sym>Flag, Blue</sym></wpt><wpt lat="15.479489" lon="73.770630"><ele>0.981606</ele><time>2023-12-13T02:36:10Z</time><name>325</name><sym>Flag, Blue</sym></wpt><wpt lat="15.490140" lon="73.766055"><ele>1.269035</ele><time>2023-12-13T02:42:31Z</time><name>326</name><sym>Flag, Blue</sym></wpt><wpt lat="15.500486" lon="73.756170"><ele>1.569901</ele><time>2023-12-13T02:50:07Z</time><name>327</name><sym>Flag, Blue</sym></wpt><wpt lat="15.505874" lon="73.744464"><ele>0.540390</ele><time>2023-12-13T02:56:36Z</time><name>328</name><sym>Flag, Blue</sym></wpt><wpt lat="15.510882" lon="73.740615"><ele>2.753242</ele><time>2023-12-13T03:01:12Z</time><name>329</name><sym>Flag, Blue</sym></wpt><wpt lat="15.518269" lon="73.747077"><ele>3.381470</ele><time>2023-12-13T03:06:19Z</time><name>330</name><sym>Flag, Blue</sym></wpt><wpt lat="15.524142" lon="73.750524"><ele>0.256920</ele><time>2023-12-13T03:09:53Z</time><name>331</name><sym>Flag, Blue</sym></wpt><wpt lat="15.527252" lon="73.751718"><ele>1.630287</ele><time>2023-12-13T03:17:07Z</time><name>332</name><sym>Flag, Blue</sym></wpt><wpt lat="15.535706" lon="73.754394"><ele>2.092484</ele><time>2023-12-13T03:21:49Z</time><name>333</name><sym>Flag, Blue</sym></wpt><wpt lat="15.539988" lon="73.749019"><ele>2.458878</ele><time>2023-12-13T03:25:29Z</time><name>334</name><sym>Flag, Blue</sym></wpt><wpt lat="15.545478" lon="73.740760"><ele>1.309608</ele><time>2023-12-13T03:30:42Z</time><name>335</name><sym>Flag, Blue</sym></wpt><wpt lat="15.552534" lon="73.732890"><ele>2.444763</ele><time>2023-12-13T03:36:42Z</time><name>336</name><sym>Flag, Blue</sym></wpt><wpt lat="15.567781" lon="73.739161"><ele>2.957047</ele><time>2023-12-13T03:46:09Z</time><name>337</name><sym>Flag, Blue</sym></wpt><wpt lat="15.577468" lon="73.735627"><ele>1.297859</ele><time>2023-12-13T03:51:59Z</time><name>338</name><sym>Flag, Blue</sym></wpt><wpt lat="15.583280" lon="73.730207"><ele>4.011856</ele><time>2023-12-13T03:56:10Z</time><name>339</name><sym>Flag, Blue</sym></wpt><wpt lat="15.589502" lon="73.720125"><ele>1.948921</ele><time>2023-12-13T04:02:14Z</time><name>340</name><sym>Flag, Blue</sym></wpt><wpt lat="15.596302" lon="73.722269"><ele>4.814240</ele><time>2023-12-13T04:06:49Z</time><name>341</name><sym>Flag, Blue</sym></wpt><wpt lat="15.598647" lon="73.723738"><ele>5.728973</ele><time>2023-12-13T04:08:15Z</time><name>342</name><sym>Flag, Blue</sym></wpt><wpt lat="15.605117" lon="73.726130"><ele>6.605461</ele><time>2023-12-13T04:12:28Z</time><name>343</name><sym>Flag, Blue</sym></wpt><wpt lat="15.609189" lon="73.732529"><ele>7.688622</ele><time>2023-12-13T04:15:41Z</time><name>344</name><sym>Flag, Blue</sym></wpt></gpx>