<?xml version="1.0" encoding="UTF-8" standalone="no" ?><gpx xmlns="http://www.topografix.com/GPX/1/1" xmlns:gpxx="http://www.garmin.com/xmlschemas/GpxExtensions/v3" xmlns:wptx1="http://www.garmin.com/xmlschemas/WaypointExtension/v1" xmlns:gpxtpx="http://www.garmin.com/xmlschemas/TrackPointExtension/v1" creator="eTrex 10 SEA" version="1.1" xmlns:xsi="http://www.w3.org/2001/XMLSchema-instance" xsi:schemaLocation="http://www.topografix.com/GPX/1/1 http://www.topografix.com/GPX/1/1/gpx.xsd http://www.garmin.com/xmlschemas/GpxExtensions/v3 http://www8.garmin.com/xmlschemas/GpxExtensionsv3.xsd http://www.garmin.com/xmlschemas/WaypointExtension/v1 http://www8.garmin.com/xmlschemas/WaypointExtensionv1.xsd http://www.garmin.com/xmlschemas/TrackPointExtension/v1 http://www.garmin.com/xmlschemas/TrackPointExtensionv1.xsd"><metadata><link href="http://www.garmin.com"><text>Garmin International</text></link><time>2023-12-07T01:59:48Z</time></metadata><wpt lat="15.605681" lon="73.724407"><ele>0.912560</ele><time>2023-12-07T01:59:48Z</time><name>001</name><sym>Flag, Blue</sym></wpt><wpt lat="15.603888" lon="73.715831"><ele>-0.755844</ele><time>2023-12-07T02:04:35Z</time><name>002</name><sym>Flag, Blue</sym></wpt><wpt lat="15.603445" lon="73.709041"><ele>0.013748</ele><time>2023-12-07T02:08:16Z</time><name>003</name><sym>Flag, Blue</sym></wpt><wpt lat="15.604822" lon="73.701346"><ele>-0.090866</ele><time>2023-12-07T02:12:30Z</time><name>004</name><sym>Flag, Blue</sym></wpt><wpt lat="15.607145" lon="73.693076"><ele>-0.161705</ele><time>2023-12-07T02:17:20Z</time><name>005</name><sym>Flag, Blue</sym></wpt><wpt lat="15.609926" lon="73.683765"><ele>-0.339470</ele><time>2023-12-07T02:22:35Z</time><name>006</name><sym>Flag, Blue</sym></wpt><wpt lat="15.611888" lon="73.675865"><ele>0.761032</ele><time>2023-12-07T02:27:06Z</time><name>007</name><sym>Flag, Blue</sym></wpt><wpt lat="15.611231" lon="73.665510"><ele>1.536041</ele><time>2023-12-07T02:32:47Z</time><name>008</name><sym>Flag, Blue</sym></wpt><wpt lat="15.611228" lon="73.655633"><ele>0.091843</ele><time>2023-12-07T02:37:56Z</time><name>009</name><sym>Flag, Blue</sym></wpt><wpt lat="15.611641" lon="73.647289"><ele>1.447433</ele><time>2023-12-07T02:42:06Z</time><name>010</name><sym>Flag, Blue</sym></wpt><wpt lat="15.618815" lon="73.654270"><ele>1.379845</ele><time>2023-12-07T02:48:59Z</time><name>011</name><sym>Flag, Blue</sym></wpt><wpt lat="15.624234" lon="73.660068"><ele>4.992729</ele><time>2023-12-07T02:53:28Z</time><name>012</name><sym>Flag, Blue</sym></wpt><wpt lat="15.632425" lon="73.661075"><ele>0.281822</ele><time>2023-12-07T02:58:00Z</time><name>013</name><sym>Flag, Blue</sym></wpt><wpt lat="15.641313" lon="73.662354"><ele>-2.368988</ele><time>2023-12-07T03:02:48Z</time><name>014</name><sym>Flag, Blue</sym></wpt><wpt lat="15.650470" lon="73.664197"><ele>0.135429</ele><time>2023-12-07T03:07:48Z</time><name>015</name><sym>Flag, Blue</sym></wpt><wpt lat="15.658582" lon="73.665349"><ele>0.307884</ele><time>2023-12-07T03:12:11Z</time><name>016</name><sym>Flag, Blue</sym></wpt><wpt lat="15.667805" lon="73.665202"><ele>0.755409</ele><time>2023-12-07T03:17:03Z</time><name>017</name><sym>Flag, Blue</sym></wpt><wpt lat="15.671022" lon="73.664988"><ele>0.089851</ele><time>2023-12-07T03:22:35Z</time><name>018</name><sym>Flag, Blue</sym></wpt><wpt lat="15.680588" lon="73.664308"><ele>-1.916916</ele><time>2023-12-07T03:27:41Z</time><name>019</name><sym>Flag, Blue</sym></wpt><wpt lat="15.688187" lon="73.662618"><ele>0.101669</ele><time>2023-12-07T03:32:15Z</time><name>020</name><sym>Flag, Blue</sym></wpt><wpt lat="15.696202" lon="73.662673"><ele>0.889084</ele><time>2023-12-07T03:37:28Z</time><name>021</name><sym>Flag, Blue</sym></wpt><wpt lat="15.702471" lon="73.664388"><ele>0.907204</ele><time>2023-12-07T03:41:36Z</time><name>022</name><sym>Flag, Blue</sym></wpt><wpt lat="15.711166" lon="73.673394"><ele>-0.283714</ele><time>2023-12-07T03:49:24Z</time><name>023</name><sym>Flag, Blue</sym></wpt><wpt lat="15.715615" lon="73.677049"><ele>-1.481026</ele><time>2023-12-07T03:53:14Z</time><name>024</name><sym>Flag, Blue</sym></wpt><wpt lat="15.716884" lon="73.678149"><ele>-0.546478</ele><time>2023-12-07T03:54:23Z</time><name>025</name><sym>Flag, Blue</sym></wpt><wpt lat="15.720536" lon="73.681491"><ele>-0.830276</ele><time>2023-12-07T03:57:56Z</time><name>026</name><sym>Flag, Blue</sym></wpt><wpt lat="15.717035" lon="73.681850"><ele>-1.921791</ele><time>2023-12-07T04:09:01Z</time><name>027</name><sym>Flag, Blue</sym></wpt><wpt lat="15.709080" lon="73.678933"><ele>1.043999</ele><time>2023-12-07T04:13:51Z</time><name>028</name><sym>Flag, Blue</sym></wpt><wpt lat="15.701903" lon="73.675642"><ele>1.972549</ele><time>2023-12-07T04:18:40Z</time><name>029</name><sym>Flag, Blue</sym></wpt><wpt lat="15.693892" lon="73.675248"><ele>-1.493500</ele><time>2023-12-07T04:24:22Z</time><name>030</name><sym>Flag, Blue</sym></wpt><wpt lat="15.687964" lon="73.671357"><ele>0.875969</ele><time>2023-12-07T04:29:01Z</time><name>031</name><sym>Flag, Blue</sym></wpt><wpt lat="15.681229" lon="73.667190"><ele>-0.624504</ele><time>2023-12-07T04:34:01Z</time><name>032</name><sym>Flag, Blue</sym></wpt><wpt lat="15.681128" lon="73.671851"><ele>1.859230</ele><time>2023-12-07T04:39:55Z</time><name>033</name><sym>Flag, Blue</sym></wpt><wpt lat="15.680430" lon="73.677640"><ele>-0.036301</ele><time>2023-12-07T04:43:57Z</time><name>034</name><sym>Flag, Blue</sym></wpt><wpt lat="15.675902" lon="73.686039"><ele>3.761475</ele><time>2023-12-07T04:50:42Z</time><name>035</name><sym>Flag, Blue</sym></wpt><wpt lat="15.672910" lon="73.690804"><ele>3.911461</ele><time>2023-12-07T04:54:36Z</time><name>036</name><sym>Flag, Blue</sym></wpt><wpt lat="15.669804" lon="73.696011"><ele>3.392937</ele><time>2023-12-07T04:58:41Z</time><name>037</name><sym>Flag, Blue</sym></wpt><wpt lat="15.664451" lon="73.702040"><ele>7.720810</ele><time>2023-12-07T05:04:03Z</time><name>038</name><sym>Flag, Blue</sym></wpt><wpt lat="15.660642" lon="73.706681"><ele>1.791252</ele><time>2023-12-07T05:07:57Z</time><name>039</name><sym>Flag, Blue</sym></wpt><wpt lat="15.652587" lon="73.704918"><ele>1.999016</ele><time>2023-12-07T05:14:35Z</time><name>040</name><sym>Flag, Blue</sym></wpt><wpt lat="15.645703" lon="73.699785"><ele>4.173981</ele><time>2023-12-07T05:19:46Z</time><name>041</name><sym>Flag, Blue</sym></wpt><wpt lat="15.636225" lon="73.694201"><ele>8.566536</ele><time>2023-12-07T05:26:40Z</time><name>042</name><sym>Flag, Blue</sym></wpt><wpt lat="15.633327" lon="73.692423"><ele>8.306244</ele><time>2023-12-07T05:28:45Z</time><name>043</name><sym>Flag, Blue</sym></wpt><wpt lat="15.624557" lon="73.688257"><ele>11.206253</ele><time>2023-12-07T05:34:45Z</time><name>044</name><sym>Flag, Blue</sym></wpt><wpt lat="15.619298" lon="73.686055"><ele>3.794434</ele><time>2023-12-07T05:39:27Z</time><name>045</name><sym>Flag, Blue</sym></wpt><wpt lat="15.615584" lon="73.692707"><ele>5.465416</ele><time>2023-12-07T05:44:28Z</time><name>046</name><sym>Flag, Blue</sym></wpt><wpt lat="15.614314" lon="73.698610"><ele>2.219627</ele><time>2023-12-07T05:48:26Z</time><name>047</name><sym>Flag, Blue</sym></wpt><wpt lat="15.612238" lon="73.704386"><ele>5.699829</ele><time>2023-12-07T05:52:21Z</time><name>048</name><sym>Flag, Blue</sym></wpt><wpt lat="15.609139" lon="73.713374"><ele>2.687431</ele><time>2023-12-07T05:58:45Z</time><name>049</name><sym>Flag, Blue</sym></wpt><wpt lat="15.607431" lon="73.719796"><ele>-1.216324</ele><time>2023-12-07T06:03:19Z</time><name>050</name><sym>Flag, Blue</sym></wpt><wpt lat="15.606500" lon="73.728366"><ele>-3.559280</ele><time>2023-12-07T06:08:40Z</time><name>051</name><sym>Flag, Blue</sym></wpt><wpt lat="15.609106" lon="73.734682"><ele>-2.322693</ele><time>2023-12-07T06:13:04Z</time><name>052</name><sym>Flag, Blue</sym></wpt></gpx>