<?xml version="1.0" encoding="UTF-8" standalone="no" ?><gpx xmlns="http://www.topografix.com/GPX/1/1" xmlns:gpxx="http://www.garmin.com/xmlschemas/GpxExtensions/v3" xmlns:wptx1="http://www.garmin.com/xmlschemas/WaypointExtension/v1" xmlns:gpxtpx="http://www.garmin.com/xmlschemas/TrackPointExtension/v1" creator="eTrex 10 SEA" version="1.1" xmlns:xsi="http://www.w3.org/2001/XMLSchema-instance" xsi:schemaLocation="http://www.topografix.com/GPX/1/1 http://www.topografix.com/GPX/1/1/gpx.xsd http://www.garmin.com/xmlschemas/GpxExtensions/v3 http://www8.garmin.com/xmlschemas/GpxExtensionsv3.xsd http://www.garmin.com/xmlschemas/WaypointExtension/v1 http://www8.garmin.com/xmlschemas/WaypointExtensionv1.xsd http://www.garmin.com/xmlschemas/TrackPointExtension/v1 http://www.garmin.com/xmlschemas/TrackPointExtensionv1.xsd"><metadata><link href="http://www.garmin.com"><text>Garmin International</text></link><time>2023-12-11T01:30:39Z</time></metadata><wpt lat="14.984544" lon="74.037971"><ele>-3.300552</ele><time>2023-12-11T01:30:39Z</time><name>212</name><sym>Flag, Blue</sym></wpt><wpt lat="14.982590" lon="74.027840"><ele>0.720634</ele><time>2023-12-11T01:36:14Z</time><name>213</name><sym>Flag, Blue</sym></wpt><wpt lat="14.981302" lon="74.019098"><ele>0.529076</ele><time>2023-12-11T01:40:55Z</time><name>214</name><sym>Flag, Blue</sym></wpt><wpt lat="14.985999" lon="74.016260"><ele>0.697655</ele><time>2023-12-11T01:47:07Z</time><name>215</name><sym>Flag, Blue</sym></wpt><wpt lat="14.990506" lon="74.022525"><ele>2.385811</ele><time>2023-12-11T01:51:24Z</time><name>216</name><sym>Flag, Blue</sym></wpt><wpt lat="14.991631" lon="74.024162"><ele>1.550560</ele><time>2023-12-11T01:52:28Z</time><name>217</name><sym>Flag, Blue</sym></wpt><wpt lat="14.994477" lon="74.025344"><ele>1.300056</ele><time>2023-12-11T01:54:42Z</time><name>218</name><sym>Flag, Blue</sym></wpt><wpt lat="14.997746" lon="74.025169"><ele>1.831657</ele><time>2023-12-11T01:56:48Z</time><name>219</name><sym>Flag, Blue</sym></wpt><wpt lat="15.003598" lon="74.017058"><ele>0.384361</ele><time>2023-12-11T02:02:35Z</time><name>220</name><sym>Flag, Blue</sym></wpt><wpt lat="15.011253" lon="73.995304"><ele>1.130875</ele><time>2023-12-11T02:14:31Z</time><name>221</name><sym>Flag, Blue</sym></wpt><wpt lat="15.011397" lon="73.994071"><ele>1.803841</ele><time>2023-12-11T02:15:09Z</time><name>222</name><sym>Flag, Blue</sym></wpt><wpt lat="15.012965" lon="73.984833"><ele>1.361221</ele><time>2023-12-11T02:19:51Z</time><name>223</name><sym>Flag, Blue</sym></wpt><wpt lat="15.020550" lon="73.966182"><ele>0.160263</ele><time>2023-12-11T02:30:18Z</time><name>224</name><sym>Flag, Blue</sym></wpt><wpt lat="15.028755" lon="73.973564"><ele>1.873825</ele><time>2023-12-11T02:36:06Z</time><name>225</name><sym>Flag, Blue</sym></wpt><wpt lat="15.034249" lon="73.981296"><ele>0.470596</ele><time>2023-12-11T02:41:06Z</time><name>226</name><sym>Flag, Blue</sym></wpt><wpt lat="15.035598" lon="73.982521"><ele>1.308662</ele><time>2023-12-11T02:42:09Z</time><name>227</name><sym>Flag, Blue</sym></wpt><wpt lat="15.037576" lon="73.976415"><ele>-0.393303</ele><time>2023-12-11T02:45:24Z</time><name>228</name><sym>Flag, Blue</sym></wpt><wpt lat="15.041713" lon="73.963378"><ele>0.097649</ele><time>2023-12-11T02:52:18Z</time><name>229</name><sym>Flag, Blue</sym></wpt><wpt lat="15.055222" lon="73.962045"><ele>4.590996</ele><time>2023-12-11T03:01:32Z</time><name>230</name><sym>Flag, Blue</sym></wpt><wpt lat="15.059596" lon="73.957447"><ele>3.618317</ele><time>2023-12-11T03:08:53Z</time><name>231</name><sym>Flag, Blue</sym></wpt><wpt lat="15.056854" lon="73.940648"><ele>-0.284142</ele><time>2023-12-11T03:17:54Z</time><name>232</name><sym>Flag, Blue</sym></wpt><wpt lat="15.057650" lon="73.940414"><ele>1.310402</ele><time>2023-12-11T03:18:19Z</time><name>233</name><sym>Flag, Blue</sym></wpt><wpt lat="15.066695" lon="73.936968"><ele>2.955994</ele><time>2023-12-11T03:23:16Z</time><name>234</name><sym>Flag, Blue</sym></wpt><wpt lat="15.067782" lon="73.936312"><ele>3.641144</ele><time>2023-12-11T03:23:55Z</time><name>235</name><sym>Flag, Blue</sym></wpt><wpt lat="15.075409" lon="73.925536"><ele>3.549408</ele><time>2023-12-11T03:31:42Z</time><name>236</name><sym>Flag, Blue</sym></wpt><wpt lat="15.075469" lon="73.915707"><ele>1.950806</ele><time>2023-12-11T03:36:38Z</time><name>237</name><sym>Flag, Blue</sym></wpt><wpt lat="15.082566" lon="73.897289"><ele>2.427284</ele><time>2023-12-11T03:46:27Z</time><name>238</name><sym>Flag, Blue</sym></wpt><wpt lat="15.088684" lon="73.901801"><ele>5.035225</ele><time>2023-12-11T03:51:48Z</time><name>239</name><sym>Flag, Blue</sym></wpt><wpt lat="15.094366" lon="73.911223"><ele>1.247078</ele><time>2023-12-11T03:58:11Z</time><name>240</name><sym>Flag, Blue</sym></wpt><wpt lat="15.098973" lon="73.919369"><ele>3.089653</ele><time>2023-12-11T04:03:52Z</time><name>241</name><sym>Flag, Blue</sym></wpt><wpt lat="15.105913" lon="73.916610"><ele>1.467369</ele><time>2023-12-11T04:08:41Z</time><name>242</name><sym>Flag, Blue</sym></wpt><wpt lat="15.112359" lon="73.911915"><ele>5.070145</ele><time>2023-12-11T04:13:12Z</time><name>243</name><sym>Flag, Blue</sym></wpt><wpt lat="15.119113" lon="73.931316"><ele>6.430069</ele><time>2023-12-11T04:24:43Z</time><name>244</name><sym>Flag, Blue</sym></wpt><wpt lat="15.125285" lon="73.936936"><ele>5.359512</ele><time>2023-12-11T04:29:50Z</time><name>245</name><sym>Flag, Blue</sym></wpt><wpt lat="15.126451" lon="73.935190"><ele>3.991203</ele><time>2023-12-11T04:30:56Z</time><name>246</name><sym>Flag, Blue</sym></wpt><wpt lat="15.133550" lon="73.926478"><ele>3.913696</ele><time>2023-12-11T04:37:06Z</time><name>247</name><sym>Flag, Blue</sym></wpt><wpt lat="15.137143" lon="73.921008"><ele>2.636902</ele><time>2023-12-11T04:40:46Z</time><name>248</name><sym>Flag, Blue</sym></wpt><wpt lat="15.139186" lon="73.932555"><ele>4.478851</ele><time>2023-12-11T04:46:59Z</time><name>249</name><sym>Flag, Blue</sym></wpt><wpt lat="15.140822" lon="73.939923"><ele>9.329773</ele><time>2023-12-11T04:50:49Z</time><name>250</name><sym>Flag, Blue</sym></wpt><wpt lat="15.142546" lon="73.948138"><ele>7.322929</ele><time>2023-12-11T04:57:07Z</time><name>251</name><sym>Flag, Blue</sym></wpt></gpx>