<?xml version="1.0" encoding="UTF-8" standalone="no" ?><gpx xmlns="http://www.topografix.com/GPX/1/1" xmlns:gpxx="http://www.garmin.com/xmlschemas/GpxExtensions/v3" xmlns:wptx1="http://www.garmin.com/xmlschemas/WaypointExtension/v1" xmlns:gpxtpx="http://www.garmin.com/xmlschemas/TrackPointExtension/v1" creator="eTrex 10 SEA" version="1.1" xmlns:xsi="http://www.w3.org/2001/XMLSchema-instance" xsi:schemaLocation="http://www.topografix.com/GPX/1/1 http://www.topografix.com/GPX/1/1/gpx.xsd http://www.garmin.com/xmlschemas/GpxExtensions/v3 http://www8.garmin.com/xmlschemas/GpxExtensionsv3.xsd http://www.garmin.com/xmlschemas/WaypointExtension/v1 http://www8.garmin.com/xmlschemas/WaypointExtensionv1.xsd http://www.garmin.com/xmlschemas/TrackPointExtension/v1 http://www.garmin.com/xmlschemas/TrackPointExtensionv1.xsd"><metadata><link href="http://www.garmin.com"><text>Garmin International</text></link><time>2025-11-14T01:19:31Z</time></metadata><wpt lat="15.462939" lon="73.797316"><ele>-2.801682</ele><time>2025-11-14T01:19:31Z</time><name>746</name><sym>Flag, Blue</sym></wpt><wpt lat="15.466424" lon="73.789309"><ele>-1.481110</ele><time>2025-11-14T01:23:57Z</time><name>747</name><sym>Flag, Blue</sym></wpt><wpt lat="15.461948" lon="73.781828"><ele>-1.344536</ele><time>2025-11-14T01:28:16Z</time><name>748</name><sym>Flag, Blue</sym></wpt><wpt lat="15.456307" lon="73.777997"><ele>-1.385475</ele><time>2025-11-14T01:31:35Z</time><name>749</name><sym>Flag, Blue</sym></wpt><wpt lat="15.454353" lon="73.777284"><ele>-1.199524</ele><time>2025-11-14T01:32:36Z</time><name>750</name><sym>Flag, Blue</sym></wpt><wpt lat="15.446623" lon="73.772662"><ele>-0.650536</ele><time>2025-11-14T01:37:08Z</time><name>751</name><sym>Flag, Blue</sym></wpt><wpt lat="15.444666" lon="73.771909"><ele>-0.214592</ele><time>2025-11-14T01:38:09Z</time><name>752</name><sym>Flag, Blue</sym></wpt><wpt lat="15.443449" lon="73.771528"><ele>-0.029686</ele><time>2025-11-14T01:38:47Z</time><name>753</name><sym>Flag, Blue</sym></wpt><wpt lat="15.438526" lon="73.769924"><ele>0.594795</ele><time>2025-11-14T01:41:20Z</time><name>754</name><sym>Flag, Blue</sym></wpt><wpt lat="15.428952" lon="73.765295"><ele>-0.234283</ele><time>2025-11-14T01:46:29Z</time><name>755</name><sym>Flag, Blue</sym></wpt><wpt lat="15.422930" lon="73.759856"><ele>1.463753</ele><time>2025-11-14T01:50:36Z</time><name>756</name><sym>Flag, Blue</sym></wpt><wpt lat="15.416264" lon="73.763649"><ele>0.377441</ele><time>2025-11-14T01:54:44Z</time><name>757</name><sym>Flag, Blue</sym></wpt><wpt lat="15.409270" lon="73.769735"><ele>0.624443</ele><time>2025-11-14T01:59:41Z</time><name>758</name><sym>Flag, Blue</sym></wpt><wpt lat="15.402737" lon="73.774423"><ele>1.217163</ele><time>2025-11-14T02:04:17Z</time><name>759</name><sym>Flag, Blue</sym></wpt><wpt lat="15.401383" lon="73.775718"><ele>-0.068695</ele><time>2025-11-14T02:05:27Z</time><name>760</name><sym>Flag, Blue</sym></wpt><wpt lat="15.396335" lon="73.782191"><ele>0.219872</ele><time>2025-11-14T02:10:09Z</time><name>761</name><sym>Flag, Blue</sym></wpt><wpt lat="15.392542" lon="73.790893"><ele>0.153214</ele><time>2025-11-14T02:15:08Z</time><name>762</name><sym>Flag, Blue</sym></wpt><wpt lat="15.389007" lon="73.799542"><ele>1.777519</ele><time>2025-11-14T02:19:59Z</time><name>763</name><sym>Flag, Blue</sym></wpt><wpt lat="15.380142" lon="73.799558"><ele>1.801361</ele><time>2025-11-14T02:25:02Z</time><name>764</name><sym>Flag, Blue</sym></wpt><wpt lat="15.371569" lon="73.800277"><ele>2.829849</ele><time>2025-11-14T02:29:30Z</time><name>765</name><sym>Flag, Blue</sym></wpt><wpt lat="15.368648" lon="73.806863"><ele>1.645744</ele><time>2025-11-14T02:33:46Z</time><name>766</name><sym>Flag, Blue</sym></wpt><wpt lat="15.367365" lon="73.816177"><ele>1.601028</ele><time>2025-11-14T02:38:42Z</time><name>767</name><sym>Flag, Blue</sym></wpt><wpt lat="15.367122" lon="73.822101"><ele>0.641655</ele><time>2025-11-14T02:41:51Z</time><name>768</name><sym>Flag, Blue</sym></wpt><wpt lat="15.367249" lon="73.825214"><ele>1.063438</ele><time>2025-11-14T02:43:29Z</time><name>769</name><sym>Flag, Blue</sym></wpt><wpt lat="15.362922" lon="73.830434"><ele>2.052048</ele><time>2025-11-14T02:48:21Z</time><name>770</name><sym>Flag, Blue</sym></wpt><wpt lat="15.355893" lon="73.834684"><ele>1.406944</ele><time>2025-11-14T02:53:17Z</time><name>771</name><sym>Flag, Blue</sym></wpt><wpt lat="15.355814" lon="73.844175"><ele>1.653900</ele><time>2025-11-14T02:58:54Z</time><name>772</name><sym>Flag, Blue</sym></wpt><wpt lat="15.359134" lon="73.852804"><ele>2.020210</ele><time>2025-11-14T03:03:40Z</time><name>773</name><sym>Flag, Blue</sym></wpt><wpt lat="15.362069" lon="73.861222"><ele>1.308144</ele><time>2025-11-14T03:08:11Z</time><name>774</name><sym>Flag, Blue</sym></wpt><wpt lat="15.366161" lon="73.867884"><ele>-0.218079</ele><time>2025-11-14T03:12:07Z</time><name>775</name><sym>Flag, Blue</sym></wpt><wpt lat="15.357569" lon="73.865815"><ele>-0.862259</ele><time>2025-11-14T03:18:30Z</time><name>776</name><sym>Flag, Blue</sym></wpt><wpt lat="15.353101" lon="73.865242"><ele>-3.374329</ele><time>2025-11-14T03:21:05Z</time><name>777</name><sym>Flag, Blue</sym></wpt><wpt lat="15.349471" lon="73.870095"><ele>0.351753</ele><time>2025-11-14T03:24:06Z</time><name>778</name><sym>Flag, Blue</sym></wpt><wpt lat="15.348776" lon="73.871272"><ele>-1.096352</ele><time>2025-11-14T03:24:47Z</time><name>779</name><sym>Flag, Blue</sym></wpt><wpt lat="15.347861" lon="73.872683"><ele>-0.138260</ele><time>2025-11-14T03:25:58Z</time><name>780</name><sym>Flag, Blue</sym></wpt><wpt lat="15.343604" lon="73.880784"><ele>0.113754</ele><time>2025-11-14T03:30:56Z</time><name>781</name><sym>Flag, Blue</sym></wpt><wpt lat="15.339112" lon="73.888429"><ele>-1.345161</ele><time>2025-11-14T03:35:42Z</time><name>782</name><sym>Flag, Blue</sym></wpt><wpt lat="15.334041" lon="73.887782"><ele>-0.708900</ele><time>2025-11-14T03:38:42Z</time><name>783</name><sym>Flag, Blue</sym></wpt><wpt lat="15.331775" lon="73.887251"><ele>-0.471008</ele><time>2025-11-14T03:39:56Z</time><name>784</name><sym>Flag, Blue</sym></wpt><wpt lat="15.330602" lon="73.886591"><ele>-0.236969</ele><time>2025-11-14T03:40:39Z</time><name>785</name><sym>Flag, Blue</sym></wpt><wpt lat="15.329813" lon="73.886100"><ele>-0.818161</ele><time>2025-11-14T03:41:09Z</time><name>786</name><sym>Flag, Blue</sym></wpt><wpt lat="15.322419" lon="73.881332"><ele>-1.407639</ele><time>2025-11-14T03:45:50Z</time><name>787</name><sym>Flag, Blue</sym></wpt><wpt lat="15.315102" lon="73.880779"><ele>1.226852</ele><time>2025-11-14T03:50:22Z</time><name>788</name><sym>Flag, Blue</sym></wpt><wpt lat="15.315003" lon="73.880859"><ele>1.214691</ele><time>2025-11-14T03:50:26Z</time><name>789</name><sym>Flag, Blue</sym></wpt><wpt lat="15.314928" lon="73.880930"><ele>0.762512</ele><time>2025-11-14T03:50:30Z</time><name>790</name><sym>Flag, Blue</sym></wpt><wpt lat="15.308452" lon="73.887875"><ele>-0.943306</ele><time>2025-11-14T03:55:41Z</time><name>791</name><sym>Flag, Blue</sym></wpt><wpt lat="15.302037" lon="73.893815"><ele>-1.688797</ele><time>2025-11-14T04:00:25Z</time><name>792</name><sym>Flag, Blue</sym></wpt><wpt lat="15.296367" lon="73.899344"><ele>-1.021545</ele><time>2025-11-14T04:04:41Z</time><name>793</name><sym>Flag, Blue</sym></wpt><wpt lat="15.283228" lon="73.897008"><ele>-2.934525</ele><time>2025-11-14T04:14:06Z</time><name>794</name><sym>Flag, Blue</sym></wpt><wpt lat="15.280931" lon="73.894410"><ele>-1.401024</ele><time>2025-11-14T04:15:57Z</time><name>795</name><sym>Flag, Blue</sym></wpt><wpt lat="15.275865" lon="73.893868"><ele>-0.526947</ele><time>2025-11-14T04:19:03Z</time><name>796</name><sym>Flag, Blue</sym></wpt><wpt lat="15.267974" lon="73.898261"><ele>1.348213</ele><time>2025-11-14T04:24:08Z</time><name>797</name><sym>Flag, Blue</sym></wpt><wpt lat="15.261159" lon="73.904309"><ele>0.785385</ele><time>2025-11-14T04:29:11Z</time><name>798</name><sym>Flag, Blue</sym></wpt><wpt lat="15.256020" lon="73.911909"><ele>-1.265869</ele><time>2025-11-14T04:34:11Z</time><name>799</name><sym>Flag, Blue</sym></wpt><wpt lat="15.249183" lon="73.916838"><ele>-0.089706</ele><time>2025-11-14T04:39:00Z</time><name>800</name><sym>Flag, Blue</sym></wpt><wpt lat="15.248328" lon="73.916203"><ele>0.691071</ele><time>2025-11-14T04:39:33Z</time><name>801</name><sym>Flag, Blue</sym></wpt><wpt lat="15.243361" lon="73.914157"><ele>0.746338</ele><time>2025-11-14T04:42:25Z</time><name>802</name><sym>Flag, Blue</sym></wpt><wpt lat="15.242180" lon="73.913434"><ele>2.244858</ele><time>2025-11-14T04:43:09Z</time><name>803</name><sym>Flag, Blue</sym></wpt><wpt lat="15.239345" lon="73.911812"><ele>0.213135</ele><time>2025-11-14T04:44:53Z</time><name>804</name><sym>Flag, Blue</sym></wpt><wpt lat="15.235847" lon="73.910577"><ele>0.613144</ele><time>2025-11-14T04:50:22Z</time><name>805</name><sym>Flag, Blue</sym></wpt><wpt lat="15.232373" lon="73.908766"><ele>0.847351</ele><time>2025-11-14T04:52:22Z</time><name>806</name><sym>Flag, Blue</sym></wpt><wpt lat="15.229441" lon="73.907659"><ele>0.054253</ele><time>2025-11-14T04:53:58Z</time><name>807</name><sym>Flag, Blue</sym></wpt><wpt lat="15.220330" lon="73.915379"><ele>0.630478</ele><time>2025-11-14T05:01:12Z</time><name>808</name><sym>Flag, Blue</sym></wpt><wpt lat="15.213792" lon="73.921197"><ele>-5.952209</ele><time>2025-11-14T05:05:49Z</time><name>809</name><sym>Flag, Blue</sym></wpt><wpt lat="15.206965" lon="73.927119"><ele>-2.126694</ele><time>2025-11-14T05:10:25Z</time><name>810</name><sym>Flag, Blue</sym></wpt><wpt lat="15.199547" lon="73.932504"><ele>-2.059715</ele><time>2025-11-14T05:15:03Z</time><name>811</name><sym>Flag, Blue</sym></wpt><wpt lat="15.191134" lon="73.932219"><ele>-1.910362</ele><time>2025-11-14T05:19:31Z</time><name>812</name><sym>Flag, Blue</sym></wpt><wpt lat="15.174350" lon="73.926165"><ele>1.835663</ele><time>2025-11-14T05:28:27Z</time><name>813</name><sym>Flag, Blue</sym></wpt><wpt lat="15.158413" lon="73.935484"><ele>0.688721</ele><time>2025-11-14T05:37:11Z</time><name>814</name><sym>Flag, Blue</sym></wpt><wpt lat="15.152354" lon="73.940197"><ele>2.309853</ele><time>2025-11-14T05:40:41Z</time><name>815</name><sym>Flag, Blue</sym></wpt><wpt lat="15.144963" lon="73.944493"><ele>-3.027847</ele><time>2025-11-14T05:44:32Z</time><name>816</name><sym>Flag, Blue</sym></wpt><wpt lat="15.142066" lon="73.950731"><ele>-1.986244</ele><time>2025-11-14T05:48:37Z</time><name>817</name><sym>Flag, Blue</sym></wpt></gpx>