<?xml version="1.0" encoding="UTF-8" standalone="no" ?><gpx xmlns="http://www.topografix.com/GPX/1/1" xmlns:gpxx="http://www.garmin.com/xmlschemas/GpxExtensions/v3" xmlns:wptx1="http://www.garmin.com/xmlschemas/WaypointExtension/v1" xmlns:gpxtpx="http://www.garmin.com/xmlschemas/TrackPointExtension/v1" creator="eTrex 10 SEA" version="1.1" xmlns:xsi="http://www.w3.org/2001/XMLSchema-instance" xsi:schemaLocation="http://www.topografix.com/GPX/1/1 http://www.topografix.com/GPX/1/1/gpx.xsd http://www.garmin.com/xmlschemas/GpxExtensions/v3 http://www8.garmin.com/xmlschemas/GpxExtensionsv3.xsd http://www.garmin.com/xmlschemas/WaypointExtension/v1 http://www8.garmin.com/xmlschemas/WaypointExtensionv1.xsd http://www.garmin.com/xmlschemas/TrackPointExtension/v1 http://www.garmin.com/xmlschemas/TrackPointExtensionv1.xsd"><metadata><link href="http://www.garmin.com"><text>Garmin International</text></link><time>2025-11-13T01:26:14Z</time></metadata><wpt lat="15.614290" lon="73.737692"><ele>4.014450</ele><time>2025-11-13T01:26:14Z</time><name>714</name><sym>Flag, Blue</sym></wpt><wpt lat="15.608969" lon="73.732099"><ele>-1.879616</ele><time>2025-11-13T01:30:00Z</time><name>715</name><sym>Flag, Blue</sym></wpt><wpt lat="15.606019" lon="73.724705"><ele>-0.901894</ele><time>2025-11-13T01:34:26Z</time><name>716</name><sym>Flag, Blue</sym></wpt><wpt lat="15.599717" lon="73.717430"><ele>-1.340370</ele><time>2025-11-13T01:39:16Z</time><name>717</name><sym>Flag, Blue</sym></wpt><wpt lat="15.592851" lon="73.714513"><ele>-0.090408</ele><time>2025-11-13T01:43:39Z</time><name>718</name><sym>Flag, Blue</sym></wpt><wpt lat="15.586720" lon="73.722282"><ele>-2.044579</ele><time>2025-11-13T01:48:50Z</time><name>719</name><sym>Flag, Blue</sym></wpt><wpt lat="15.580052" lon="73.727544"><ele>-1.493996</ele><time>2025-11-13T01:53:26Z</time><name>720</name><sym>Flag, Blue</sym></wpt><wpt lat="15.576296" lon="73.730164"><ele>-1.288925</ele><time>2025-11-13T01:55:55Z</time><name>721</name><sym>Flag, Blue</sym></wpt><wpt lat="15.572819" lon="73.732845"><ele>-2.046394</ele><time>2025-11-13T01:58:18Z</time><name>722</name><sym>Flag, Blue</sym></wpt><wpt lat="15.566278" lon="73.737107"><ele>-0.473251</ele><time>2025-11-13T02:03:12Z</time><name>723</name><sym>Flag, Blue</sym></wpt><wpt lat="15.558075" lon="73.732518"><ele>-1.866936</ele><time>2025-11-13T02:08:16Z</time><name>724</name><sym>Flag, Blue</sym></wpt><wpt lat="15.550981" lon="73.736963"><ele>-3.507500</ele><time>2025-11-13T02:13:22Z</time><name>725</name><sym>Flag, Blue</sym></wpt><wpt lat="15.546022" lon="73.744238"><ele>-0.986504</ele><time>2025-11-13T02:18:08Z</time><name>726</name><sym>Flag, Blue</sym></wpt><wpt lat="15.540628" lon="73.751421"><ele>-1.975441</ele><time>2025-11-13T02:28:32Z</time><name>727</name><sym>Flag, Blue</sym></wpt><wpt lat="15.540191" lon="73.752407"><ele>-1.600708</ele><time>2025-11-13T02:29:11Z</time><name>728</name><sym>Flag, Blue</sym></wpt><wpt lat="15.539369" lon="73.753419"><ele>-2.031364</ele><time>2025-11-13T02:29:59Z</time><name>729</name><sym>Flag, Blue</sym></wpt><wpt lat="15.533179" lon="73.751117"><ele>-1.798874</ele><time>2025-11-13T02:33:58Z</time><name>730</name><sym>Flag, Blue</sym></wpt><wpt lat="15.525873" lon="73.747220"><ele>-1.572128</ele><time>2025-11-13T02:38:23Z</time><name>731</name><sym>Flag, Blue</sym></wpt><wpt lat="15.519228" lon="73.747014"><ele>0.435638</ele><time>2025-11-13T02:43:35Z</time><name>732</name><sym>Flag, Blue</sym></wpt><wpt lat="15.518852" lon="73.748779"><ele>-0.316223</ele><time>2025-11-13T02:44:34Z</time><name>733</name><sym>Flag, Blue</sym></wpt><wpt lat="15.516392" lon="73.755270"><ele>0.601562</ele><time>2025-11-13T02:48:23Z</time><name>734</name><sym>Flag, Blue</sym></wpt><wpt lat="15.511058" lon="73.761648"><ele>0.213341</ele><time>2025-11-13T02:53:18Z</time><name>735</name><sym>Flag, Blue</sym></wpt><wpt lat="15.509234" lon="73.760766"><ele>0.815041</ele><time>2025-11-13T02:54:26Z</time><name>736</name><sym>Flag, Blue</sym></wpt><wpt lat="15.503048" lon="73.757473"><ele>0.257454</ele><time>2025-11-13T02:58:14Z</time><name>737</name><sym>Flag, Blue</sym></wpt><wpt lat="15.495119" lon="73.754467"><ele>2.678040</ele><time>2025-11-13T03:03:02Z</time><name>738</name><sym>Flag, Blue</sym></wpt><wpt lat="15.490935" lon="73.763476"><ele>2.748688</ele><time>2025-11-13T03:08:32Z</time><name>739</name><sym>Flag, Blue</sym></wpt><wpt lat="15.488757" lon="73.768815"><ele>2.743156</ele><time>2025-11-13T03:11:50Z</time><name>740</name><sym>Flag, Blue</sym></wpt><wpt lat="15.488277" lon="73.771628"><ele>4.335411</ele><time>2025-11-13T03:13:28Z</time><name>741</name><sym>Flag, Blue</sym></wpt><wpt lat="15.489580" lon="73.783779"><ele>3.664391</ele><time>2025-11-13T03:20:39Z</time><name>742</name><sym>Flag, Blue</sym></wpt><wpt lat="15.487766" lon="73.789178"><ele>4.583168</ele><time>2025-11-13T03:24:13Z</time><name>743</name><sym>Flag, Blue</sym></wpt><wpt lat="15.479617" lon="73.793497"><ele>4.373932</ele><time>2025-11-13T03:29:24Z</time><name>744</name><sym>Flag, Blue</sym></wpt><wpt lat="15.470979" lon="73.793172"><ele>4.731705</ele><time>2025-11-13T03:33:54Z</time><name>745</name><sym>Flag, Blue</sym></wpt><wpt lat="15.462888" lon="73.796944"><ele>3.834007</ele><time>2025-11-13T03:38:54Z</time><name>746</name><sym>Flag, Blue</sym></wpt></gpx>