<?xml version="1.0" encoding="UTF-8" standalone="no" ?><gpx xmlns="http://www.topografix.com/GPX/1/1" xmlns:gpxx="http://www.garmin.com/xmlschemas/GpxExtensions/v3" xmlns:wptx1="http://www.garmin.com/xmlschemas/WaypointExtension/v1" xmlns:gpxtpx="http://www.garmin.com/xmlschemas/TrackPointExtension/v1" creator="eTrex 10 SEA" version="1.1" xmlns:xsi="http://www.w3.org/2001/XMLSchema-instance" xsi:schemaLocation="http://www.topografix.com/GPX/1/1 http://www.topografix.com/GPX/1/1/gpx.xsd http://www.garmin.com/xmlschemas/GpxExtensions/v3 http://www8.garmin.com/xmlschemas/GpxExtensionsv3.xsd http://www.garmin.com/xmlschemas/WaypointExtension/v1 http://www8.garmin.com/xmlschemas/WaypointExtensionv1.xsd http://www.garmin.com/xmlschemas/TrackPointExtension/v1 http://www.garmin.com/xmlschemas/TrackPointExtensionv1.xsd"><metadata><link href="http://www.garmin.com"><text>Garmin International</text></link><time>2025-11-17T01:00:57Z</time></metadata><wpt lat="15.142397" lon="73.949613"><ele>-1.730171</ele><time>2025-11-17T01:00:57Z</time><name>931</name><sym>Flag, Blue</sym></wpt><wpt lat="15.146018" lon="73.940616"><ele>-0.724586</ele><time>2025-11-17T01:05:49Z</time><name>932</name><sym>Flag, Blue</sym></wpt><wpt lat="15.148998" lon="73.937193"><ele>-1.717384</ele><time>2025-11-17T01:07:59Z</time><name>933</name><sym>Flag, Blue</sym></wpt><wpt lat="15.151219" lon="73.933469"><ele>-1.010956</ele><time>2025-11-17T01:10:04Z</time><name>934</name><sym>Flag, Blue</sym></wpt><wpt lat="15.152477" lon="73.930508"><ele>1.262314</ele><time>2025-11-17T01:11:35Z</time><name>935</name><sym>Flag, Blue</sym></wpt><wpt lat="15.153028" lon="73.928609"><ele>-1.212547</ele><time>2025-11-17T01:12:31Z</time><name>936</name><sym>Flag, Blue</sym></wpt><wpt lat="15.154457" lon="73.925816"><ele>-0.204681</ele><time>2025-11-17T01:14:10Z</time><name>937</name><sym>Flag, Blue</sym></wpt><wpt lat="15.161738" lon="73.929139"><ele>-0.631645</ele><time>2025-11-17T01:18:43Z</time><name>938</name><sym>Flag, Blue</sym></wpt><wpt lat="15.164716" lon="73.931418"><ele>2.136391</ele><time>2025-11-17T01:20:35Z</time><name>939</name><sym>Flag, Blue</sym></wpt><wpt lat="15.169087" lon="73.935599"><ele>2.329315</ele><time>2025-11-17T01:23:36Z</time><name>940</name><sym>Flag, Blue</sym></wpt><wpt lat="15.173394" lon="73.933311"><ele>-1.453415</ele><time>2025-11-17T01:27:51Z</time><name>941</name><sym>Flag, Blue</sym></wpt><wpt lat="15.178789" lon="73.923582"><ele>0.745155</ele><time>2025-11-17T01:33:14Z</time><name>942</name><sym>Flag, Blue</sym></wpt><wpt lat="15.182772" lon="73.917912"><ele>0.435303</ele><time>2025-11-17T01:36:44Z</time><name>943</name><sym>Flag, Blue</sym></wpt><wpt lat="15.191656" lon="73.917879"><ele>0.197510</ele><time>2025-11-17T01:41:20Z</time><name>944</name><sym>Flag, Blue</sym></wpt><wpt lat="15.202486" lon="73.922131"><ele>1.103760</ele><time>2025-11-17T01:47:13Z</time><name>945</name><sym>Flag, Blue</sym></wpt><wpt lat="15.206626" lon="73.924545"><ele>0.638542</ele><time>2025-11-17T01:49:34Z</time><name>946</name><sym>Flag, Blue</sym></wpt><wpt lat="15.208247" lon="73.925704"><ele>1.242203</ele><time>2025-11-17T01:50:32Z</time><name>947</name><sym>Flag, Blue</sym></wpt><wpt lat="15.209937" lon="73.926611"><ele>1.339767</ele><time>2025-11-17T01:51:28Z</time><name>948</name><sym>Flag, Blue</sym></wpt><wpt lat="15.215359" lon="73.926487"><ele>1.911507</ele><time>2025-11-17T01:54:24Z</time><name>949</name><sym>Flag, Blue</sym></wpt><wpt lat="15.220216" lon="73.918979"><ele>0.137779</ele><time>2025-11-17T01:58:43Z</time><name>950</name><sym>Flag, Blue</sym></wpt><wpt lat="15.225305" lon="73.912207"><ele>0.894753</ele><time>2025-11-17T02:03:12Z</time><name>951</name><sym>Flag, Blue</sym></wpt><wpt lat="15.234364" lon="73.914001"><ele>2.218292</ele><time>2025-11-17T02:07:43Z</time><name>952</name><sym>Flag, Blue</sym></wpt><wpt lat="15.241654" lon="73.918871"><ele>3.457077</ele><time>2025-11-17T02:11:58Z</time><name>953</name><sym>Flag, Blue</sym></wpt><wpt lat="15.250875" lon="73.912735"><ele>1.664505</ele><time>2025-11-17T02:18:04Z</time><name>954</name><sym>Flag, Blue</sym></wpt><wpt lat="15.254239" lon="73.908522"><ele>1.565529</ele><time>2025-11-17T02:20:39Z</time><name>955</name><sym>Flag, Blue</sym></wpt><wpt lat="15.259411" lon="73.900779"><ele>1.336090</ele><time>2025-11-17T02:25:04Z</time><name>956</name><sym>Flag, Blue</sym></wpt><wpt lat="15.266750" lon="73.901437"><ele>3.315544</ele><time>2025-11-17T02:29:14Z</time><name>957</name><sym>Flag, Blue</sym></wpt><wpt lat="15.286227" lon="73.906652"><ele>2.487335</ele><time>2025-11-17T02:39:21Z</time><name>958</name><sym>Flag, Blue</sym></wpt><wpt lat="15.289582" lon="73.899662"><ele>3.263939</ele><time>2025-11-17T02:43:02Z</time><name>959</name><sym>Flag, Blue</sym></wpt><wpt lat="15.294029" lon="73.893613"><ele>3.596191</ele><time>2025-11-17T02:46:32Z</time><name>960</name><sym>Flag, Blue</sym></wpt><wpt lat="15.311826" lon="73.894469"><ele>1.945740</ele><time>2025-11-17T02:56:31Z</time><name>961</name><sym>Flag, Blue</sym></wpt><wpt lat="15.317773" lon="73.895877"><ele>2.170433</ele><time>2025-11-17T02:59:28Z</time><name>962</name><sym>Flag, Blue</sym></wpt><wpt lat="15.324269" lon="73.891255"><ele>2.626282</ele><time>2025-11-17T03:03:48Z</time><name>963</name><sym>Flag, Blue</sym></wpt><wpt lat="15.333687" lon="73.875099"><ele>2.557281</ele><time>2025-11-17T03:12:36Z</time><name>964</name><sym>Flag, Blue</sym></wpt><wpt lat="15.340452" lon="73.874721"><ele>1.115967</ele><time>2025-11-17T03:16:20Z</time><name>965</name><sym>Flag, Blue</sym></wpt><wpt lat="15.341620" lon="73.875188"><ele>1.737892</ele><time>2025-11-17T03:16:56Z</time><name>966</name><sym>Flag, Blue</sym></wpt><wpt lat="15.343997" lon="73.875852"><ele>1.034210</ele><time>2025-11-17T03:18:08Z</time><name>967</name><sym>Flag, Blue</sym></wpt><wpt lat="15.350291" lon="73.877172"><ele>1.063118</ele><time>2025-11-17T03:21:17Z</time><name>968</name><sym>Flag, Blue</sym></wpt><wpt lat="15.358647" lon="73.877584"><ele>3.616882</ele><time>2025-11-17T03:25:39Z</time><name>969</name><sym>Flag, Blue</sym></wpt><wpt lat="15.363341" lon="73.871150"><ele>2.314896</ele><time>2025-11-17T03:29:57Z</time><name>970</name><sym>Flag, Blue</sym></wpt><wpt lat="15.363547" lon="73.861818"><ele>2.901772</ele><time>2025-11-17T03:34:27Z</time><name>971</name><sym>Flag, Blue</sym></wpt><wpt lat="15.360157" lon="73.853137"><ele>2.251259</ele><time>2025-11-17T03:38:48Z</time><name>972</name><sym>Flag, Blue</sym></wpt><wpt lat="15.356950" lon="73.842055"><ele>3.105019</ele><time>2025-11-17T03:44:08Z</time><name>973</name><sym>Flag, Blue</sym></wpt><wpt lat="15.356766" lon="73.834830"><ele>3.605194</ele><time>2025-11-17T03:47:26Z</time><name>974</name><sym>Flag, Blue</sym></wpt><wpt lat="15.359080" lon="73.825911"><ele>6.929390</ele><time>2025-11-17T03:51:39Z</time><name>975</name><sym>Flag, Blue</sym></wpt><wpt lat="15.363477" lon="73.818226"><ele>6.461662</ele><time>2025-11-17T03:55:50Z</time><name>976</name><sym>Flag, Blue</sym></wpt><wpt lat="15.365283" lon="73.816103"><ele>6.160431</ele><time>2025-11-17T03:57:08Z</time><name>977</name><sym>Flag, Blue</sym></wpt><wpt lat="15.368939" lon="73.812011"><ele>8.328094</ele><time>2025-11-17T03:59:41Z</time><name>978</name><sym>Flag, Blue</sym></wpt><wpt lat="15.375513" lon="73.805476"><ele>7.865616</ele><time>2025-11-17T04:03:56Z</time><name>979</name><sym>Flag, Blue</sym></wpt><wpt lat="15.379860" lon="73.798994"><ele>9.066902</ele><time>2025-11-17T04:07:27Z</time><name>980</name><sym>Flag, Blue</sym></wpt><wpt lat="15.380487" lon="73.797592"><ele>10.028160</ele><time>2025-11-17T04:08:08Z</time><name>981</name><sym>Flag, Blue</sym></wpt><wpt lat="15.385920" lon="73.793305"><ele>8.062935</ele><time>2025-11-17T04:11:36Z</time><name>982</name><sym>Flag, Blue</sym></wpt><wpt lat="15.387235" lon="73.792314"><ele>8.121674</ele><time>2025-11-17T04:12:20Z</time><name>983</name><sym>Flag, Blue</sym></wpt><wpt lat="15.388266" lon="73.791572"><ele>8.740746</ele><time>2025-11-17T04:12:55Z</time><name>984</name><sym>Flag, Blue</sym></wpt><wpt lat="15.389493" lon="73.790562"><ele>8.464073</ele><time>2025-11-17T04:13:38Z</time><name>985</name><sym>Flag, Blue</sym></wpt><wpt lat="15.392096" lon="73.789106"><ele>9.348862</ele><time>2025-11-17T04:15:35Z</time><name>986</name><sym>Flag, Blue</sym></wpt><wpt lat="15.393751" lon="73.787636"><ele>9.607918</ele><time>2025-11-17T04:16:40Z</time><name>987</name><sym>Flag, Blue</sym></wpt><wpt lat="15.394801" lon="73.786518"><ele>11.398453</ele><time>2025-11-17T04:17:23Z</time><name>988</name><sym>Flag, Blue</sym></wpt><wpt lat="15.400225" lon="73.779906"><ele>5.344467</ele><time>2025-11-17T04:21:27Z</time><name>989</name><sym>Flag, Blue</sym></wpt><wpt lat="15.407048" lon="73.774058"><ele>5.853378</ele><time>2025-11-17T04:25:51Z</time><name>990</name><sym>Flag, Blue</sym></wpt><wpt lat="15.410770" lon="73.774144"><ele>9.723808</ele><time>2025-11-17T04:28:06Z</time><name>991</name><sym>Flag, Blue</sym></wpt><wpt lat="15.414133" lon="73.776992"><ele>5.125046</ele><time>2025-11-17T04:30:23Z</time><name>992</name><sym>Flag, Blue</sym></wpt><wpt lat="15.420694" lon="73.783420"><ele>10.532402</ele><time>2025-11-17T04:35:20Z</time><name>993</name><sym>Flag, Blue</sym></wpt><wpt lat="15.424093" lon="73.790897"><ele>5.168159</ele><time>2025-11-17T04:40:15Z</time><name>994</name><sym>Flag, Blue</sym></wpt><wpt lat="15.429545" lon="73.801931"><ele>3.307121</ele><time>2025-11-17T04:46:56Z</time><name>995</name><sym>Flag, Blue</sym></wpt><wpt lat="15.432732" lon="73.809126"><ele>1.499062</ele><time>2025-11-17T04:51:26Z</time><name>996</name><sym>Flag, Blue</sym></wpt><wpt lat="15.434632" lon="73.816884"><ele>2.373268</ele><time>2025-11-17T04:55:42Z</time><name>997</name><sym>Flag, Blue</sym></wpt><wpt lat="15.438540" lon="73.825002"><ele>4.183235</ele><time>2025-11-17T05:00:33Z</time><name>998</name><sym>Flag, Blue</sym></wpt><wpt lat="15.442034" lon="73.817396"><ele>5.447426</ele><time>2025-11-17T05:04:50Z</time><name>999</name><sym>Flag, Blue</sym></wpt><wpt lat="15.445385" lon="73.808811"><ele>4.989319</ele><time>2025-11-17T05:08:58Z</time><name>1000</name><sym>Flag, Blue</sym></wpt><wpt lat="15.447022" lon="73.799680"><ele>5.914024</ele><time>2025-11-17T05:13:04Z</time><name>001</name><sym>Flag, Blue</sym></wpt><wpt lat="15.450008" lon="73.791055"><ele>3.806244</ele><time>2025-11-17T05:17:04Z</time><name>002</name><sym>Flag, Blue</sym></wpt><wpt lat="15.455291" lon="73.783635"><ele>2.422020</ele><time>2025-11-17T05:21:07Z</time><name>003</name><sym>Flag, Blue</sym></wpt><wpt lat="15.462900" lon="73.779581"><ele>2.057755</ele><time>2025-11-17T05:25:24Z</time><name>004</name><sym>Flag, Blue</sym></wpt><wpt lat="15.466078" lon="73.781378"><ele>1.414894</ele><time>2025-11-17T05:27:38Z</time><name>005</name><sym>Flag, Blue</sym></wpt><wpt lat="15.466734" lon="73.782616"><ele>1.834908</ele><time>2025-11-17T05:28:22Z</time><name>006</name><sym>Flag, Blue</sym></wpt><wpt lat="15.467447" lon="73.786026"><ele>2.190506</ele><time>2025-11-17T05:30:12Z</time><name>007</name><sym>Flag, Blue</sym></wpt></gpx>