<?xml version="1.0" encoding="UTF-8" standalone="no" ?><gpx xmlns="http://www.topografix.com/GPX/1/1" xmlns:gpxx="http://www.garmin.com/xmlschemas/GpxExtensions/v3" xmlns:wptx1="http://www.garmin.com/xmlschemas/WaypointExtension/v1" xmlns:gpxtpx="http://www.garmin.com/xmlschemas/TrackPointExtension/v1" creator="eTrex 10 SEA" version="1.1" xmlns:xsi="http://www.w3.org/2001/XMLSchema-instance" xsi:schemaLocation="http://www.topografix.com/GPX/1/1 http://www.topografix.com/GPX/1/1/gpx.xsd http://www.garmin.com/xmlschemas/GpxExtensions/v3 http://www8.garmin.com/xmlschemas/GpxExtensionsv3.xsd http://www.garmin.com/xmlschemas/WaypointExtension/v1 http://www8.garmin.com/xmlschemas/WaypointExtensionv1.xsd http://www.garmin.com/xmlschemas/TrackPointExtension/v1 http://www.garmin.com/xmlschemas/TrackPointExtensionv1.xsd"><metadata><link href="http://www.garmin.com"><text>Garmin International</text></link><time>2025-11-18T01:08:42Z</time></metadata><wpt lat="15.464387" lon="73.795906"><ele>-0.349747</ele><time>2025-11-18T01:08:42Z</time><name>008</name><sym>Flag, Blue</sym></wpt><wpt lat="15.468297" lon="73.788004"><ele>-1.974228</ele><time>2025-11-18T01:12:56Z</time><name>009</name><sym>Flag, Blue</sym></wpt><wpt lat="15.468886" lon="73.779224"><ele>-2.814781</ele><time>2025-11-18T01:17:15Z</time><name>010</name><sym>Flag, Blue</sym></wpt><wpt lat="15.469020" lon="73.778235"><ele>-2.552666</ele><time>2025-11-18T01:17:44Z</time><name>011</name><sym>Flag, Blue</sym></wpt><wpt lat="15.470227" lon="73.769783"><ele>-2.692444</ele><time>2025-11-18T01:21:45Z</time><name>012</name><sym>Flag, Blue</sym></wpt><wpt lat="15.472526" lon="73.761027"><ele>-1.995445</ele><time>2025-11-18T01:26:11Z</time><name>013</name><sym>Flag, Blue</sym></wpt><wpt lat="15.478802" lon="73.757032"><ele>-0.621490</ele><time>2025-11-18T01:30:52Z</time><name>014</name><sym>Flag, Blue</sym></wpt><wpt lat="15.487377" lon="73.758481"><ele>-0.914032</ele><time>2025-11-18T01:35:22Z</time><name>015</name><sym>Flag, Blue</sym></wpt><wpt lat="15.496021" lon="73.760861"><ele>-1.130333</ele><time>2025-11-18T01:40:11Z</time><name>016</name><sym>Flag, Blue</sym></wpt><wpt lat="15.504276" lon="73.762240"><ele>-0.544388</ele><time>2025-11-18T01:45:01Z</time><name>017</name><sym>Flag, Blue</sym></wpt><wpt lat="15.511072" lon="73.755749"><ele>-0.314125</ele><time>2025-11-18T01:49:58Z</time><name>018</name><sym>Flag, Blue</sym></wpt><wpt lat="15.516616" lon="73.748989"><ele>-1.098747</ele><time>2025-11-18T01:54:39Z</time><name>019</name><sym>Flag, Blue</sym></wpt><wpt lat="15.524358" lon="73.747415"><ele>-0.989754</ele><time>2025-11-18T01:59:58Z</time><name>020</name><sym>Flag, Blue</sym></wpt><wpt lat="15.525592" lon="73.748005"><ele>-1.390213</ele><time>2025-11-18T02:00:42Z</time><name>021</name><sym>Flag, Blue</sym></wpt><wpt lat="15.526135" lon="73.748295"><ele>-1.173225</ele><time>2025-11-18T02:01:02Z</time><name>022</name><sym>Flag, Blue</sym></wpt><wpt lat="15.530856" lon="73.751446"><ele>-2.064995</ele><time>2025-11-18T02:04:04Z</time><name>023</name><sym>Flag, Blue</sym></wpt><wpt lat="15.532666" lon="73.752773"><ele>-1.069702</ele><time>2025-11-18T02:05:18Z</time><name>024</name><sym>Flag, Blue</sym></wpt><wpt lat="15.534712" lon="73.754171"><ele>-1.564156</ele><time>2025-11-18T02:06:40Z</time><name>025</name><sym>Flag, Blue</sym></wpt><wpt lat="15.536142" lon="73.754518"><ele>-0.617294</ele><time>2025-11-18T02:07:47Z</time><name>026</name><sym>Flag, Blue</sym></wpt><wpt lat="15.538909" lon="73.753253"><ele>-1.314590</ele><time>2025-11-18T02:09:36Z</time><name>027</name><sym>Flag, Blue</sym></wpt><wpt lat="15.541689" lon="73.749777"><ele>-0.665871</ele><time>2025-11-18T02:11:55Z</time><name>028</name><sym>Flag, Blue</sym></wpt><wpt lat="15.542231" lon="73.748881"><ele>-0.509117</ele><time>2025-11-18T02:12:28Z</time><name>029</name><sym>Flag, Blue</sym></wpt><wpt lat="15.542948" lon="73.747663"><ele>-1.263779</ele><time>2025-11-18T02:13:12Z</time><name>030</name><sym>Flag, Blue</sym></wpt><wpt lat="15.543348" lon="73.747090"><ele>-1.147736</ele><time>2025-11-18T02:13:33Z</time><name>031</name><sym>Flag, Blue</sym></wpt><wpt lat="15.544143" lon="73.746026"><ele>-1.780426</ele><time>2025-11-18T02:14:15Z</time><name>032</name><sym>Flag, Blue</sym></wpt><wpt lat="15.545851" lon="73.744156"><ele>-1.719231</ele><time>2025-11-18T02:15:37Z</time><name>033</name><sym>Flag, Blue</sym></wpt><wpt lat="15.549903" lon="73.738898"><ele>-1.070251</ele><time>2025-11-18T02:19:13Z</time><name>034</name><sym>Flag, Blue</sym></wpt><wpt lat="15.557983" lon="73.736198"><ele>-0.506943</ele><time>2025-11-18T02:24:46Z</time><name>035</name><sym>Flag, Blue</sym></wpt><wpt lat="15.567536" lon="73.737822"><ele>-0.772514</ele><time>2025-11-18T02:30:06Z</time><name>036</name><sym>Flag, Blue</sym></wpt><wpt lat="15.574254" lon="73.735531"><ele>-1.080627</ele><time>2025-11-18T02:34:34Z</time><name>037</name><sym>Flag, Blue</sym></wpt><wpt lat="15.586021" lon="73.722430"><ele>-2.022987</ele><time>2025-11-18T02:43:32Z</time><name>038</name><sym>Flag, Blue</sym></wpt><wpt lat="15.593766" lon="73.722360"><ele>-0.829704</ele><time>2025-11-18T02:48:15Z</time><name>039</name><sym>Flag, Blue</sym></wpt><wpt lat="15.601865" lon="73.724895"><ele>-0.095024</ele><time>2025-11-18T02:53:07Z</time><name>040</name><sym>Flag, Blue</sym></wpt><wpt lat="15.605349" lon="73.723483"><ele>-2.616669</ele><time>2025-11-18T02:55:14Z</time><name>041</name><sym>Flag, Blue</sym></wpt><wpt lat="15.610348" lon="73.723051"><ele>-0.442574</ele><time>2025-11-18T02:58:08Z</time><name>042</name><sym>Flag, Blue</sym></wpt><wpt lat="15.620884" lon="73.724065"><ele>-0.868927</ele><time>2025-11-18T03:04:07Z</time><name>043</name><sym>Flag, Blue</sym></wpt><wpt lat="15.626878" lon="73.719773"><ele>-0.660942</ele><time>2025-11-18T03:08:04Z</time><name>044</name><sym>Flag, Blue</sym></wpt><wpt lat="15.640694" lon="73.708481"><ele>0.356773</ele><time>2025-11-18T03:17:25Z</time><name>045</name><sym>Flag, Blue</sym></wpt><wpt lat="15.647005" lon="73.704396"><ele>1.089027</ele><time>2025-11-18T03:21:20Z</time><name>046</name><sym>Flag, Blue</sym></wpt><wpt lat="15.664803" lon="73.701925"><ele>-2.080193</ele><time>2025-11-18T03:31:49Z</time><name>047</name><sym>Flag, Blue</sym></wpt><wpt lat="15.674524" lon="73.702242"><ele>1.060173</ele><time>2025-11-18T03:37:01Z</time><name>048</name><sym>Flag, Blue</sym></wpt><wpt lat="15.681104" lon="73.698996"><ele>-0.173759</ele><time>2025-11-18T03:41:06Z</time><name>049</name><sym>Flag, Blue</sym></wpt><wpt lat="15.686086" lon="73.691258"><ele>0.034996</ele><time>2025-11-18T03:45:49Z</time><name>050</name><sym>Flag, Blue</sym></wpt><wpt lat="15.693089" lon="73.688393"><ele>2.308548</ele><time>2025-11-18T03:50:33Z</time><name>051</name><sym>Flag, Blue</sym></wpt><wpt lat="15.701954" lon="73.689505"><ele>3.104759</ele><time>2025-11-18T03:56:36Z</time><name>052</name><sym>Flag, Blue</sym></wpt><wpt lat="15.712045" lon="73.687312"><ele>3.330544</ele><time>2025-11-18T04:01:48Z</time><name>053</name><sym>Flag, Blue</sym></wpt><wpt lat="15.717776" lon="73.681929"><ele>1.376282</ele><time>2025-11-18T04:06:10Z</time><name>054</name><sym>Flag, Blue</sym></wpt><wpt lat="15.702628" lon="73.677382"><ele>2.738281</ele><time>2025-11-18T04:13:55Z</time><name>055</name><sym>Flag, Blue</sym></wpt><wpt lat="15.696303" lon="73.682319"><ele>-0.078384</ele><time>2025-11-18T04:18:22Z</time><name>056</name><sym>Flag, Blue</sym></wpt><wpt lat="15.687567" lon="73.691727"><ele>1.626114</ele><time>2025-11-18T04:24:33Z</time><name>057</name><sym>Flag, Blue</sym></wpt><wpt lat="15.684094" lon="73.695865"><ele>0.334244</ele><time>2025-11-18T04:27:12Z</time><name>058</name><sym>Flag, Blue</sym></wpt><wpt lat="15.677085" lon="73.701172"><ele>1.081871</ele><time>2025-11-18T04:31:30Z</time><name>059</name><sym>Flag, Blue</sym></wpt><wpt lat="15.668957" lon="73.698000"><ele>1.031548</ele><time>2025-11-18T04:37:05Z</time><name>060</name><sym>Flag, Blue</sym></wpt><wpt lat="15.653668" lon="73.700263"><ele>1.450554</ele><time>2025-11-18T04:45:52Z</time><name>061</name><sym>Flag, Blue</sym></wpt><wpt lat="15.646118" lon="73.707098"><ele>3.714912</ele><time>2025-11-18T04:51:25Z</time><name>062</name><sym>Flag, Blue</sym></wpt><wpt lat="15.640127" lon="73.712325"><ele>4.251907</ele><time>2025-11-18T04:55:31Z</time><name>063</name><sym>Flag, Blue</sym></wpt><wpt lat="15.631991" lon="73.714030"><ele>4.732285</ele><time>2025-11-18T04:59:54Z</time><name>064</name><sym>Flag, Blue</sym></wpt><wpt lat="15.623287" lon="73.714740"><ele>1.415031</ele><time>2025-11-18T05:04:18Z</time><name>065</name><sym>Flag, Blue</sym></wpt><wpt lat="15.616676" lon="73.720677"><ele>-1.387459</ele><time>2025-11-18T05:08:49Z</time><name>066</name><sym>Flag, Blue</sym></wpt><wpt lat="15.609477" lon="73.725615"><ele>-1.494987</ele><time>2025-11-18T05:13:27Z</time><name>067</name><sym>Flag, Blue</sym></wpt><wpt lat="15.607754" lon="73.730283"><ele>0.009071</ele><time>2025-11-18T05:18:37Z</time><name>068</name><sym>Flag, Blue</sym></wpt></gpx>