<?xml version="1.0" encoding="UTF-8" standalone="no" ?><gpx xmlns="http://www.topografix.com/GPX/1/1" xmlns:gpxx="http://www.garmin.com/xmlschemas/GpxExtensions/v3" xmlns:wptx1="http://www.garmin.com/xmlschemas/WaypointExtension/v1" xmlns:gpxtpx="http://www.garmin.com/xmlschemas/TrackPointExtension/v1" creator="eTrex 10 SEA" version="1.1" xmlns:xsi="http://www.w3.org/2001/XMLSchema-instance" xsi:schemaLocation="http://www.topografix.com/GPX/1/1 http://www.topografix.com/GPX/1/1/gpx.xsd http://www.garmin.com/xmlschemas/GpxExtensions/v3 http://www8.garmin.com/xmlschemas/GpxExtensionsv3.xsd http://www.garmin.com/xmlschemas/WaypointExtension/v1 http://www8.garmin.com/xmlschemas/WaypointExtensionv1.xsd http://www.garmin.com/xmlschemas/TrackPointExtension/v1 http://www.garmin.com/xmlschemas/TrackPointExtensionv1.xsd"><metadata><link href="http://www.garmin.com"><text>Garmin International</text></link><time>2025-11-15T01:06:37Z</time></metadata><wpt lat="15.142366" lon="73.949804"><ele>-2.667213</ele><time>2025-11-15T01:06:37Z</time><name>817</name><sym>Flag, Blue</sym></wpt><wpt lat="15.141477" lon="73.942960"><ele>-3.449341</ele><time>2025-11-15T01:10:07Z</time><name>818</name><sym>Flag, Blue</sym></wpt><wpt lat="15.141069" lon="73.940697"><ele>-2.422676</ele><time>2025-11-15T01:12:23Z</time><name>819</name><sym>Flag, Blue</sym></wpt><wpt lat="15.136912" lon="73.933480"><ele>-2.465446</ele><time>2025-11-15T01:16:29Z</time><name>820</name><sym>Flag, Blue</sym></wpt><wpt lat="15.136787" lon="73.933337"><ele>-2.613480</ele><time>2025-11-15T01:16:35Z</time><name>821</name><sym>Flag, Blue</sym></wpt><wpt lat="15.130760" lon="73.931299"><ele>-1.322304</ele><time>2025-11-15T01:20:59Z</time><name>822</name><sym>Flag, Blue</sym></wpt><wpt lat="15.126508" lon="73.934038"><ele>-1.974442</ele><time>2025-11-15T01:23:33Z</time><name>823</name><sym>Flag, Blue</sym></wpt><wpt lat="15.123564" lon="73.935993"><ele>-2.114273</ele><time>2025-11-15T01:25:23Z</time><name>824</name><sym>Flag, Blue</sym></wpt><wpt lat="15.121915" lon="73.935525"><ele>-0.574837</ele><time>2025-11-15T01:26:20Z</time><name>825</name><sym>Flag, Blue</sym></wpt><wpt lat="15.119093" lon="73.934614"><ele>-1.066475</ele><time>2025-11-15T01:27:58Z</time><name>826</name><sym>Flag, Blue</sym></wpt><wpt lat="15.116654" lon="73.931415"><ele>-2.226952</ele><time>2025-11-15T01:30:38Z</time><name>827</name><sym>Flag, Blue</sym></wpt><wpt lat="15.119040" lon="73.922504"><ele>-1.409073</ele><time>2025-11-15T01:35:25Z</time><name>828</name><sym>Flag, Blue</sym></wpt><wpt lat="15.117596" lon="73.913767"><ele>-1.856499</ele><time>2025-11-15T01:40:06Z</time><name>829</name><sym>Flag, Blue</sym></wpt><wpt lat="15.108036" lon="73.915607"><ele>-1.099892</ele><time>2025-11-15T01:45:48Z</time><name>830</name><sym>Flag, Blue</sym></wpt><wpt lat="15.102599" lon="73.920788"><ele>-0.421165</ele><time>2025-11-15T01:49:38Z</time><name>831</name><sym>Flag, Blue</sym></wpt><wpt lat="15.094974" lon="73.921243"><ele>0.033569</ele><time>2025-11-15T01:54:16Z</time><name>832</name><sym>Flag, Blue</sym></wpt><wpt lat="15.090277" lon="73.913782"><ele>-1.329102</ele><time>2025-11-15T01:59:02Z</time><name>833</name><sym>Flag, Blue</sym></wpt><wpt lat="15.086714" lon="73.904868"><ele>-0.784958</ele><time>2025-11-15T02:04:20Z</time><name>834</name><sym>Flag, Blue</sym></wpt><wpt lat="15.082941" lon="73.909909"><ele>-1.039787</ele><time>2025-11-15T02:09:26Z</time><name>835</name><sym>Flag, Blue</sym></wpt><wpt lat="15.080407" lon="73.919525"><ele>-0.795448</ele><time>2025-11-15T02:14:46Z</time><name>836</name><sym>Flag, Blue</sym></wpt><wpt lat="15.077763" lon="73.926363"><ele>-0.029854</ele><time>2025-11-15T02:18:57Z</time><name>837</name><sym>Flag, Blue</sym></wpt><wpt lat="15.069676" lon="73.924030"><ele>0.247429</ele><time>2025-11-15T02:23:52Z</time><name>838</name><sym>Flag, Blue</sym></wpt><wpt lat="15.069281" lon="73.933433"><ele>1.547745</ele><time>2025-11-15T02:28:50Z</time><name>839</name><sym>Flag, Blue</sym></wpt><wpt lat="15.069075" lon="73.942469"><ele>0.274170</ele><time>2025-11-15T02:33:31Z</time><name>840</name><sym>Flag, Blue</sym></wpt><wpt lat="15.069347" lon="73.952569"><ele>-0.122719</ele><time>2025-11-15T02:38:49Z</time><name>841</name><sym>Flag, Blue</sym></wpt><wpt lat="15.062872" lon="73.955344"><ele>0.071854</ele><time>2025-11-15T02:43:07Z</time><name>842</name><sym>Flag, Blue</sym></wpt><wpt lat="15.051311" lon="73.956626"><ele>-0.627380</ele><time>2025-11-15T02:49:19Z</time><name>843</name><sym>Flag, Blue</sym></wpt><wpt lat="15.049126" lon="73.962536"><ele>0.698906</ele><time>2025-11-15T02:53:00Z</time><name>844</name><sym>Flag, Blue</sym></wpt><wpt lat="15.048789" lon="73.965201"><ele>0.655144</ele><time>2025-11-15T02:54:25Z</time><name>845</name><sym>Flag, Blue</sym></wpt><wpt lat="15.048415" lon="73.970882"><ele>0.740211</ele><time>2025-11-15T02:57:26Z</time><name>846</name><sym>Flag, Blue</sym></wpt><wpt lat="15.049202" lon="73.979188"><ele>0.470284</ele><time>2025-11-15T03:02:25Z</time><name>847</name><sym>Flag, Blue</sym></wpt><wpt lat="15.040707" lon="73.975401"><ele>1.139244</ele><time>2025-11-15T03:07:19Z</time><name>848</name><sym>Flag, Blue</sym></wpt><wpt lat="15.033452" lon="73.970914"><ele>0.255798</ele><time>2025-11-15T03:12:07Z</time><name>849</name><sym>Flag, Blue</sym></wpt><wpt lat="15.027804" lon="73.978321"><ele>0.412216</ele><time>2025-11-15T03:17:05Z</time><name>850</name><sym>Flag, Blue</sym></wpt><wpt lat="15.022052" lon="73.985426"><ele>-2.473198</ele><time>2025-11-15T03:22:03Z</time><name>851</name><sym>Flag, Blue</sym></wpt><wpt lat="15.021942" lon="73.985561"><ele>-2.602509</ele><time>2025-11-15T03:22:08Z</time><name>852</name><sym>Flag, Blue</sym></wpt><wpt lat="15.016497" lon="73.992325"><ele>-0.502197</ele><time>2025-11-15T03:26:46Z</time><name>853</name><sym>Flag, Blue</sym></wpt><wpt lat="15.008086" lon="73.995173"><ele>-0.747673</ele><time>2025-11-15T03:31:40Z</time><name>854</name><sym>Flag, Blue</sym></wpt><wpt lat="15.005041" lon="74.005461"><ele>-1.432922</ele><time>2025-11-15T03:37:44Z</time><name>855</name><sym>Flag, Blue</sym></wpt><wpt lat="15.004572" lon="74.011955"><ele>-2.289452</ele><time>2025-11-15T03:41:13Z</time><name>856</name><sym>Flag, Blue</sym></wpt><wpt lat="15.004542" lon="74.012904"><ele>-2.371422</ele><time>2025-11-15T03:41:43Z</time><name>857</name><sym>Flag, Blue</sym></wpt><wpt lat="15.004418" lon="74.015168"><ele>-1.823822</ele><time>2025-11-15T03:42:56Z</time><name>858</name><sym>Flag, Blue</sym></wpt><wpt lat="15.003420" lon="74.020908"><ele>-1.838470</ele><time>2025-11-15T03:46:28Z</time><name>859</name><sym>Flag, Blue</sym></wpt><wpt lat="14.994602" lon="74.021967"><ele>-1.264793</ele><time>2025-11-15T03:51:20Z</time><name>860</name><sym>Flag, Blue</sym></wpt><wpt lat="14.985612" lon="74.021000"><ele>-1.607185</ele><time>2025-11-15T03:56:05Z</time><name>861</name><sym>Flag, Blue</sym></wpt><wpt lat="14.971610" lon="74.033964"><ele>-2.037910</ele><time>2025-11-15T04:05:46Z</time><name>862</name><sym>Flag, Blue</sym></wpt><wpt lat="14.966130" lon="74.041469"><ele>1.403877</ele><time>2025-11-15T04:10:36Z</time><name>863</name><sym>Flag, Blue</sym></wpt><wpt lat="14.963751" lon="74.041834"><ele>0.838287</ele><time>2025-11-15T04:11:48Z</time><name>864</name><sym>Flag, Blue</sym></wpt><wpt lat="14.963100" lon="74.041966"><ele>0.973267</ele><time>2025-11-15T04:12:10Z</time><name>865</name><sym>Flag, Blue</sym></wpt><wpt lat="14.957678" lon="74.042834"><ele>0.125740</ele><time>2025-11-15T04:19:00Z</time><name>866</name><sym>Flag, Blue</sym></wpt><wpt lat="14.953933" lon="74.036683"><ele>-0.197609</ele><time>2025-11-15T04:22:14Z</time><name>867</name><sym>Flag, Blue</sym></wpt><wpt lat="14.945416" lon="74.032680"><ele>0.781502</ele><time>2025-11-15T04:26:27Z</time><name>868</name><sym>Flag, Blue</sym></wpt><wpt lat="14.943350" lon="74.033408"><ele>2.449448</ele><time>2025-11-15T04:30:03Z</time><name>869</name><sym>Flag, Blue</sym></wpt><wpt lat="14.938970" lon="74.032790"><ele>2.580971</ele><time>2025-11-15T04:33:51Z</time><name>870</name><sym>Flag, Blue</sym></wpt><wpt lat="14.931019" lon="74.029649"><ele>3.638657</ele><time>2025-11-15T04:38:13Z</time><name>871</name><sym>Flag, Blue</sym></wpt><wpt lat="14.922340" lon="74.028073"><ele>1.447830</ele><time>2025-11-15T04:43:00Z</time><name>872</name><sym>Flag, Blue</sym></wpt><wpt lat="14.921950" lon="74.034863"><ele>0.035248</ele><time>2025-11-15T04:48:01Z</time><name>873</name><sym>Flag, Blue</sym></wpt><wpt lat="14.926786" lon="74.039068"><ele>0.851486</ele><time>2025-11-15T04:52:24Z</time><name>874</name><sym>Flag, Blue</sym></wpt><wpt lat="14.934108" lon="74.033665"><ele>-0.204742</ele><time>2025-11-15T04:57:06Z</time><name>875</name><sym>Flag, Blue</sym></wpt><wpt lat="14.942360" lon="74.034323"><ele>2.021034</ele><time>2025-11-15T05:02:14Z</time><name>876</name><sym>Flag, Blue</sym></wpt><wpt lat="14.947743" lon="74.038707"><ele>3.848473</ele><time>2025-11-15T05:05:46Z</time><name>877</name><sym>Flag, Blue</sym></wpt><wpt lat="14.948851" lon="74.039381"><ele>5.405289</ele><time>2025-11-15T05:06:26Z</time><name>878</name><sym>Flag, Blue</sym></wpt><wpt lat="14.955253" lon="74.034374"><ele>3.165016</ele><time>2025-11-15T05:11:00Z</time><name>879</name><sym>Flag, Blue</sym></wpt><wpt lat="14.962484" lon="74.031723"><ele>2.117653</ele><time>2025-11-15T05:15:33Z</time><name>880</name><sym>Flag, Blue</sym></wpt><wpt lat="14.969648" lon="74.037383"><ele>1.968575</ele><time>2025-11-15T05:20:09Z</time><name>881</name><sym>Flag, Blue</sym></wpt><wpt lat="14.976665" lon="74.037849"><ele>1.488693</ele><time>2025-11-15T05:24:38Z</time><name>882</name><sym>Flag, Blue</sym></wpt><wpt lat="14.982443" lon="74.032018"><ele>1.954147</ele><time>2025-11-15T05:29:17Z</time><name>883</name><sym>Flag, Blue</sym></wpt><wpt lat="14.984893" lon="74.037198"><ele>0.240540</ele><time>2025-11-15T05:31:56Z</time><name>884</name><sym>Flag, Blue</sym></wpt></gpx>