<?xml version="1.0" encoding="UTF-8" standalone="no" ?><gpx xmlns="http://www.topografix.com/GPX/1/1" xmlns:gpxx="http://www.garmin.com/xmlschemas/GpxExtensions/v3" xmlns:wptx1="http://www.garmin.com/xmlschemas/WaypointExtension/v1" xmlns:gpxtpx="http://www.garmin.com/xmlschemas/TrackPointExtension/v1" creator="eTrex 10 SEA" version="1.1" xmlns:xsi="http://www.w3.org/2001/XMLSchema-instance" xsi:schemaLocation="http://www.topografix.com/GPX/1/1 http://www.topografix.com/GPX/1/1/gpx.xsd http://www.garmin.com/xmlschemas/GpxExtensions/v3 http://www8.garmin.com/xmlschemas/GpxExtensionsv3.xsd http://www.garmin.com/xmlschemas/WaypointExtension/v1 http://www8.garmin.com/xmlschemas/WaypointExtensionv1.xsd http://www.garmin.com/xmlschemas/TrackPointExtension/v1 http://www.garmin.com/xmlschemas/TrackPointExtensionv1.xsd"><metadata><link href="http://www.garmin.com"><text>Garmin International</text></link><time>2025-11-16T01:49:08Z</time></metadata><wpt lat="14.984370" lon="74.038401"><ele>1.809547</ele><time>2025-11-16T01:49:08Z</time><name>885</name><sym>Flag, Blue</sym></wpt><wpt lat="14.989828" lon="74.032013"><ele>1.115738</ele><time>2025-11-16T01:53:43Z</time><name>886</name><sym>Flag, Blue</sym></wpt><wpt lat="14.994220" lon="74.025112"><ele>2.045380</ele><time>2025-11-16T01:57:53Z</time><name>887</name><sym>Flag, Blue</sym></wpt><wpt lat="15.002977" lon="74.022218"><ele>1.323448</ele><time>2025-11-16T02:02:41Z</time><name>888</name><sym>Flag, Blue</sym></wpt><wpt lat="15.004305" lon="74.021807"><ele>2.653107</ele><time>2025-11-16T02:03:24Z</time><name>889</name><sym>Flag, Blue</sym></wpt><wpt lat="15.007797" lon="74.018371"><ele>3.238487</ele><time>2025-11-16T02:06:15Z</time><name>890</name><sym>Flag, Blue</sym></wpt><wpt lat="15.005149" lon="74.007624"><ele>1.425552</ele><time>2025-11-16T02:11:53Z</time><name>891</name><sym>Flag, Blue</sym></wpt><wpt lat="15.006322" lon="73.998345"><ele>4.243797</ele><time>2025-11-16T02:16:42Z</time><name>892</name><sym>Flag, Blue</sym></wpt><wpt lat="15.013819" lon="73.994113"><ele>2.943726</ele><time>2025-11-16T02:21:03Z</time><name>893</name><sym>Flag, Blue</sym></wpt><wpt lat="15.018577" lon="73.986371"><ele>1.416313</ele><time>2025-11-16T02:25:48Z</time><name>894</name><sym>Flag, Blue</sym></wpt><wpt lat="15.024431" lon="73.979033"><ele>2.385307</ele><time>2025-11-16T02:30:28Z</time><name>895</name><sym>Flag, Blue</sym></wpt><wpt lat="15.030402" lon="73.974253"><ele>1.690453</ele><time>2025-11-16T02:34:44Z</time><name>896</name><sym>Flag, Blue</sym></wpt><wpt lat="15.040341" lon="73.977128"><ele>3.346260</ele><time>2025-11-16T02:40:06Z</time><name>897</name><sym>Flag, Blue</sym></wpt><wpt lat="15.045162" lon="73.978597"><ele>2.981392</ele><time>2025-11-16T02:42:41Z</time><name>898</name><sym>Flag, Blue</sym></wpt><wpt lat="15.048775" lon="73.977758"><ele>1.515457</ele><time>2025-11-16T02:44:54Z</time><name>899</name><sym>Flag, Blue</sym></wpt><wpt lat="15.049230" lon="73.976630"><ele>3.164169</ele><time>2025-11-16T02:45:30Z</time><name>900</name><sym>Flag, Blue</sym></wpt><wpt lat="15.050167" lon="73.973741"><ele>2.950142</ele><time>2025-11-16T02:46:59Z</time><name>901</name><sym>Flag, Blue</sym></wpt><wpt lat="15.050442" lon="73.972707"><ele>3.060242</ele><time>2025-11-16T02:47:30Z</time><name>902</name><sym>Flag, Blue</sym></wpt><wpt lat="15.050930" lon="73.970672"><ele>3.020187</ele><time>2025-11-16T02:48:32Z</time><name>903</name><sym>Flag, Blue</sym></wpt><wpt lat="15.051455" lon="73.969091"><ele>2.656700</ele><time>2025-11-16T02:49:20Z</time><name>904</name><sym>Flag, Blue</sym></wpt><wpt lat="15.052528" lon="73.966203"><ele>2.083351</ele><time>2025-11-16T02:50:49Z</time><name>905</name><sym>Flag, Blue</sym></wpt><wpt lat="15.053124" lon="73.964324"><ele>2.795021</ele><time>2025-11-16T02:51:47Z</time><name>906</name><sym>Flag, Blue</sym></wpt><wpt lat="15.053925" lon="73.961912"><ele>2.625008</ele><time>2025-11-16T02:53:01Z</time><name>907</name><sym>Flag, Blue</sym></wpt><wpt lat="15.059085" lon="73.955637"><ele>2.112434</ele><time>2025-11-16T02:57:40Z</time><name>908</name><sym>Flag, Blue</sym></wpt><wpt lat="15.066927" lon="73.953824"><ele>2.410629</ele><time>2025-11-16T03:02:48Z</time><name>909</name><sym>Flag, Blue</sym></wpt><wpt lat="15.065093" lon="73.945399"><ele>2.324005</ele><time>2025-11-16T03:07:07Z</time><name>910</name><sym>Flag, Blue</sym></wpt><wpt lat="15.064460" lon="73.936386"><ele>1.219597</ele><time>2025-11-16T03:11:29Z</time><name>911</name><sym>Flag, Blue</sym></wpt><wpt lat="15.073001" lon="73.930634"><ele>1.340385</ele><time>2025-11-16T03:17:07Z</time><name>912</name><sym>Flag, Blue</sym></wpt><wpt lat="15.078693" lon="73.927849"><ele>1.720169</ele><time>2025-11-16T03:20:16Z</time><name>913</name><sym>Flag, Blue</sym></wpt><wpt lat="15.082656" lon="73.925813"><ele>2.225945</ele><time>2025-11-16T03:22:27Z</time><name>914</name><sym>Flag, Blue</sym></wpt><wpt lat="15.082721" lon="73.921287"><ele>2.364952</ele><time>2025-11-16T03:25:13Z</time><name>915</name><sym>Flag, Blue</sym></wpt><wpt lat="15.082805" lon="73.913987"><ele>1.054268</ele><time>2025-11-16T03:28:58Z</time><name>916</name><sym>Flag, Blue</sym></wpt><wpt lat="15.083048" lon="73.912254"><ele>0.547775</ele><time>2025-11-16T03:29:51Z</time><name>917</name><sym>Flag, Blue</sym></wpt><wpt lat="15.089244" lon="73.907124"><ele>2.669525</ele><time>2025-11-16T03:34:11Z</time><name>918</name><sym>Flag, Blue</sym></wpt><wpt lat="15.097320" lon="73.909637"><ele>1.899300</ele><time>2025-11-16T03:38:47Z</time><name>919</name><sym>Flag, Blue</sym></wpt><wpt lat="15.101488" lon="73.912034"><ele>2.951920</ele><time>2025-11-16T03:41:14Z</time><name>920</name><sym>Flag, Blue</sym></wpt><wpt lat="15.104991" lon="73.914132"><ele>1.785545</ele><time>2025-11-16T03:43:20Z</time><name>921</name><sym>Flag, Blue</sym></wpt><wpt lat="15.110919" lon="73.921298"><ele>1.999802</ele><time>2025-11-16T03:48:31Z</time><name>922</name><sym>Flag, Blue</sym></wpt><wpt lat="15.112321" lon="73.923442"><ele>1.735390</ele><time>2025-11-16T03:49:55Z</time><name>923</name><sym>Flag, Blue</sym></wpt><wpt lat="15.120645" lon="73.935961"><ele>1.949821</ele><time>2025-11-16T03:58:17Z</time><name>924</name><sym>Flag, Blue</sym></wpt><wpt lat="15.128804" lon="73.930738"><ele>3.702583</ele><time>2025-11-16T04:03:29Z</time><name>925</name><sym>Flag, Blue</sym></wpt><wpt lat="15.135862" lon="73.926074"><ele>3.224571</ele><time>2025-11-16T04:08:02Z</time><name>926</name><sym>Flag, Blue</sym></wpt><wpt lat="15.139424" lon="73.927942"><ele>3.939651</ele><time>2025-11-16T04:12:53Z</time><name>927</name><sym>Flag, Blue</sym></wpt><wpt lat="15.140763" lon="73.936836"><ele>2.117165</ele><time>2025-11-16T04:17:09Z</time><name>928</name><sym>Flag, Blue</sym></wpt><wpt lat="15.141022" lon="73.938407"><ele>1.727638</ele><time>2025-11-16T04:17:49Z</time><name>929</name><sym>Flag, Blue</sym></wpt><wpt lat="15.141173" lon="73.939662"><ele>4.378960</ele><time>2025-11-16T04:18:33Z</time><name>930</name><sym>Flag, Blue</sym></wpt><wpt lat="15.142562" lon="73.946182"><ele>9.104286</ele><time>2025-11-16T04:43:19Z</time><name>931</name><sym>Flag, Blue</sym></wpt></gpx>