<?xml version="1.0" encoding="UTF-8" standalone="no" ?><gpx xmlns="http://www.topografix.com/GPX/1/1" xmlns:gpxx="http://www.garmin.com/xmlschemas/GpxExtensions/v3" xmlns:wptx1="http://www.garmin.com/xmlschemas/WaypointExtension/v1" xmlns:gpxtpx="http://www.garmin.com/xmlschemas/TrackPointExtension/v1" creator="eTrex 10 SEA" version="1.1" xmlns:xsi="http://www.w3.org/2001/XMLSchema-instance" xsi:schemaLocation="http://www.topografix.com/GPX/1/1 http://www.topografix.com/GPX/1/1/gpx.xsd http://www.garmin.com/xmlschemas/GpxExtensions/v3 http://www8.garmin.com/xmlschemas/GpxExtensionsv3.xsd http://www.garmin.com/xmlschemas/WaypointExtension/v1 http://www8.garmin.com/xmlschemas/WaypointExtensionv1.xsd http://www.garmin.com/xmlschemas/TrackPointExtension/v1 http://www.garmin.com/xmlschemas/TrackPointExtensionv1.xsd"><metadata><link href="http://www.garmin.com"><text>Garmin International</text></link><time>2023-12-11T04:59:07Z</time></metadata><trk><name>11-DEC-23 10:29:05</name><extensions><gpxx:TrackExtension><gpxx:DisplayColor>Cyan</gpxx:DisplayColor></gpxx:TrackExtension></extensions><trkseg><trkpt lat="14.9846125301" lon="74.0395955555"><ele>-3.71</ele><time>2023-12-11T01:29:37Z</time><extensions><gpxtpx:TrackPointExtension><gpxtpx:cad>0</gpxtpx:cad></gpxtpx:TrackPointExtension></extensions></trkpt><trkpt lat="14.9842324108" lon="74.0394885186"><ele>-3.23</ele><time>2023-12-11T01:29:48Z</time><extensions><gpxtpx:TrackPointExtension><gpxtpx:cad>0</gpxtpx:cad></gpxtpx:TrackPointExtension></extensions></trkpt><trkpt lat="14.9846947566" lon="74.0376547258"><ele>-1.79</ele><time>2023-12-11T01:30:48Z</time><extensions><gpxtpx:TrackPointExtension><gpxtpx:cad>0</gpxtpx:cad></gpxtpx:TrackPointExtension></extensions></trkpt><trkpt lat="14.9846419506" lon="74.0356969647"><ele>-1.30</ele><time>2023-12-11T01:31:48Z</time><extensions><gpxtpx:TrackPointExtension><gpxtpx:cad>0</gpxtpx:cad></gpxtpx:TrackPointExtension></extensions></trkpt><trkpt lat="14.9844016414" lon="74.0342339873"><ele>-1.30</ele><time>2023-12-11T01:32:48Z</time><extensions><gpxtpx:TrackPointExtension><gpxtpx:cad>0</gpxtpx:cad></gpxtpx:TrackPointExtension></extensions></trkpt><trkpt lat="14.9839051813" lon="74.0323405992"><ele>-0.34</ele><time>2023-12-11T01:33:48Z</time><extensions><gpxtpx:TrackPointExtension><gpxtpx:cad>0</gpxtpx:cad></gpxtpx:TrackPointExtension></extensions></trkpt><trkpt lat="14.9833584297" lon="74.0304681659"><ele>0.62</ele><time>2023-12-11T01:34:48Z</time><extensions><gpxtpx:TrackPointExtension><gpxtpx:cad>0</gpxtpx:cad></gpxtpx:TrackPointExtension></extensions></trkpt><trkpt lat="14.9827739596" lon="74.0286499634"><ele>0.62</ele><time>2023-12-11T01:35:48Z</time><extensions><gpxtpx:TrackPointExtension><gpxtpx:cad>0</gpxtpx:cad></gpxtpx:TrackPointExtension></extensions></trkpt><trkpt lat="14.9823633302" lon="74.0267896000"><ele>1.10</ele><time>2023-12-11T01:36:48Z</time><extensions><gpxtpx:TrackPointExtension><gpxtpx:cad>0</gpxtpx:cad></gpxtpx:TrackPointExtension></extensions></trkpt><trkpt lat="14.9822969455" lon="74.0248837229"><ele>-0.34</ele><time>2023-12-11T01:37:48Z</time><extensions><gpxtpx:TrackPointExtension><gpxtpx:cad>0</gpxtpx:cad></gpxtpx:TrackPointExtension></extensions></trkpt><trkpt lat="14.9821954407" lon="74.0229951963"><ele>-0.34</ele><time>2023-12-11T01:38:48Z</time><extensions><gpxtpx:TrackPointExtension><gpxtpx:cad>0</gpxtpx:cad></gpxtpx:TrackPointExtension></extensions></trkpt><trkpt lat="14.9817082006" lon="74.0211584698"><ele>0.14</ele><time>2023-12-11T01:39:48Z</time><extensions><gpxtpx:TrackPointExtension><gpxtpx:cad>0</gpxtpx:cad></gpxtpx:TrackPointExtension></extensions></trkpt><trkpt lat="14.9813005049" lon="74.0193203185"><ele>0.62</ele><time>2023-12-11T01:40:48Z</time><extensions><gpxtpx:TrackPointExtension><gpxtpx:cad>0</gpxtpx:cad></gpxtpx:TrackPointExtension></extensions></trkpt><trkpt lat="14.9813167658" lon="74.0174170397"><ele>1.10</ele><time>2023-12-11T01:41:48Z</time><extensions><gpxtpx:TrackPointExtension><gpxtpx:cad>0</gpxtpx:cad></gpxtpx:TrackPointExtension></extensions></trkpt><trkpt lat="14.9814231321" lon="74.0155196283"><ele>0.14</ele><time>2023-12-11T01:42:48Z</time><extensions><gpxtpx:TrackPointExtension><gpxtpx:cad>0</gpxtpx:cad></gpxtpx:TrackPointExtension></extensions></trkpt><trkpt lat="14.9814853258" lon="74.0136235580"><ele>0.14</ele><time>2023-12-11T01:43:48Z</time><extensions><gpxtpx:TrackPointExtension><gpxtpx:cad>0</gpxtpx:cad></gpxtpx:TrackPointExtension></extensions></trkpt><trkpt lat="14.9824808445" lon="74.0134609491"><ele>0.14</ele><time>2023-12-11T01:44:48Z</time><extensions><gpxtpx:TrackPointExtension><gpxtpx:cad>0</gpxtpx:cad></gpxtpx:TrackPointExtension></extensions></trkpt><trkpt lat="14.9840367772" lon="74.0146515146"><ele>0.14</ele><time>2023-12-11T01:45:48Z</time><extensions><gpxtpx:TrackPointExtension><gpxtpx:cad>0</gpxtpx:cad></gpxtpx:TrackPointExtension></extensions></trkpt><trkpt lat="14.9855203740" lon="74.0158985741"><ele>0.62</ele><time>2023-12-11T01:46:48Z</time><extensions><gpxtpx:TrackPointExtension><gpxtpx:cad>0</gpxtpx:cad></gpxtpx:TrackPointExtension></extensions></trkpt><trkpt lat="14.9869252648" lon="74.0171892196"><ele>0.14</ele><time>2023-12-11T01:47:48Z</time><extensions><gpxtpx:TrackPointExtension><gpxtpx:cad>0</gpxtpx:cad></gpxtpx:TrackPointExtension></extensions></trkpt><trkpt lat="14.9879346974" lon="74.0182102192"><ele>-1.79</ele><time>2023-12-11T01:48:48Z</time><extensions><gpxtpx:TrackPointExtension><gpxtpx:cad>0</gpxtpx:cad></gpxtpx:TrackPointExtension></extensions></trkpt><trkpt lat="14.9891177192" lon="74.0197712649"><ele>-0.34</ele><time>2023-12-11T01:49:48Z</time><extensions><gpxtpx:TrackPointExtension><gpxtpx:cad>0</gpxtpx:cad></gpxtpx:TrackPointExtension></extensions></trkpt><trkpt lat="14.9899344519" lon="74.0215022955"><ele>1.58</ele><time>2023-12-11T01:50:48Z</time><extensions><gpxtpx:TrackPointExtension><gpxtpx:cad>0</gpxtpx:cad></gpxtpx:TrackPointExtension></extensions></trkpt><trkpt lat="14.9908638373" lon="74.0231859684"><ele>1.10</ele><time>2023-12-11T01:51:48Z</time><extensions><gpxtpx:TrackPointExtension><gpxtpx:cad>0</gpxtpx:cad></gpxtpx:TrackPointExtension></extensions></trkpt><trkpt lat="14.9920351245" lon="74.0246700682"><ele>1.58</ele><time>2023-12-11T01:52:48Z</time><extensions><gpxtpx:TrackPointExtension><gpxtpx:cad>0</gpxtpx:cad></gpxtpx:TrackPointExtension></extensions></trkpt><trkpt lat="14.9930236861" lon="74.0248751733"><ele>0.62</ele><time>2023-12-11T01:53:48Z</time><extensions><gpxtpx:TrackPointExtension><gpxtpx:cad>0</gpxtpx:cad></gpxtpx:TrackPointExtension></extensions></trkpt><trkpt lat="14.9946460035" lon="74.0253987070"><ele>0.62</ele><time>2023-12-11T01:54:48Z</time><extensions><gpxtpx:TrackPointExtension><gpxtpx:cad>0</gpxtpx:cad></gpxtpx:TrackPointExtension></extensions></trkpt><trkpt lat="14.9963186961" lon="74.0257587936"><ele>0.14</ele><time>2023-12-11T01:55:48Z</time><extensions><gpxtpx:TrackPointExtension><gpxtpx:cad>0</gpxtpx:cad></gpxtpx:TrackPointExtension></extensions></trkpt><trkpt lat="14.9977381714" lon="74.0251744911"><ele>2.06</ele><time>2023-12-11T01:56:48Z</time><extensions><gpxtpx:TrackPointExtension><gpxtpx:cad>0</gpxtpx:cad></gpxtpx:TrackPointExtension></extensions></trkpt><trkpt lat="14.9991401285" lon="74.0240326244"><ele>0.62</ele><time>2023-12-11T01:57:48Z</time><extensions><gpxtpx:TrackPointExtension><gpxtpx:cad>0</gpxtpx:cad></gpxtpx:TrackPointExtension></extensions></trkpt><trkpt lat="15.0004725158" lon="74.0227577370"><ele>0.14</ele><time>2023-12-11T01:58:48Z</time><extensions><gpxtpx:TrackPointExtension><gpxtpx:cad>0</gpxtpx:cad></gpxtpx:TrackPointExtension></extensions></trkpt><trkpt lat="15.0021213200" lon="74.0219181217"><ele>-0.34</ele><time>2023-12-11T01:59:48Z</time><extensions><gpxtpx:TrackPointExtension><gpxtpx:cad>0</gpxtpx:cad></gpxtpx:TrackPointExtension></extensions></trkpt><trkpt lat="15.0028976519" lon="74.0204354469"><ele>0.62</ele><time>2023-12-11T02:00:48Z</time><extensions><gpxtpx:TrackPointExtension><gpxtpx:cad>0</gpxtpx:cad></gpxtpx:TrackPointExtension></extensions></trkpt><trkpt lat="15.0031291600" lon="74.0184955392"><ele>1.58</ele><time>2023-12-11T02:01:48Z</time><extensions><gpxtpx:TrackPointExtension><gpxtpx:cad>0</gpxtpx:cad></gpxtpx:TrackPointExtension></extensions></trkpt><trkpt lat="15.0037391949" lon="74.0166391153"><ele>1.10</ele><time>2023-12-11T02:02:48Z</time><extensions><gpxtpx:TrackPointExtension><gpxtpx:cad>0</gpxtpx:cad></gpxtpx:TrackPointExtension></extensions></trkpt><trkpt lat="15.0043514092" lon="74.0147597250"><ele>0.14</ele><time>2023-12-11T02:03:48Z</time><extensions><gpxtpx:TrackPointExtension><gpxtpx:cad>0</gpxtpx:cad></gpxtpx:TrackPointExtension></extensions></trkpt><trkpt lat="15.0049072970" lon="74.0128932428"><ele>1.10</ele><time>2023-12-11T02:04:48Z</time><extensions><gpxtpx:TrackPointExtension><gpxtpx:cad>0</gpxtpx:cad></gpxtpx:TrackPointExtension></extensions></trkpt><trkpt lat="15.0060089305" lon="74.0112489648"><ele>1.58</ele><time>2023-12-11T02:05:48Z</time><extensions><gpxtpx:TrackPointExtension><gpxtpx:cad>0</gpxtpx:cad></gpxtpx:TrackPointExtension></extensions></trkpt><trkpt lat="15.0072511286" lon="74.0097040962"><ele>1.58</ele><time>2023-12-11T02:06:48Z</time><extensions><gpxtpx:TrackPointExtension><gpxtpx:cad>0</gpxtpx:cad></gpxtpx:TrackPointExtension></extensions></trkpt><trkpt lat="15.0086281076" lon="74.0082767420"><ele>0.62</ele><time>2023-12-11T02:07:48Z</time><extensions><gpxtpx:TrackPointExtension><gpxtpx:cad>0</gpxtpx:cad></gpxtpx:TrackPointExtension></extensions></trkpt><trkpt lat="15.0091543235" lon="74.0064955875"><ele>-0.34</ele><time>2023-12-11T02:08:48Z</time><extensions><gpxtpx:TrackPointExtension><gpxtpx:cad>0</gpxtpx:cad></gpxtpx:TrackPointExtension></extensions></trkpt><trkpt lat="15.0094590895" lon="74.0045365691"><ele>0.62</ele><time>2023-12-11T02:09:48Z</time><extensions><gpxtpx:TrackPointExtension><gpxtpx:cad>0</gpxtpx:cad></gpxtpx:TrackPointExtension></extensions></trkpt><trkpt lat="15.0095077883" lon="74.0025406703"><ele>1.58</ele><time>2023-12-11T02:10:48Z</time><extensions><gpxtpx:TrackPointExtension><gpxtpx:cad>0</gpxtpx:cad></gpxtpx:TrackPointExtension></extensions></trkpt><trkpt lat="15.0098238699" lon="74.0005757846"><ele>1.10</ele><time>2023-12-11T02:11:48Z</time><extensions><gpxtpx:TrackPointExtension><gpxtpx:cad>0</gpxtpx:cad></gpxtpx:TrackPointExtension></extensions></trkpt><trkpt lat="15.0104722101" lon="73.9986755233"><ele>0.62</ele><time>2023-12-11T02:12:48Z</time><extensions><gpxtpx:TrackPointExtension><gpxtpx:cad>0</gpxtpx:cad></gpxtpx:TrackPointExtension></extensions></trkpt><trkpt lat="15.0108973403" lon="73.9967155829"><ele>-0.34</ele><time>2023-12-11T02:13:48Z</time><extensions><gpxtpx:TrackPointExtension><gpxtpx:cad>0</gpxtpx:cad></gpxtpx:TrackPointExtension></extensions></trkpt><trkpt lat="15.0112835784" lon="73.9947465900"><ele>2.06</ele><time>2023-12-11T02:14:48Z</time><extensions><gpxtpx:TrackPointExtension><gpxtpx:cad>0</gpxtpx:cad></gpxtpx:TrackPointExtension></extensions></trkpt><trkpt lat="15.0117584132" lon="73.9927981328"><ele>1.10</ele><time>2023-12-11T02:15:48Z</time><extensions><gpxtpx:TrackPointExtension><gpxtpx:cad>0</gpxtpx:cad></gpxtpx:TrackPointExtension></extensions></trkpt><trkpt lat="15.0123968627" lon="73.9909000508"><ele>0.14</ele><time>2023-12-11T02:16:48Z</time><extensions><gpxtpx:TrackPointExtension><gpxtpx:cad>0</gpxtpx:cad></gpxtpx:TrackPointExtension></extensions></trkpt><trkpt lat="15.0128438696" lon="73.9889359195"><ele>0.62</ele><time>2023-12-11T02:17:48Z</time><extensions><gpxtpx:TrackPointExtension><gpxtpx:cad>0</gpxtpx:cad></gpxtpx:TrackPointExtension></extensions></trkpt><trkpt lat="15.0128778163" lon="73.9869374223"><ele>1.10</ele><time>2023-12-11T02:18:48Z</time><extensions><gpxtpx:TrackPointExtension><gpxtpx:cad>0</gpxtpx:cad></gpxtpx:TrackPointExtension></extensions></trkpt><trkpt lat="15.0129543431" lon="73.9849281963"><ele>1.10</ele><time>2023-12-11T02:19:48Z</time><extensions><gpxtpx:TrackPointExtension><gpxtpx:cad>0</gpxtpx:cad></gpxtpx:TrackPointExtension></extensions></trkpt><trkpt lat="15.0131509826" lon="73.9829131868"><ele>1.58</ele><time>2023-12-11T02:20:48Z</time><extensions><gpxtpx:TrackPointExtension><gpxtpx:cad>0</gpxtpx:cad></gpxtpx:TrackPointExtension></extensions></trkpt><trkpt lat="15.0136373844" lon="73.9809707645"><ele>0.14</ele><time>2023-12-11T02:21:48Z</time><extensions><gpxtpx:TrackPointExtension><gpxtpx:cad>0</gpxtpx:cad></gpxtpx:TrackPointExtension></extensions></trkpt><trkpt lat="15.0144115370" lon="73.9791068807"><ele>-0.34</ele><time>2023-12-11T02:22:48Z</time><extensions><gpxtpx:TrackPointExtension><gpxtpx:cad>0</gpxtpx:cad></gpxtpx:TrackPointExtension></extensions></trkpt><trkpt lat="15.0153653137" lon="73.9773338567"><ele>-0.34</ele><time>2023-12-11T02:23:48Z</time><extensions><gpxtpx:TrackPointExtension><gpxtpx:cad>0</gpxtpx:cad></gpxtpx:TrackPointExtension></extensions></trkpt><trkpt lat="15.0163791049" lon="73.9756534528"><ele>0.62</ele><time>2023-12-11T02:24:48Z</time><extensions><gpxtpx:TrackPointExtension><gpxtpx:cad>0</gpxtpx:cad></gpxtpx:TrackPointExtension></extensions></trkpt><trkpt lat="15.0170065742" lon="73.9737233520"><ele>0.62</ele><time>2023-12-11T02:25:48Z</time><extensions><gpxtpx:TrackPointExtension><gpxtpx:cad>0</gpxtpx:cad></gpxtpx:TrackPointExtension></extensions></trkpt><trkpt lat="15.0177035294" lon="73.9718349092"><ele>1.10</ele><time>2023-12-11T02:26:48Z</time><extensions><gpxtpx:TrackPointExtension><gpxtpx:cad>0</gpxtpx:cad></gpxtpx:TrackPointExtension></extensions></trkpt><trkpt lat="15.0182703137" lon="73.9699498191"><ele>0.14</ele><time>2023-12-11T02:27:48Z</time><extensions><gpxtpx:TrackPointExtension><gpxtpx:cad>0</gpxtpx:cad></gpxtpx:TrackPointExtension></extensions></trkpt><trkpt lat="15.0190877169" lon="73.9680669084"><ele>2.06</ele><time>2023-12-11T02:28:48Z</time><extensions><gpxtpx:TrackPointExtension><gpxtpx:cad>0</gpxtpx:cad></gpxtpx:TrackPointExtension></extensions></trkpt><trkpt lat="15.0197306089" lon="73.9661345445"><ele>1.10</ele><time>2023-12-11T02:29:48Z</time><extensions><gpxtpx:TrackPointExtension><gpxtpx:cad>0</gpxtpx:cad></gpxtpx:TrackPointExtension></extensions></trkpt><trkpt lat="15.0214252621" lon="73.9666371234"><ele>0.14</ele><time>2023-12-11T02:30:48Z</time><extensions><gpxtpx:TrackPointExtension><gpxtpx:cad>0</gpxtpx:cad></gpxtpx:TrackPointExtension></extensions></trkpt><trkpt lat="15.0230042450" lon="73.9677185565"><ele>0.14</ele><time>2023-12-11T02:31:48Z</time><extensions><gpxtpx:TrackPointExtension><gpxtpx:cad>0</gpxtpx:cad></gpxtpx:TrackPointExtension></extensions></trkpt><trkpt lat="15.0243979879" lon="73.9690101240"><ele>0.14</ele><time>2023-12-11T02:32:48Z</time><extensions><gpxtpx:TrackPointExtension><gpxtpx:cad>0</gpxtpx:cad></gpxtpx:TrackPointExtension></extensions></trkpt><trkpt lat="15.0258977618" lon="73.9702039585"><ele>2.06</ele><time>2023-12-11T02:33:48Z</time><extensions><gpxtpx:TrackPointExtension><gpxtpx:cad>0</gpxtpx:cad></gpxtpx:TrackPointExtension></extensions></trkpt><trkpt lat="15.0271846354" lon="73.9716198295"><ele>3.02</ele><time>2023-12-11T02:34:48Z</time><extensions><gpxtpx:TrackPointExtension><gpxtpx:cad>0</gpxtpx:cad></gpxtpx:TrackPointExtension></extensions></trkpt><trkpt lat="15.0283719320" lon="73.9731151611"><ele>2.06</ele><time>2023-12-11T02:35:48Z</time><extensions><gpxtpx:TrackPointExtension><gpxtpx:cad>0</gpxtpx:cad></gpxtpx:TrackPointExtension></extensions></trkpt><trkpt lat="15.0296173152" lon="73.9745557588"><ele>1.58</ele><time>2023-12-11T02:36:48Z</time><extensions><gpxtpx:TrackPointExtension><gpxtpx:cad>0</gpxtpx:cad></gpxtpx:TrackPointExtension></extensions></trkpt><trkpt lat="15.0310139917" lon="73.9758838713"><ele>-0.82</ele><time>2023-12-11T02:37:48Z</time><extensions><gpxtpx:TrackPointExtension><gpxtpx:cad>0</gpxtpx:cad></gpxtpx:TrackPointExtension></extensions></trkpt><trkpt lat="15.0322989374" lon="73.9773196075"><ele>-0.34</ele><time>2023-12-11T02:38:48Z</time><extensions><gpxtpx:TrackPointExtension><gpxtpx:cad>0</gpxtpx:cad></gpxtpx:TrackPointExtension></extensions></trkpt><trkpt lat="15.0332202762" lon="73.9790044539"><ele>0.14</ele><time>2023-12-11T02:39:48Z</time><extensions><gpxtpx:TrackPointExtension><gpxtpx:cad>0</gpxtpx:cad></gpxtpx:TrackPointExtension></extensions></trkpt><trkpt lat="15.0339780003" lon="73.9807804953"><ele>0.14</ele><time>2023-12-11T02:40:48Z</time><extensions><gpxtpx:TrackPointExtension><gpxtpx:cad>0</gpxtpx:cad></gpxtpx:TrackPointExtension></extensions></trkpt><trkpt lat="15.0350840762" lon="73.9823501743"><ele>0.62</ele><time>2023-12-11T02:41:48Z</time><extensions><gpxtpx:TrackPointExtension><gpxtpx:cad>0</gpxtpx:cad></gpxtpx:TrackPointExtension></extensions></trkpt><trkpt lat="15.0359847955" lon="73.9813403226"><ele>2.54</ele><time>2023-12-11T02:42:48Z</time><extensions><gpxtpx:TrackPointExtension><gpxtpx:cad>0</gpxtpx:cad></gpxtpx:TrackPointExtension></extensions></trkpt><trkpt lat="15.0364719518" lon="73.9794087131"><ele>2.06</ele><time>2023-12-11T02:43:48Z</time><extensions><gpxtpx:TrackPointExtension><gpxtpx:cad>0</gpxtpx:cad></gpxtpx:TrackPointExtension></extensions></trkpt><trkpt lat="15.0370974094" lon="73.9775135648"><ele>0.62</ele><time>2023-12-11T02:44:48Z</time><extensions><gpxtpx:TrackPointExtension><gpxtpx:cad>0</gpxtpx:cad></gpxtpx:TrackPointExtension></extensions></trkpt><trkpt lat="15.0379243679" lon="73.9756920934"><ele>0.14</ele><time>2023-12-11T02:45:48Z</time><extensions><gpxtpx:TrackPointExtension><gpxtpx:cad>0</gpxtpx:cad></gpxtpx:TrackPointExtension></extensions></trkpt><trkpt lat="15.0389975868" lon="73.9739863761"><ele>1.10</ele><time>2023-12-11T02:46:48Z</time><extensions><gpxtpx:TrackPointExtension><gpxtpx:cad>0</gpxtpx:cad></gpxtpx:TrackPointExtension></extensions></trkpt><trkpt lat="15.0397369545" lon="73.9721986838"><ele>1.10</ele><time>2023-12-11T02:47:48Z</time><extensions><gpxtpx:TrackPointExtension><gpxtpx:cad>0</gpxtpx:cad></gpxtpx:TrackPointExtension></extensions></trkpt><trkpt lat="15.0400641840" lon="73.9702173695"><ele>0.14</ele><time>2023-12-11T02:48:48Z</time><extensions><gpxtpx:TrackPointExtension><gpxtpx:cad>0</gpxtpx:cad></gpxtpx:TrackPointExtension></extensions></trkpt><trkpt lat="15.0406112708" lon="73.9682709239"><ele>1.10</ele><time>2023-12-11T02:49:48Z</time><extensions><gpxtpx:TrackPointExtension><gpxtpx:cad>0</gpxtpx:cad></gpxtpx:TrackPointExtension></extensions></trkpt><trkpt lat="15.0410715211" lon="73.9663211256"><ele>0.62</ele><time>2023-12-11T02:50:48Z</time><extensions><gpxtpx:TrackPointExtension><gpxtpx:cad>0</gpxtpx:cad></gpxtpx:TrackPointExtension></extensions></trkpt><trkpt lat="15.0415057037" lon="73.9643601794"><ele>0.62</ele><time>2023-12-11T02:51:48Z</time><extensions><gpxtpx:TrackPointExtension><gpxtpx:cad>0</gpxtpx:cad></gpxtpx:TrackPointExtension></extensions></trkpt><trkpt lat="15.0418309215" lon="73.9623646997"><ele>1.58</ele><time>2023-12-11T02:52:48Z</time><extensions><gpxtpx:TrackPointExtension><gpxtpx:cad>0</gpxtpx:cad></gpxtpx:TrackPointExtension></extensions></trkpt><trkpt lat="15.0423513539" lon="73.9604277257"><ele>0.62</ele><time>2023-12-11T02:53:48Z</time><extensions><gpxtpx:TrackPointExtension><gpxtpx:cad>0</gpxtpx:cad></gpxtpx:TrackPointExtension></extensions></trkpt><trkpt lat="15.0430732034" lon="73.9585484192"><ele>1.58</ele><time>2023-12-11T02:54:48Z</time><extensions><gpxtpx:TrackPointExtension><gpxtpx:cad>0</gpxtpx:cad></gpxtpx:TrackPointExtension></extensions></trkpt><trkpt lat="15.0448602252" lon="73.9583925996"><ele>0.62</ele><time>2023-12-11T02:55:48Z</time><extensions><gpxtpx:TrackPointExtension><gpxtpx:cad>0</gpxtpx:cad></gpxtpx:TrackPointExtension></extensions></trkpt><trkpt lat="15.0467134640" lon="73.9587822743"><ele>1.10</ele><time>2023-12-11T02:56:48Z</time><extensions><gpxtpx:TrackPointExtension><gpxtpx:cad>0</gpxtpx:cad></gpxtpx:TrackPointExtension></extensions></trkpt><trkpt lat="15.0485093705" lon="73.9594853483"><ele>1.58</ele><time>2023-12-11T02:57:48Z</time><extensions><gpxtpx:TrackPointExtension><gpxtpx:cad>0</gpxtpx:cad></gpxtpx:TrackPointExtension></extensions></trkpt><trkpt lat="15.0502797961" lon="73.9602170885"><ele>3.02</ele><time>2023-12-11T02:58:48Z</time><extensions><gpxtpx:TrackPointExtension><gpxtpx:cad>0</gpxtpx:cad></gpxtpx:TrackPointExtension></extensions></trkpt><trkpt lat="15.0520512275" lon="73.9609727170"><ele>3.02</ele><time>2023-12-11T02:59:48Z</time><extensions><gpxtpx:TrackPointExtension><gpxtpx:cad>0</gpxtpx:cad></gpxtpx:TrackPointExtension></extensions></trkpt><trkpt lat="15.0538623892" lon="73.9616889507"><ele>2.54</ele><time>2023-12-11T03:00:48Z</time><extensions><gpxtpx:TrackPointExtension><gpxtpx:cad>0</gpxtpx:cad></gpxtpx:TrackPointExtension></extensions></trkpt><trkpt lat="15.0557342358" lon="73.9621425793"><ele>3.50</ele><time>2023-12-11T03:01:48Z</time><extensions><gpxtpx:TrackPointExtension><gpxtpx:cad>0</gpxtpx:cad></gpxtpx:TrackPointExtension></extensions></trkpt><trkpt lat="15.0576214213" lon="73.9625693019"><ele>4.46</ele><time>2023-12-11T03:02:48Z</time><extensions><gpxtpx:TrackPointExtension><gpxtpx:cad>0</gpxtpx:cad></gpxtpx:TrackPointExtension></extensions></trkpt><trkpt lat="15.0595027395" lon="73.9630320668"><ele>2.06</ele><time>2023-12-11T03:03:48Z</time><extensions><gpxtpx:TrackPointExtension><gpxtpx:cad>0</gpxtpx:cad></gpxtpx:TrackPointExtension></extensions></trkpt><trkpt lat="15.0613837224" lon="73.9632756449"><ele>1.10</ele><time>2023-12-11T03:04:48Z</time><extensions><gpxtpx:TrackPointExtension><gpxtpx:cad>0</gpxtpx:cad></gpxtpx:TrackPointExtension></extensions></trkpt><trkpt lat="15.0624095835" lon="73.9626038354"><ele>2.54</ele><time>2023-12-11T03:05:48Z</time><extensions><gpxtpx:TrackPointExtension><gpxtpx:cad>0</gpxtpx:cad></gpxtpx:TrackPointExtension></extensions></trkpt><trkpt lat="15.0614009891" lon="73.9609961864"><ele>3.02</ele><time>2023-12-11T03:06:48Z</time><extensions><gpxtpx:TrackPointExtension><gpxtpx:cad>0</gpxtpx:cad></gpxtpx:TrackPointExtension></extensions></trkpt><trkpt lat="15.0604329631" lon="73.9593490586"><ele>2.06</ele><time>2023-12-11T03:07:48Z</time><extensions><gpxtpx:TrackPointExtension><gpxtpx:cad>0</gpxtpx:cad></gpxtpx:TrackPointExtension></extensions></trkpt><trkpt lat="15.0596499257" lon="73.9575787168"><ele>3.50</ele><time>2023-12-11T03:08:48Z</time><extensions><gpxtpx:TrackPointExtension><gpxtpx:cad>0</gpxtpx:cad></gpxtpx:TrackPointExtension></extensions></trkpt><trkpt lat="15.0590618514" lon="73.9557318483"><ele>2.06</ele><time>2023-12-11T03:09:48Z</time><extensions><gpxtpx:TrackPointExtension><gpxtpx:cad>0</gpxtpx:cad></gpxtpx:TrackPointExtension></extensions></trkpt><trkpt lat="15.0586114079" lon="73.9538535476"><ele>1.10</ele><time>2023-12-11T03:10:48Z</time><extensions><gpxtpx:TrackPointExtension><gpxtpx:cad>0</gpxtpx:cad></gpxtpx:TrackPointExtension></extensions></trkpt><trkpt lat="15.0580096710" lon="73.9520218503"><ele>1.58</ele><time>2023-12-11T03:11:48Z</time><extensions><gpxtpx:TrackPointExtension><gpxtpx:cad>0</gpxtpx:cad></gpxtpx:TrackPointExtension></extensions></trkpt><trkpt lat="15.0575490016" lon="73.9501281269"><ele>1.58</ele><time>2023-12-11T03:12:48Z</time><extensions><gpxtpx:TrackPointExtension><gpxtpx:cad>0</gpxtpx:cad></gpxtpx:TrackPointExtension></extensions></trkpt><trkpt lat="15.0570311677" lon="73.9482581243"><ele>3.02</ele><time>2023-12-11T03:13:48Z</time><extensions><gpxtpx:TrackPointExtension><gpxtpx:cad>0</gpxtpx:cad></gpxtpx:TrackPointExtension></extensions></trkpt><trkpt lat="15.0567076262" lon="73.9463283587"><ele>3.02</ele><time>2023-12-11T03:14:48Z</time><extensions><gpxtpx:TrackPointExtension><gpxtpx:cad>0</gpxtpx:cad></gpxtpx:TrackPointExtension></extensions></trkpt><trkpt lat="15.0563681591" lon="73.9443978388"><ele>3.02</ele><time>2023-12-11T03:15:48Z</time><extensions><gpxtpx:TrackPointExtension><gpxtpx:cad>0</gpxtpx:cad></gpxtpx:TrackPointExtension></extensions></trkpt><trkpt lat="15.0562702585" lon="73.9423948992"><ele>1.10</ele><time>2023-12-11T03:16:48Z</time><extensions><gpxtpx:TrackPointExtension><gpxtpx:cad>0</gpxtpx:cad></gpxtpx:TrackPointExtension></extensions></trkpt><trkpt lat="15.0566832349" lon="73.9407078736"><ele>-0.34</ele><time>2023-12-11T03:17:48Z</time><extensions><gpxtpx:TrackPointExtension><gpxtpx:cad>0</gpxtpx:cad></gpxtpx:TrackPointExtension></extensions></trkpt><trkpt lat="15.0585486274" lon="73.9401677437"><ele>0.62</ele><time>2023-12-11T03:18:48Z</time><extensions><gpxtpx:TrackPointExtension><gpxtpx:cad>0</gpxtpx:cad></gpxtpx:TrackPointExtension></extensions></trkpt><trkpt lat="15.0604071468" lon="73.9395817649"><ele>-0.34</ele><time>2023-12-11T03:19:48Z</time><extensions><gpxtpx:TrackPointExtension><gpxtpx:cad>0</gpxtpx:cad></gpxtpx:TrackPointExtension></extensions></trkpt><trkpt lat="15.0621998683" lon="73.9387576561"><ele>2.06</ele><time>2023-12-11T03:20:48Z</time><extensions><gpxtpx:TrackPointExtension><gpxtpx:cad>0</gpxtpx:cad></gpxtpx:TrackPointExtension></extensions></trkpt><trkpt lat="15.0639971159" lon="73.9379818272"><ele>3.02</ele><time>2023-12-11T03:21:48Z</time><extensions><gpxtpx:TrackPointExtension><gpxtpx:cad>0</gpxtpx:cad></gpxtpx:TrackPointExtension></extensions></trkpt><trkpt lat="15.0658454094" lon="73.9373150468"><ele>3.50</ele><time>2023-12-11T03:22:48Z</time><extensions><gpxtpx:TrackPointExtension><gpxtpx:cad>0</gpxtpx:cad></gpxtpx:TrackPointExtension></extensions></trkpt><trkpt lat="15.0675833970" lon="73.9364284091"><ele>4.46</ele><time>2023-12-11T03:23:48Z</time><extensions><gpxtpx:TrackPointExtension><gpxtpx:cad>0</gpxtpx:cad></gpxtpx:TrackPointExtension></extensions></trkpt><trkpt lat="15.0693301857" lon="73.9355286956"><ele>2.54</ele><time>2023-12-11T03:24:48Z</time><extensions><gpxtpx:TrackPointExtension><gpxtpx:cad>0</gpxtpx:cad></gpxtpx:TrackPointExtension></extensions></trkpt><trkpt lat="15.0710442010" lon="73.9345380384"><ele>2.54</ele><time>2023-12-11T03:25:48Z</time><extensions><gpxtpx:TrackPointExtension><gpxtpx:cad>0</gpxtpx:cad></gpxtpx:TrackPointExtension></extensions></trkpt><trkpt lat="15.0727453083" lon="73.9335395861"><ele>2.54</ele><time>2023-12-11T03:26:48Z</time><extensions><gpxtpx:TrackPointExtension><gpxtpx:cad>0</gpxtpx:cad></gpxtpx:TrackPointExtension></extensions></trkpt><trkpt lat="15.0744374469" lon="73.9325105399"><ele>2.54</ele><time>2023-12-11T03:27:48Z</time><extensions><gpxtpx:TrackPointExtension><gpxtpx:cad>0</gpxtpx:cad></gpxtpx:TrackPointExtension></extensions></trkpt><trkpt lat="15.0755752902" lon="73.9312230796"><ele>2.06</ele><time>2023-12-11T03:28:48Z</time><extensions><gpxtpx:TrackPointExtension><gpxtpx:cad>0</gpxtpx:cad></gpxtpx:TrackPointExtension></extensions></trkpt><trkpt lat="15.0757811498" lon="73.9292390831"><ele>2.54</ele><time>2023-12-11T03:29:48Z</time><extensions><gpxtpx:TrackPointExtension><gpxtpx:cad>0</gpxtpx:cad></gpxtpx:TrackPointExtension></extensions></trkpt><trkpt lat="15.0756299403" lon="73.9272795618"><ele>2.54</ele><time>2023-12-11T03:30:48Z</time><extensions><gpxtpx:TrackPointExtension><gpxtpx:cad>0</gpxtpx:cad></gpxtpx:TrackPointExtension></extensions></trkpt><trkpt lat="15.0753948279" lon="73.9253225550"><ele>2.54</ele><time>2023-12-11T03:31:48Z</time><extensions><gpxtpx:TrackPointExtension><gpxtpx:cad>0</gpxtpx:cad></gpxtpx:TrackPointExtension></extensions></trkpt><trkpt lat="15.0752468035" lon="73.9233397320"><ele>2.06</ele><time>2023-12-11T03:32:48Z</time><extensions><gpxtpx:TrackPointExtension><gpxtpx:cad>0</gpxtpx:cad></gpxtpx:TrackPointExtension></extensions></trkpt><trkpt lat="15.0750204921" lon="73.9213702362"><ele>1.10</ele><time>2023-12-11T03:33:48Z</time><extensions><gpxtpx:TrackPointExtension><gpxtpx:cad>0</gpxtpx:cad></gpxtpx:TrackPointExtension></extensions></trkpt><trkpt lat="15.0749630760" lon="73.9193456713"><ele>0.62</ele><time>2023-12-11T03:34:48Z</time><extensions><gpxtpx:TrackPointExtension><gpxtpx:cad>0</gpxtpx:cad></gpxtpx:TrackPointExtension></extensions></trkpt><trkpt lat="15.0752048939" lon="73.9173501916"><ele>0.62</ele><time>2023-12-11T03:35:48Z</time><extensions><gpxtpx:TrackPointExtension><gpxtpx:cad>0</gpxtpx:cad></gpxtpx:TrackPointExtension></extensions></trkpt><trkpt lat="15.0755642261" lon="73.9153819531"><ele>1.58</ele><time>2023-12-11T03:36:48Z</time><extensions><gpxtpx:TrackPointExtension><gpxtpx:cad>0</gpxtpx:cad></gpxtpx:TrackPointExtension></extensions></trkpt><trkpt lat="15.0763010792" lon="73.9135117829"><ele>1.10</ele><time>2023-12-11T03:37:48Z</time><extensions><gpxtpx:TrackPointExtension><gpxtpx:cad>0</gpxtpx:cad></gpxtpx:TrackPointExtension></extensions></trkpt><trkpt lat="15.0770590547" lon="73.9116308000"><ele>2.54</ele><time>2023-12-11T03:38:48Z</time><extensions><gpxtpx:TrackPointExtension><gpxtpx:cad>0</gpxtpx:cad></gpxtpx:TrackPointExtension></extensions></trkpt><trkpt lat="15.0771676842" lon="73.9096405171"><ele>2.54</ele><time>2023-12-11T03:39:48Z</time><extensions><gpxtpx:TrackPointExtension><gpxtpx:cad>0</gpxtpx:cad></gpxtpx:TrackPointExtension></extensions></trkpt><trkpt lat="15.0775856059" lon="73.9076555148"><ele>2.06</ele><time>2023-12-11T03:40:48Z</time><extensions><gpxtpx:TrackPointExtension><gpxtpx:cad>0</gpxtpx:cad></gpxtpx:TrackPointExtension></extensions></trkpt><trkpt lat="15.0781756081" lon="73.9056894556"><ele>2.54</ele><time>2023-12-11T03:41:48Z</time><extensions><gpxtpx:TrackPointExtension><gpxtpx:cad>0</gpxtpx:cad></gpxtpx:TrackPointExtension></extensions></trkpt><trkpt lat="15.0788800232" lon="73.9037656412"><ele>2.54</ele><time>2023-12-11T03:42:48Z</time><extensions><gpxtpx:TrackPointExtension><gpxtpx:cad>0</gpxtpx:cad></gpxtpx:TrackPointExtension></extensions></trkpt><trkpt lat="15.0796219893" lon="73.9018641226"><ele>2.06</ele><time>2023-12-11T03:43:48Z</time><extensions><gpxtpx:TrackPointExtension><gpxtpx:cad>0</gpxtpx:cad></gpxtpx:TrackPointExtension></extensions></trkpt><trkpt lat="15.0807213597" lon="73.9001270570"><ele>2.06</ele><time>2023-12-11T03:44:48Z</time><extensions><gpxtpx:TrackPointExtension><gpxtpx:cad>0</gpxtpx:cad></gpxtpx:TrackPointExtension></extensions></trkpt><trkpt lat="15.0817848556" lon="73.8983743172"><ele>3.02</ele><time>2023-12-11T03:45:48Z</time><extensions><gpxtpx:TrackPointExtension><gpxtpx:cad>0</gpxtpx:cad></gpxtpx:TrackPointExtension></extensions></trkpt><trkpt lat="15.0829520356" lon="73.8966771495"><ele>3.98</ele><time>2023-12-11T03:46:48Z</time><extensions><gpxtpx:TrackPointExtension><gpxtpx:cad>0</gpxtpx:cad></gpxtpx:TrackPointExtension></extensions></trkpt><trkpt lat="15.0843726844" lon="73.8961551245"><ele>3.98</ele><time>2023-12-11T03:47:48Z</time><extensions><gpxtpx:TrackPointExtension><gpxtpx:cad>0</gpxtpx:cad></gpxtpx:TrackPointExtension></extensions></trkpt><trkpt lat="15.0853847153" lon="73.8976812176"><ele>2.06</ele><time>2023-12-11T03:48:48Z</time><extensions><gpxtpx:TrackPointExtension><gpxtpx:cad>0</gpxtpx:cad></gpxtpx:TrackPointExtension></extensions></trkpt><trkpt lat="15.0862229895" lon="73.8992764615"><ele>1.10</ele><time>2023-12-11T03:49:48Z</time><extensions><gpxtpx:TrackPointExtension><gpxtpx:cad>0</gpxtpx:cad></gpxtpx:TrackPointExtension></extensions></trkpt><trkpt lat="15.0871499442" lon="73.9008272812"><ele>0.14</ele><time>2023-12-11T03:50:48Z</time><extensions><gpxtpx:TrackPointExtension><gpxtpx:cad>0</gpxtpx:cad></gpxtpx:TrackPointExtension></extensions></trkpt><trkpt lat="15.0886902027" lon="73.9018077124"><ele>4.94</ele><time>2023-12-11T03:51:48Z</time><extensions><gpxtpx:TrackPointExtension><gpxtpx:cad>0</gpxtpx:cad></gpxtpx:TrackPointExtension></extensions></trkpt><trkpt lat="15.0901499949" lon="73.9029629901"><ele>3.02</ele><time>2023-12-11T03:52:48Z</time><extensions><gpxtpx:TrackPointExtension><gpxtpx:cad>0</gpxtpx:cad></gpxtpx:TrackPointExtension></extensions></trkpt><trkpt lat="15.0916366931" lon="73.9040224627"><ele>2.06</ele><time>2023-12-11T03:53:48Z</time><extensions><gpxtpx:TrackPointExtension><gpxtpx:cad>0</gpxtpx:cad></gpxtpx:TrackPointExtension></extensions></trkpt><trkpt lat="15.0928528234" lon="73.9051744714"><ele>1.10</ele><time>2023-12-11T03:54:48Z</time><extensions><gpxtpx:TrackPointExtension><gpxtpx:cad>0</gpxtpx:cad></gpxtpx:TrackPointExtension></extensions></trkpt><trkpt lat="15.0931962300" lon="73.9069666900"><ele>2.54</ele><time>2023-12-11T03:55:48Z</time><extensions><gpxtpx:TrackPointExtension><gpxtpx:cad>0</gpxtpx:cad></gpxtpx:TrackPointExtension></extensions></trkpt><trkpt lat="15.0936778542" lon="73.9087626804"><ele>3.02</ele><time>2023-12-11T03:56:48Z</time><extensions><gpxtpx:TrackPointExtension><gpxtpx:cad>0</gpxtpx:cad></gpxtpx:TrackPointExtension></extensions></trkpt><trkpt lat="15.0941534434" lon="73.9105554018"><ele>1.58</ele><time>2023-12-11T03:57:48Z</time><extensions><gpxtpx:TrackPointExtension><gpxtpx:cad>0</gpxtpx:cad></gpxtpx:TrackPointExtension></extensions></trkpt><trkpt lat="15.0944772363" lon="73.9123732690"><ele>2.06</ele><time>2023-12-11T03:58:48Z</time><extensions><gpxtpx:TrackPointExtension><gpxtpx:cad>0</gpxtpx:cad></gpxtpx:TrackPointExtension></extensions></trkpt><trkpt lat="15.0948937330" lon="73.9141679183"><ele>2.54</ele><time>2023-12-11T03:59:48Z</time><extensions><gpxtpx:TrackPointExtension><gpxtpx:cad>0</gpxtpx:cad></gpxtpx:TrackPointExtension></extensions></trkpt><trkpt lat="15.0951865129" lon="73.9159970172"><ele>4.94</ele><time>2023-12-11T04:00:48Z</time><extensions><gpxtpx:TrackPointExtension><gpxtpx:cad>0</gpxtpx:cad></gpxtpx:TrackPointExtension></extensions></trkpt><trkpt lat="15.0955107249" lon="73.9177845418"><ele>4.46</ele><time>2023-12-11T04:01:48Z</time><extensions><gpxtpx:TrackPointExtension><gpxtpx:cad>0</gpxtpx:cad></gpxtpx:TrackPointExtension></extensions></trkpt><trkpt lat="15.0971228164" lon="73.9186285995"><ele>3.98</ele><time>2023-12-11T04:02:48Z</time><extensions><gpxtpx:TrackPointExtension><gpxtpx:cad>0</gpxtpx:cad></gpxtpx:TrackPointExtension></extensions></trkpt><trkpt lat="15.0988559425" lon="73.9193267282"><ele>3.02</ele><time>2023-12-11T04:03:48Z</time><extensions><gpxtpx:TrackPointExtension><gpxtpx:cad>0</gpxtpx:cad></gpxtpx:TrackPointExtension></extensions></trkpt><trkpt lat="15.1005979534" lon="73.9199411217"><ele>3.50</ele><time>2023-12-11T04:04:48Z</time><extensions><gpxtpx:TrackPointExtension><gpxtpx:cad>0</gpxtpx:cad></gpxtpx:TrackPointExtension></extensions></trkpt><trkpt lat="15.1024204306" lon="73.9200663473"><ele>4.46</ele><time>2023-12-11T04:05:48Z</time><extensions><gpxtpx:TrackPointExtension><gpxtpx:cad>0</gpxtpx:cad></gpxtpx:TrackPointExtension></extensions></trkpt><trkpt lat="15.1041976456" lon="73.9196045883"><ele>3.02</ele><time>2023-12-11T04:06:48Z</time><extensions><gpxtpx:TrackPointExtension><gpxtpx:cad>0</gpxtpx:cad></gpxtpx:TrackPointExtension></extensions></trkpt><trkpt lat="15.1051540207" lon="73.9181065746"><ele>1.10</ele><time>2023-12-11T04:07:48Z</time><extensions><gpxtpx:TrackPointExtension><gpxtpx:cad>0</gpxtpx:cad></gpxtpx:TrackPointExtension></extensions></trkpt><trkpt lat="15.1060422510" lon="73.9164394140"><ele>1.58</ele><time>2023-12-11T04:08:48Z</time><extensions><gpxtpx:TrackPointExtension><gpxtpx:cad>0</gpxtpx:cad></gpxtpx:TrackPointExtension></extensions></trkpt><trkpt lat="15.1073919889" lon="73.9151218627"><ele>2.54</ele><time>2023-12-11T04:09:48Z</time><extensions><gpxtpx:TrackPointExtension><gpxtpx:cad>0</gpxtpx:cad></gpxtpx:TrackPointExtension></extensions></trkpt><trkpt lat="15.1087888330" lon="73.9138752222"><ele>2.54</ele><time>2023-12-11T04:10:48Z</time><extensions><gpxtpx:TrackPointExtension><gpxtpx:cad>0</gpxtpx:cad></gpxtpx:TrackPointExtension></extensions></trkpt><trkpt lat="15.1102648862" lon="73.9126745146"><ele>2.54</ele><time>2023-12-11T04:11:48Z</time><extensions><gpxtpx:TrackPointExtension><gpxtpx:cad>0</gpxtpx:cad></gpxtpx:TrackPointExtension></extensions></trkpt><trkpt lat="15.1118367445" lon="73.9116374217"><ele>2.06</ele><time>2023-12-11T04:12:48Z</time><extensions><gpxtpx:TrackPointExtension><gpxtpx:cad>0</gpxtpx:cad></gpxtpx:TrackPointExtension></extensions></trkpt><trkpt lat="15.1128407288" lon="73.9128445834"><ele>4.46</ele><time>2023-12-11T04:13:48Z</time><extensions><gpxtpx:TrackPointExtension><gpxtpx:cad>0</gpxtpx:cad></gpxtpx:TrackPointExtension></extensions></trkpt><trkpt lat="15.1134997979" lon="73.9144860953"><ele>4.46</ele><time>2023-12-11T04:14:48Z</time><extensions><gpxtpx:TrackPointExtension><gpxtpx:cad>0</gpxtpx:cad></gpxtpx:TrackPointExtension></extensions></trkpt><trkpt lat="15.1142845117" lon="73.9160720352"><ele>4.46</ele><time>2023-12-11T04:15:48Z</time><extensions><gpxtpx:TrackPointExtension><gpxtpx:cad>0</gpxtpx:cad></gpxtpx:TrackPointExtension></extensions></trkpt><trkpt lat="15.1149279904" lon="73.9177335799"><ele>4.46</ele><time>2023-12-11T04:16:48Z</time><extensions><gpxtpx:TrackPointExtension><gpxtpx:cad>0</gpxtpx:cad></gpxtpx:TrackPointExtension></extensions></trkpt><trkpt lat="15.1154656056" lon="73.9194262214"><ele>5.42</ele><time>2023-12-11T04:17:48Z</time><extensions><gpxtpx:TrackPointExtension><gpxtpx:cad>0</gpxtpx:cad></gpxtpx:TrackPointExtension></extensions></trkpt><trkpt lat="15.1159898099" lon="73.9211252332"><ele>6.39</ele><time>2023-12-11T04:18:48Z</time><extensions><gpxtpx:TrackPointExtension><gpxtpx:cad>0</gpxtpx:cad></gpxtpx:TrackPointExtension></extensions></trkpt><trkpt lat="15.1163802389" lon="73.9228659868"><ele>4.46</ele><time>2023-12-11T04:19:48Z</time><extensions><gpxtpx:TrackPointExtension><gpxtpx:cad>0</gpxtpx:cad></gpxtpx:TrackPointExtension></extensions></trkpt><trkpt lat="15.1167038642" lon="73.9246358257"><ele>3.98</ele><time>2023-12-11T04:20:48Z</time><extensions><gpxtpx:TrackPointExtension><gpxtpx:cad>0</gpxtpx:cad></gpxtpx:TrackPointExtension></extensions></trkpt><trkpt lat="15.1171850692" lon="73.9263835363"><ele>2.54</ele><time>2023-12-11T04:21:48Z</time><extensions><gpxtpx:TrackPointExtension><gpxtpx:cad>0</gpxtpx:cad></gpxtpx:TrackPointExtension></extensions></trkpt><trkpt lat="15.1178023126" lon="73.9280940313"><ele>1.58</ele><time>2023-12-11T04:22:48Z</time><extensions><gpxtpx:TrackPointExtension><gpxtpx:cad>0</gpxtpx:cad></gpxtpx:TrackPointExtension></extensions></trkpt><trkpt lat="15.1185393333" lon="73.9297440089"><ele>1.58</ele><time>2023-12-11T04:23:48Z</time><extensions><gpxtpx:TrackPointExtension><gpxtpx:cad>0</gpxtpx:cad></gpxtpx:TrackPointExtension></extensions></trkpt><trkpt lat="15.1191606000" lon="73.9314646460"><ele>5.91</ele><time>2023-12-11T04:24:48Z</time><extensions><gpxtpx:TrackPointExtension><gpxtpx:cad>0</gpxtpx:cad></gpxtpx:TrackPointExtension></extensions></trkpt><trkpt lat="15.1197672822" lon="73.9331852831"><ele>5.91</ele><time>2023-12-11T04:25:48Z</time><extensions><gpxtpx:TrackPointExtension><gpxtpx:cad>0</gpxtpx:cad></gpxtpx:TrackPointExtension></extensions></trkpt><trkpt lat="15.1208922174" lon="73.9346384536"><ele>5.42</ele><time>2023-12-11T04:26:48Z</time><extensions><gpxtpx:TrackPointExtension><gpxtpx:cad>0</gpxtpx:cad></gpxtpx:TrackPointExtension></extensions></trkpt><trkpt lat="15.1222456433" lon="73.9358615410"><ele>5.42</ele><time>2023-12-11T04:27:48Z</time><extensions><gpxtpx:TrackPointExtension><gpxtpx:cad>0</gpxtpx:cad></gpxtpx:TrackPointExtension></extensions></trkpt><trkpt lat="15.1236713212" lon="73.9370276313"><ele>6.87</ele><time>2023-12-11T04:28:48Z</time><extensions><gpxtpx:TrackPointExtension><gpxtpx:cad>0</gpxtpx:cad></gpxtpx:TrackPointExtension></extensions></trkpt><trkpt lat="15.1252487954" lon="73.9369844645"><ele>5.42</ele><time>2023-12-11T04:29:48Z</time><extensions><gpxtpx:TrackPointExtension><gpxtpx:cad>0</gpxtpx:cad></gpxtpx:TrackPointExtension></extensions></trkpt><trkpt lat="15.1263065077" lon="73.9354118519"><ele>4.46</ele><time>2023-12-11T04:30:48Z</time><extensions><gpxtpx:TrackPointExtension><gpxtpx:cad>0</gpxtpx:cad></gpxtpx:TrackPointExtension></extensions></trkpt><trkpt lat="15.1273280941" lon="73.9338393230"><ele>3.98</ele><time>2023-12-11T04:31:48Z</time><extensions><gpxtpx:TrackPointExtension><gpxtpx:cad>0</gpxtpx:cad></gpxtpx:TrackPointExtension></extensions></trkpt><trkpt lat="15.1283608284" lon="73.9323130623"><ele>3.02</ele><time>2023-12-11T04:32:48Z</time><extensions><gpxtpx:TrackPointExtension><gpxtpx:cad>0</gpxtpx:cad></gpxtpx:TrackPointExtension></extensions></trkpt><trkpt lat="15.1293772180" lon="73.9307945129"><ele>4.94</ele><time>2023-12-11T04:33:48Z</time><extensions><gpxtpx:TrackPointExtension><gpxtpx:cad>0</gpxtpx:cad></gpxtpx:TrackPointExtension></extensions></trkpt><trkpt lat="15.1307681948" lon="73.9296296798"><ele>6.39</ele><time>2023-12-11T04:34:48Z</time><extensions><gpxtpx:TrackPointExtension><gpxtpx:cad>0</gpxtpx:cad></gpxtpx:TrackPointExtension></extensions></trkpt><trkpt lat="15.1321524661" lon="73.9284406230"><ele>4.94</ele><time>2023-12-11T04:35:48Z</time><extensions><gpxtpx:TrackPointExtension><gpxtpx:cad>0</gpxtpx:cad></gpxtpx:TrackPointExtension></extensions></trkpt><trkpt lat="15.1332347374" lon="73.9269361552"><ele>3.98</ele><time>2023-12-11T04:36:48Z</time><extensions><gpxtpx:TrackPointExtension><gpxtpx:cad>0</gpxtpx:cad></gpxtpx:TrackPointExtension></extensions></trkpt><trkpt lat="15.1342968084" lon="73.9254015964"><ele>3.50</ele><time>2023-12-11T04:37:48Z</time><extensions><gpxtpx:TrackPointExtension><gpxtpx:cad>0</gpxtpx:cad></gpxtpx:TrackPointExtension></extensions></trkpt><trkpt lat="15.1352981105" lon="73.9238305762"><ele>4.94</ele><time>2023-12-11T04:38:48Z</time><extensions><gpxtpx:TrackPointExtension><gpxtpx:cad>0</gpxtpx:cad></gpxtpx:TrackPointExtension></extensions></trkpt><trkpt lat="15.1362409070" lon="73.9222272858"><ele>3.50</ele><time>2023-12-11T04:39:48Z</time><extensions><gpxtpx:TrackPointExtension><gpxtpx:cad>0</gpxtpx:cad></gpxtpx:TrackPointExtension></extensions></trkpt><trkpt lat="15.1371567976" lon="73.9210496284"><ele>2.54</ele><time>2023-12-11T04:40:48Z</time><extensions><gpxtpx:TrackPointExtension><gpxtpx:cad>0</gpxtpx:cad></gpxtpx:TrackPointExtension></extensions></trkpt><trkpt lat="15.1374705322" lon="73.9228118397"><ele>8.31</ele><time>2023-12-11T04:41:48Z</time><extensions><gpxtpx:TrackPointExtension><gpxtpx:cad>0</gpxtpx:cad></gpxtpx:TrackPointExtension></extensions></trkpt><trkpt lat="15.1377027109" lon="73.9246201515"><ele>8.79</ele><time>2023-12-11T04:42:48Z</time><extensions><gpxtpx:TrackPointExtension><gpxtpx:cad>0</gpxtpx:cad></gpxtpx:TrackPointExtension></extensions></trkpt><trkpt lat="15.1379672438" lon="73.9265075047"><ele>7.35</ele><time>2023-12-11T04:43:48Z</time><extensions><gpxtpx:TrackPointExtension><gpxtpx:cad>0</gpxtpx:cad></gpxtpx:TrackPointExtension></extensions></trkpt><trkpt lat="15.1383537333" lon="73.9284070954"><ele>4.94</ele><time>2023-12-11T04:44:48Z</time><extensions><gpxtpx:TrackPointExtension><gpxtpx:cad>0</gpxtpx:cad></gpxtpx:TrackPointExtension></extensions></trkpt><trkpt lat="15.1387044322" lon="73.9303164091"><ele>5.91</ele><time>2023-12-11T04:45:48Z</time><extensions><gpxtpx:TrackPointExtension><gpxtpx:cad>0</gpxtpx:cad></gpxtpx:TrackPointExtension></extensions></trkpt><trkpt lat="15.1391293108" lon="73.9321974758"><ele>4.46</ele><time>2023-12-11T04:46:48Z</time><extensions><gpxtpx:TrackPointExtension><gpxtpx:cad>0</gpxtpx:cad></gpxtpx:TrackPointExtension></extensions></trkpt><trkpt lat="15.1394133735" lon="73.9340980724"><ele>4.94</ele><time>2023-12-11T04:47:48Z</time><extensions><gpxtpx:TrackPointExtension><gpxtpx:cad>0</gpxtpx:cad></gpxtpx:TrackPointExtension></extensions></trkpt><trkpt lat="15.1397543494" lon="73.9360418357"><ele>4.94</ele><time>2023-12-11T04:48:48Z</time><extensions><gpxtpx:TrackPointExtension><gpxtpx:cad>0</gpxtpx:cad></gpxtpx:TrackPointExtension></extensions></trkpt><trkpt lat="15.1403028611" lon="73.9379819110"><ele>11.67</ele><time>2023-12-11T04:49:48Z</time><extensions><gpxtpx:TrackPointExtension><gpxtpx:cad>0</gpxtpx:cad></gpxtpx:TrackPointExtension></extensions></trkpt><trkpt lat="15.1408086251" lon="73.9398846868"><ele>9.75</ele><time>2023-12-11T04:50:48Z</time><extensions><gpxtpx:TrackPointExtension><gpxtpx:cad>0</gpxtpx:cad></gpxtpx:TrackPointExtension></extensions></trkpt><trkpt lat="15.1414540317" lon="73.9417718723"><ele>5.91</ele><time>2023-12-11T04:51:48Z</time><extensions><gpxtpx:TrackPointExtension><gpxtpx:cad>0</gpxtpx:cad></gpxtpx:TrackPointExtension></extensions></trkpt><trkpt lat="15.1421393361" lon="73.9436389413"><ele>7.83</ele><time>2023-12-11T04:52:48Z</time><extensions><gpxtpx:TrackPointExtension><gpxtpx:cad>0</gpxtpx:cad></gpxtpx:TrackPointExtension></extensions></trkpt><trkpt lat="15.1424175315" lon="73.9442325477"><ele>4.94</ele><time>2023-12-11T04:53:47Z</time><extensions><gpxtpx:TrackPointExtension><gpxtpx:cad>0</gpxtpx:cad></gpxtpx:TrackPointExtension></extensions></trkpt><trkpt lat="15.1424220577" lon="73.9448135812"><ele>3.98</ele><time>2023-12-11T04:54:48Z</time><extensions><gpxtpx:TrackPointExtension><gpxtpx:cad>0</gpxtpx:cad></gpxtpx:TrackPointExtension></extensions></trkpt><trkpt lat="15.1426383108" lon="73.9455835428"><ele>5.91</ele><time>2023-12-11T04:55:48Z</time><extensions><gpxtpx:TrackPointExtension><gpxtpx:cad>0</gpxtpx:cad></gpxtpx:TrackPointExtension></extensions></trkpt><trkpt lat="15.1426049508" lon="73.9475180022"><ele>6.87</ele><time>2023-12-11T04:56:48Z</time><extensions><gpxtpx:TrackPointExtension><gpxtpx:cad>0</gpxtpx:cad></gpxtpx:TrackPointExtension></extensions></trkpt><trkpt lat="15.1423598640" lon="73.9491986576"><ele>3.98</ele><time>2023-12-11T04:57:48Z</time><extensions><gpxtpx:TrackPointExtension><gpxtpx:cad>0</gpxtpx:cad></gpxtpx:TrackPointExtension></extensions></trkpt><trkpt lat="15.1432176679" lon="73.9507362340"><ele>2.54</ele><time>2023-12-11T04:58:48Z</time><extensions><gpxtpx:TrackPointExtension><gpxtpx:cad>0</gpxtpx:cad></gpxtpx:TrackPointExtension></extensions></trkpt></trkseg></trk></gpx>