<?xml version="1.0" encoding="UTF-8" standalone="no" ?><gpx xmlns="http://www.topografix.com/GPX/1/1" xmlns:gpxx="http://www.garmin.com/xmlschemas/GpxExtensions/v3" xmlns:wptx1="http://www.garmin.com/xmlschemas/WaypointExtension/v1" xmlns:gpxtpx="http://www.garmin.com/xmlschemas/TrackPointExtension/v1" creator="eTrex 10 SEA" version="1.1" xmlns:xsi="http://www.w3.org/2001/XMLSchema-instance" xsi:schemaLocation="http://www.topografix.com/GPX/1/1 http://www.topografix.com/GPX/1/1/gpx.xsd http://www.garmin.com/xmlschemas/GpxExtensions/v3 http://www8.garmin.com/xmlschemas/GpxExtensionsv3.xsd http://www.garmin.com/xmlschemas/WaypointExtension/v1 http://www8.garmin.com/xmlschemas/WaypointExtensionv1.xsd http://www.garmin.com/xmlschemas/TrackPointExtension/v1 http://www.garmin.com/xmlschemas/TrackPointExtensionv1.xsd"><metadata><link href="http://www.garmin.com"><text>Garmin International</text></link><time>2023-12-07T06:17:42Z</time></metadata><trk><name>07-DEC-23 11:47:38</name><extensions><gpxx:TrackExtension><gpxx:DisplayColor>Cyan</gpxx:DisplayColor></gpxx:TrackExtension></extensions><trkseg><trkpt lat="15.6113161147" lon="73.7372591347"><ele>-1.30</ele><time>2023-12-07T01:52:11Z</time><extensions><gpxtpx:TrackPointExtension><gpxtpx:cad>0</gpxtpx:cad></gpxtpx:TrackPointExtension></extensions></trkpt><trkpt lat="15.6100218650" lon="73.7360135000"><ele>-2.27</ele><time>2023-12-07T01:53:11Z</time><extensions><gpxtpx:TrackPointExtension><gpxtpx:cad>0</gpxtpx:cad></gpxtpx:TrackPointExtension></extensions></trkpt><trkpt lat="15.6091684196" lon="73.7343066093"><ele>0.14</ele><time>2023-12-07T01:54:11Z</time><extensions><gpxtpx:TrackPointExtension><gpxtpx:cad>0</gpxtpx:cad></gpxtpx:TrackPointExtension></extensions></trkpt><trkpt lat="15.6087820977" lon="73.7324543763"><ele>-1.30</ele><time>2023-12-07T01:55:11Z</time><extensions><gpxtpx:TrackPointExtension><gpxtpx:cad>0</gpxtpx:cad></gpxtpx:TrackPointExtension></extensions></trkpt><trkpt lat="15.6083303969" lon="73.7305966113"><ele>-1.30</ele><time>2023-12-07T01:56:11Z</time><extensions><gpxtpx:TrackPointExtension><gpxtpx:cad>0</gpxtpx:cad></gpxtpx:TrackPointExtension></extensions></trkpt><trkpt lat="15.6077457592" lon="73.7287816778"><ele>-1.79</ele><time>2023-12-07T01:57:11Z</time><extensions><gpxtpx:TrackPointExtension><gpxtpx:cad>0</gpxtpx:cad></gpxtpx:TrackPointExtension></extensions></trkpt><trkpt lat="15.6071337126" lon="73.7269831728"><ele>-0.34</ele><time>2023-12-07T01:58:11Z</time><extensions><gpxtpx:TrackPointExtension><gpxtpx:cad>0</gpxtpx:cad></gpxtpx:TrackPointExtension></extensions></trkpt><trkpt lat="15.6062407047" lon="73.7253910303"><ele>1.10</ele><time>2023-12-07T01:59:11Z</time><extensions><gpxtpx:TrackPointExtension><gpxtpx:cad>0</gpxtpx:cad></gpxtpx:TrackPointExtension></extensions></trkpt><trkpt lat="15.6053765304" lon="73.7237599120"><ele>-0.34</ele><time>2023-12-07T02:00:11Z</time><extensions><gpxtpx:TrackPointExtension><gpxtpx:cad>0</gpxtpx:cad></gpxtpx:TrackPointExtension></extensions></trkpt><trkpt lat="15.6046212371" lon="73.7220689468"><ele>-1.79</ele><time>2023-12-07T02:01:11Z</time><extensions><gpxtpx:TrackPointExtension><gpxtpx:cad>0</gpxtpx:cad></gpxtpx:TrackPointExtension></extensions></trkpt><trkpt lat="15.6041667704" lon="73.7202970125"><ele>-2.27</ele><time>2023-12-07T02:02:11Z</time><extensions><gpxtpx:TrackPointExtension><gpxtpx:cad>0</gpxtpx:cad></gpxtpx:TrackPointExtension></extensions></trkpt><trkpt lat="15.6040067598" lon="73.7184295245"><ele>-1.30</ele><time>2023-12-07T02:03:11Z</time><extensions><gpxtpx:TrackPointExtension><gpxtpx:cad>0</gpxtpx:cad></gpxtpx:TrackPointExtension></extensions></trkpt><trkpt lat="15.6038915925" lon="73.7165756989"><ele>-1.30</ele><time>2023-12-07T02:04:11Z</time><extensions><gpxtpx:TrackPointExtension><gpxtpx:cad>0</gpxtpx:cad></gpxtpx:TrackPointExtension></extensions></trkpt><trkpt lat="15.6037694681" lon="73.7147157546"><ele>-0.34</ele><time>2023-12-07T02:05:11Z</time><extensions><gpxtpx:TrackPointExtension><gpxtpx:cad>0</gpxtpx:cad></gpxtpx:TrackPointExtension></extensions></trkpt><trkpt lat="15.6033980660" lon="73.7128905952"><ele>0.14</ele><time>2023-12-07T02:06:11Z</time><extensions><gpxtpx:TrackPointExtension><gpxtpx:cad>0</gpxtpx:cad></gpxtpx:TrackPointExtension></extensions></trkpt><trkpt lat="15.6033999939" lon="73.7110326625"><ele>0.14</ele><time>2023-12-07T02:07:11Z</time><extensions><gpxtpx:TrackPointExtension><gpxtpx:cad>0</gpxtpx:cad></gpxtpx:TrackPointExtension></extensions></trkpt><trkpt lat="15.6034372933" lon="73.7092095148"><ele>0.14</ele><time>2023-12-07T02:08:11Z</time><extensions><gpxtpx:TrackPointExtension><gpxtpx:cad>0</gpxtpx:cad></gpxtpx:TrackPointExtension></extensions></trkpt><trkpt lat="15.6035424862" lon="73.7073621433"><ele>0.62</ele><time>2023-12-07T02:09:11Z</time><extensions><gpxtpx:TrackPointExtension><gpxtpx:cad>0</gpxtpx:cad></gpxtpx:TrackPointExtension></extensions></trkpt><trkpt lat="15.6039628386" lon="73.7055753730"><ele>-0.34</ele><time>2023-12-07T02:10:11Z</time><extensions><gpxtpx:TrackPointExtension><gpxtpx:cad>0</gpxtpx:cad></gpxtpx:TrackPointExtension></extensions></trkpt><trkpt lat="15.6042524334" lon="73.7037542369"><ele>0.62</ele><time>2023-12-07T02:11:11Z</time><extensions><gpxtpx:TrackPointExtension><gpxtpx:cad>0</gpxtpx:cad></gpxtpx:TrackPointExtension></extensions></trkpt><trkpt lat="15.6046566088" lon="73.7019240484"><ele>0.62</ele><time>2023-12-07T02:12:11Z</time><extensions><gpxtpx:TrackPointExtension><gpxtpx:cad>0</gpxtpx:cad></gpxtpx:TrackPointExtension></extensions></trkpt><trkpt lat="15.6050056312" lon="73.7001035828"><ele>0.14</ele><time>2023-12-07T02:13:11Z</time><extensions><gpxtpx:TrackPointExtension><gpxtpx:cad>0</gpxtpx:cad></gpxtpx:TrackPointExtension></extensions></trkpt><trkpt lat="15.6049563456" lon="73.6982569657"><ele>0.14</ele><time>2023-12-07T02:14:11Z</time><extensions><gpxtpx:TrackPointExtension><gpxtpx:cad>0</gpxtpx:cad></gpxtpx:TrackPointExtension></extensions></trkpt><trkpt lat="15.6052327808" lon="73.6964403559"><ele>-0.82</ele><time>2023-12-07T02:15:11Z</time><extensions><gpxtpx:TrackPointExtension><gpxtpx:cad>0</gpxtpx:cad></gpxtpx:TrackPointExtension></extensions></trkpt><trkpt lat="15.6059338432" lon="73.6947198864"><ele>-0.34</ele><time>2023-12-07T02:16:11Z</time><extensions><gpxtpx:TrackPointExtension><gpxtpx:cad>0</gpxtpx:cad></gpxtpx:TrackPointExtension></extensions></trkpt><trkpt lat="15.6070144381" lon="73.6933273170"><ele>-0.34</ele><time>2023-12-07T02:17:11Z</time><extensions><gpxtpx:TrackPointExtension><gpxtpx:cad>0</gpxtpx:cad></gpxtpx:TrackPointExtension></extensions></trkpt><trkpt lat="15.6076271553" lon="73.6915667821"><ele>-0.34</ele><time>2023-12-07T02:18:11Z</time><extensions><gpxtpx:TrackPointExtension><gpxtpx:cad>0</gpxtpx:cad></gpxtpx:TrackPointExtension></extensions></trkpt><trkpt lat="15.6081727333" lon="73.6897835322"><ele>-0.82</ele><time>2023-12-07T02:19:11Z</time><extensions><gpxtpx:TrackPointExtension><gpxtpx:cad>0</gpxtpx:cad></gpxtpx:TrackPointExtension></extensions></trkpt><trkpt lat="15.6087322254" lon="73.6880064011"><ele>0.14</ele><time>2023-12-07T02:20:11Z</time><extensions><gpxtpx:TrackPointExtension><gpxtpx:cad>0</gpxtpx:cad></gpxtpx:TrackPointExtension></extensions></trkpt><trkpt lat="15.6090185512" lon="73.6861392483"><ele>-0.34</ele><time>2023-12-07T02:21:11Z</time><extensions><gpxtpx:TrackPointExtension><gpxtpx:cad>0</gpxtpx:cad></gpxtpx:TrackPointExtension></extensions></trkpt><trkpt lat="15.6095691584" lon="73.6843562499"><ele>0.14</ele><time>2023-12-07T02:22:11Z</time><extensions><gpxtpx:TrackPointExtension><gpxtpx:cad>0</gpxtpx:cad></gpxtpx:TrackPointExtension></extensions></trkpt><trkpt lat="15.6105696224" lon="73.6828827951"><ele>-0.82</ele><time>2023-12-07T02:23:11Z</time><extensions><gpxtpx:TrackPointExtension><gpxtpx:cad>0</gpxtpx:cad></gpxtpx:TrackPointExtension></extensions></trkpt><trkpt lat="15.6111065671" lon="73.6811528541"><ele>0.14</ele><time>2023-12-07T02:24:11Z</time><extensions><gpxtpx:TrackPointExtension><gpxtpx:cad>0</gpxtpx:cad></gpxtpx:TrackPointExtension></extensions></trkpt><trkpt lat="15.6112716068" lon="73.6793347355"><ele>0.62</ele><time>2023-12-07T02:25:11Z</time><extensions><gpxtpx:TrackPointExtension><gpxtpx:cad>0</gpxtpx:cad></gpxtpx:TrackPointExtension></extensions></trkpt><trkpt lat="15.6115441862" lon="73.6774982605"><ele>0.14</ele><time>2023-12-07T02:26:11Z</time><extensions><gpxtpx:TrackPointExtension><gpxtpx:cad>0</gpxtpx:cad></gpxtpx:TrackPointExtension></extensions></trkpt><trkpt lat="15.6119077932" lon="73.6757067963"><ele>0.62</ele><time>2023-12-07T02:27:11Z</time><extensions><gpxtpx:TrackPointExtension><gpxtpx:cad>0</gpxtpx:cad></gpxtpx:TrackPointExtension></extensions></trkpt><trkpt lat="15.6120096333" lon="73.6738955509"><ele>1.58</ele><time>2023-12-07T02:28:11Z</time><extensions><gpxtpx:TrackPointExtension><gpxtpx:cad>0</gpxtpx:cad></gpxtpx:TrackPointExtension></extensions></trkpt><trkpt lat="15.6117857527" lon="73.6720631830"><ele>0.62</ele><time>2023-12-07T02:29:11Z</time><extensions><gpxtpx:TrackPointExtension><gpxtpx:cad>0</gpxtpx:cad></gpxtpx:TrackPointExtension></extensions></trkpt><trkpt lat="15.6119523849" lon="73.6702286359"><ele>0.62</ele><time>2023-12-07T02:30:11Z</time><extensions><gpxtpx:TrackPointExtension><gpxtpx:cad>0</gpxtpx:cad></gpxtpx:TrackPointExtension></extensions></trkpt><trkpt lat="15.6118298415" lon="73.6683752295"><ele>1.10</ele><time>2023-12-07T02:31:11Z</time><extensions><gpxtpx:TrackPointExtension><gpxtpx:cad>0</gpxtpx:cad></gpxtpx:TrackPointExtension></extensions></trkpt><trkpt lat="15.6116254069" lon="73.6665415205"><ele>1.58</ele><time>2023-12-07T02:32:11Z</time><extensions><gpxtpx:TrackPointExtension><gpxtpx:cad>0</gpxtpx:cad></gpxtpx:TrackPointExtension></extensions></trkpt><trkpt lat="15.6110278610" lon="73.6648049578"><ele>1.58</ele><time>2023-12-07T02:33:11Z</time><extensions><gpxtpx:TrackPointExtension><gpxtpx:cad>0</gpxtpx:cad></gpxtpx:TrackPointExtension></extensions></trkpt><trkpt lat="15.6108119432" lon="73.6629671417"><ele>-0.34</ele><time>2023-12-07T02:34:11Z</time><extensions><gpxtpx:TrackPointExtension><gpxtpx:cad>0</gpxtpx:cad></gpxtpx:TrackPointExtension></extensions></trkpt><trkpt lat="15.6109810062" lon="73.6611174233"><ele>0.62</ele><time>2023-12-07T02:35:11Z</time><extensions><gpxtpx:TrackPointExtension><gpxtpx:cad>0</gpxtpx:cad></gpxtpx:TrackPointExtension></extensions></trkpt><trkpt lat="15.6111701857" lon="73.6591553874"><ele>-1.30</ele><time>2023-12-07T02:36:11Z</time><extensions><gpxtpx:TrackPointExtension><gpxtpx:cad>0</gpxtpx:cad></gpxtpx:TrackPointExtension></extensions></trkpt><trkpt lat="15.6111414358" lon="73.6571326666"><ele>1.10</ele><time>2023-12-07T02:37:11Z</time><extensions><gpxtpx:TrackPointExtension><gpxtpx:cad>0</gpxtpx:cad></gpxtpx:TrackPointExtension></extensions></trkpt><trkpt lat="15.6112157833" lon="73.6551378574"><ele>0.14</ele><time>2023-12-07T02:38:11Z</time><extensions><gpxtpx:TrackPointExtension><gpxtpx:cad>0</gpxtpx:cad></gpxtpx:TrackPointExtension></extensions></trkpt><trkpt lat="15.6113151927" lon="73.6531193275"><ele>2.54</ele><time>2023-12-07T02:39:11Z</time><extensions><gpxtpx:TrackPointExtension><gpxtpx:cad>0</gpxtpx:cad></gpxtpx:TrackPointExtension></extensions></trkpt><trkpt lat="15.6115550827" lon="73.6511403602"><ele>0.62</ele><time>2023-12-07T02:40:11Z</time><extensions><gpxtpx:TrackPointExtension><gpxtpx:cad>0</gpxtpx:cad></gpxtpx:TrackPointExtension></extensions></trkpt><trkpt lat="15.6115393247" lon="73.6491222493"><ele>2.06</ele><time>2023-12-07T02:41:11Z</time><extensions><gpxtpx:TrackPointExtension><gpxtpx:cad>0</gpxtpx:cad></gpxtpx:TrackPointExtension></extensions></trkpt><trkpt lat="15.6116603594" lon="73.6471269373"><ele>1.10</ele><time>2023-12-07T02:42:11Z</time><extensions><gpxtpx:TrackPointExtension><gpxtpx:cad>0</gpxtpx:cad></gpxtpx:TrackPointExtension></extensions></trkpt><trkpt lat="15.6123930216" lon="73.6456797179"><ele>2.06</ele><time>2023-12-07T02:43:11Z</time><extensions><gpxtpx:TrackPointExtension><gpxtpx:cad>0</gpxtpx:cad></gpxtpx:TrackPointExtension></extensions></trkpt><trkpt lat="15.6137451902" lon="73.6466939282"><ele>3.02</ele><time>2023-12-07T02:44:11Z</time><extensions><gpxtpx:TrackPointExtension><gpxtpx:cad>0</gpxtpx:cad></gpxtpx:TrackPointExtension></extensions></trkpt><trkpt lat="15.6146673672" lon="73.6483777687"><ele>3.50</ele><time>2023-12-07T02:45:11Z</time><extensions><gpxtpx:TrackPointExtension><gpxtpx:cad>0</gpxtpx:cad></gpxtpx:TrackPointExtension></extensions></trkpt><trkpt lat="15.6159104872" lon="73.6498158518"><ele>2.54</ele><time>2023-12-07T02:46:11Z</time><extensions><gpxtpx:TrackPointExtension><gpxtpx:cad>0</gpxtpx:cad></gpxtpx:TrackPointExtension></extensions></trkpt><trkpt lat="15.6170499232" lon="73.6513338983"><ele>0.62</ele><time>2023-12-07T02:47:11Z</time><extensions><gpxtpx:TrackPointExtension><gpxtpx:cad>0</gpxtpx:cad></gpxtpx:TrackPointExtension></extensions></trkpt><trkpt lat="15.6181087252" lon="73.6529251188"><ele>1.58</ele><time>2023-12-07T02:48:11Z</time><extensions><gpxtpx:TrackPointExtension><gpxtpx:cad>0</gpxtpx:cad></gpxtpx:TrackPointExtension></extensions></trkpt><trkpt lat="15.6190011464" lon="73.6546097137"><ele>1.10</ele><time>2023-12-07T02:49:11Z</time><extensions><gpxtpx:TrackPointExtension><gpxtpx:cad>0</gpxtpx:cad></gpxtpx:TrackPointExtension></extensions></trkpt><trkpt lat="15.6199472956" lon="73.6562595237"><ele>1.10</ele><time>2023-12-07T02:50:11Z</time><extensions><gpxtpx:TrackPointExtension><gpxtpx:cad>0</gpxtpx:cad></gpxtpx:TrackPointExtension></extensions></trkpt><trkpt lat="15.6205567438" lon="73.6580870301"><ele>3.50</ele><time>2023-12-07T02:51:11Z</time><extensions><gpxtpx:TrackPointExtension><gpxtpx:cad>0</gpxtpx:cad></gpxtpx:TrackPointExtension></extensions></trkpt><trkpt lat="15.6220071483" lon="73.6591733247"><ele>5.91</ele><time>2023-12-07T02:52:11Z</time><extensions><gpxtpx:TrackPointExtension><gpxtpx:cad>0</gpxtpx:cad></gpxtpx:TrackPointExtension></extensions></trkpt><trkpt lat="15.6237562839" lon="73.6598126125"><ele>3.98</ele><time>2023-12-07T02:53:11Z</time><extensions><gpxtpx:TrackPointExtension><gpxtpx:cad>0</gpxtpx:cad></gpxtpx:TrackPointExtension></extensions></trkpt><trkpt lat="15.6254568882" lon="73.6605919618"><ele>2.06</ele><time>2023-12-07T02:54:11Z</time><extensions><gpxtpx:TrackPointExtension><gpxtpx:cad>0</gpxtpx:cad></gpxtpx:TrackPointExtension></extensions></trkpt><trkpt lat="15.6271843985" lon="73.6612071935"><ele>1.58</ele><time>2023-12-07T02:55:11Z</time><extensions><gpxtpx:TrackPointExtension><gpxtpx:cad>0</gpxtpx:cad></gpxtpx:TrackPointExtension></extensions></trkpt><trkpt lat="15.6290319376" lon="73.6610551458"><ele>-0.34</ele><time>2023-12-07T02:56:11Z</time><extensions><gpxtpx:TrackPointExtension><gpxtpx:cad>0</gpxtpx:cad></gpxtpx:TrackPointExtension></extensions></trkpt><trkpt lat="15.6308956537" lon="73.6609733384"><ele>-0.34</ele><time>2023-12-07T02:57:11Z</time><extensions><gpxtpx:TrackPointExtension><gpxtpx:cad>0</gpxtpx:cad></gpxtpx:TrackPointExtension></extensions></trkpt><trkpt lat="15.6327544246" lon="73.6611626856"><ele>0.62</ele><time>2023-12-07T02:58:11Z</time><extensions><gpxtpx:TrackPointExtension><gpxtpx:cad>0</gpxtpx:cad></gpxtpx:TrackPointExtension></extensions></trkpt><trkpt lat="15.6345836911" lon="73.6615632568"><ele>1.10</ele><time>2023-12-07T02:59:11Z</time><extensions><gpxtpx:TrackPointExtension><gpxtpx:cad>0</gpxtpx:cad></gpxtpx:TrackPointExtension></extensions></trkpt><trkpt lat="15.6364185736" lon="73.6619457230"><ele>0.62</ele><time>2023-12-07T03:00:11Z</time><extensions><gpxtpx:TrackPointExtension><gpxtpx:cad>0</gpxtpx:cad></gpxtpx:TrackPointExtension></extensions></trkpt><trkpt lat="15.6382926833" lon="73.6621174682"><ele>-0.34</ele><time>2023-12-07T03:01:11Z</time><extensions><gpxtpx:TrackPointExtension><gpxtpx:cad>0</gpxtpx:cad></gpxtpx:TrackPointExtension></extensions></trkpt><trkpt lat="15.6401574053" lon="73.6622257624"><ele>-1.30</ele><time>2023-12-07T03:02:11Z</time><extensions><gpxtpx:TrackPointExtension><gpxtpx:cad>0</gpxtpx:cad></gpxtpx:TrackPointExtension></extensions></trkpt><trkpt lat="15.6420351192" lon="73.6623633932"><ele>-0.34</ele><time>2023-12-07T03:03:11Z</time><extensions><gpxtpx:TrackPointExtension><gpxtpx:cad>0</gpxtpx:cad></gpxtpx:TrackPointExtension></extensions></trkpt><trkpt lat="15.6438815687" lon="73.6626683269"><ele>1.10</ele><time>2023-12-07T03:04:11Z</time><extensions><gpxtpx:TrackPointExtension><gpxtpx:cad>0</gpxtpx:cad></gpxtpx:TrackPointExtension></extensions></trkpt><trkpt lat="15.6457001064" lon="73.6630714964"><ele>-0.82</ele><time>2023-12-07T03:05:11Z</time><extensions><gpxtpx:TrackPointExtension><gpxtpx:cad>0</gpxtpx:cad></gpxtpx:TrackPointExtension></extensions></trkpt><trkpt lat="15.6474700291" lon="73.6636546254"><ele>0.14</ele><time>2023-12-07T03:06:11Z</time><extensions><gpxtpx:TrackPointExtension><gpxtpx:cad>0</gpxtpx:cad></gpxtpx:TrackPointExtension></extensions></trkpt><trkpt lat="15.6493177358" lon="73.6640376784"><ele>-0.82</ele><time>2023-12-07T03:07:11Z</time><extensions><gpxtpx:TrackPointExtension><gpxtpx:cad>0</gpxtpx:cad></gpxtpx:TrackPointExtension></extensions></trkpt><trkpt lat="15.6511862297" lon="73.6642580386"><ele>0.62</ele><time>2023-12-07T03:08:11Z</time><extensions><gpxtpx:TrackPointExtension><gpxtpx:cad>0</gpxtpx:cad></gpxtpx:TrackPointExtension></extensions></trkpt><trkpt lat="15.6530473474" lon="73.6645106692"><ele>2.06</ele><time>2023-12-07T03:09:11Z</time><extensions><gpxtpx:TrackPointExtension><gpxtpx:cad>0</gpxtpx:cad></gpxtpx:TrackPointExtension></extensions></trkpt><trkpt lat="15.6548515521" lon="73.6650072131"><ele>0.14</ele><time>2023-12-07T03:10:11Z</time><extensions><gpxtpx:TrackPointExtension><gpxtpx:cad>0</gpxtpx:cad></gpxtpx:TrackPointExtension></extensions></trkpt><trkpt lat="15.6567014381" lon="73.6652434152"><ele>0.62</ele><time>2023-12-07T03:11:11Z</time><extensions><gpxtpx:TrackPointExtension><gpxtpx:cad>0</gpxtpx:cad></gpxtpx:TrackPointExtension></extensions></trkpt><trkpt lat="15.6585753802" lon="73.6653481890"><ele>0.14</ele><time>2023-12-07T03:12:11Z</time><extensions><gpxtpx:TrackPointExtension><gpxtpx:cad>0</gpxtpx:cad></gpxtpx:TrackPointExtension></extensions></trkpt><trkpt lat="15.6604822632" lon="73.6651175190"><ele>-0.34</ele><time>2023-12-07T03:13:11Z</time><extensions><gpxtpx:TrackPointExtension><gpxtpx:cad>0</gpxtpx:cad></gpxtpx:TrackPointExtension></extensions></trkpt><trkpt lat="15.6624003779" lon="73.6651944648"><ele>1.58</ele><time>2023-12-07T03:14:11Z</time><extensions><gpxtpx:TrackPointExtension><gpxtpx:cad>0</gpxtpx:cad></gpxtpx:TrackPointExtension></extensions></trkpt><trkpt lat="15.6642818637" lon="73.6650498770"><ele>0.14</ele><time>2023-12-07T03:15:11Z</time><extensions><gpxtpx:TrackPointExtension><gpxtpx:cad>0</gpxtpx:cad></gpxtpx:TrackPointExtension></extensions></trkpt><trkpt lat="15.6661617570" lon="73.6651047785"><ele>0.62</ele><time>2023-12-07T03:16:11Z</time><extensions><gpxtpx:TrackPointExtension><gpxtpx:cad>0</gpxtpx:cad></gpxtpx:TrackPointExtension></extensions></trkpt><trkpt lat="15.6680592522" lon="73.6652050260"><ele>1.10</ele><time>2023-12-07T03:17:11Z</time><extensions><gpxtpx:TrackPointExtension><gpxtpx:cad>0</gpxtpx:cad></gpxtpx:TrackPointExtension></extensions></trkpt><trkpt lat="15.6699484494" lon="73.6653297488"><ele>1.10</ele><time>2023-12-07T03:18:11Z</time><extensions><gpxtpx:TrackPointExtension><gpxtpx:cad>0</gpxtpx:cad></gpxtpx:TrackPointExtension></extensions></trkpt><trkpt lat="15.6707956083" lon="73.6651875917"><ele>1.58</ele><time>2023-12-07T03:19:11Z</time><extensions><gpxtpx:TrackPointExtension><gpxtpx:cad>0</gpxtpx:cad></gpxtpx:TrackPointExtension></extensions></trkpt><trkpt lat="15.6701363716" lon="73.6651354562"><ele>0.62</ele><time>2023-12-07T03:20:11Z</time><extensions><gpxtpx:TrackPointExtension><gpxtpx:cad>0</gpxtpx:cad></gpxtpx:TrackPointExtension></extensions></trkpt><trkpt lat="15.6700342800" lon="73.6651739292"><ele>0.14</ele><time>2023-12-07T03:21:11Z</time><extensions><gpxtpx:TrackPointExtension><gpxtpx:cad>0</gpxtpx:cad></gpxtpx:TrackPointExtension></extensions></trkpt><trkpt lat="15.6703003217" lon="73.6649193708"><ele>-0.34</ele><time>2023-12-07T03:22:11Z</time><extensions><gpxtpx:TrackPointExtension><gpxtpx:cad>0</gpxtpx:cad></gpxtpx:TrackPointExtension></extensions></trkpt><trkpt lat="15.6721605174" lon="73.6649323627"><ele>1.58</ele><time>2023-12-07T03:23:11Z</time><extensions><gpxtpx:TrackPointExtension><gpxtpx:cad>0</gpxtpx:cad></gpxtpx:TrackPointExtension></extensions></trkpt><trkpt lat="15.6740457751" lon="73.6650071293"><ele>0.62</ele><time>2023-12-07T03:24:11Z</time><extensions><gpxtpx:TrackPointExtension><gpxtpx:cad>0</gpxtpx:cad></gpxtpx:TrackPointExtension></extensions></trkpt><trkpt lat="15.6759213097" lon="73.6649300996"><ele>-0.34</ele><time>2023-12-07T03:25:11Z</time><extensions><gpxtpx:TrackPointExtension><gpxtpx:cad>0</gpxtpx:cad></gpxtpx:TrackPointExtension></extensions></trkpt><trkpt lat="15.6777691841" lon="73.6646778882"><ele>-1.30</ele><time>2023-12-07T03:26:11Z</time><extensions><gpxtpx:TrackPointExtension><gpxtpx:cad>0</gpxtpx:cad></gpxtpx:TrackPointExtension></extensions></trkpt><trkpt lat="15.6796549447" lon="73.6645478848"><ele>-2.75</ele><time>2023-12-07T03:27:11Z</time><extensions><gpxtpx:TrackPointExtension><gpxtpx:cad>0</gpxtpx:cad></gpxtpx:TrackPointExtension></extensions></trkpt><trkpt lat="15.6815451477" lon="73.6641196534"><ele>0.14</ele><time>2023-12-07T03:28:11Z</time><extensions><gpxtpx:TrackPointExtension><gpxtpx:cad>0</gpxtpx:cad></gpxtpx:TrackPointExtension></extensions></trkpt><trkpt lat="15.6833139807" lon="73.6639528535"><ele>0.62</ele><time>2023-12-07T03:29:11Z</time><extensions><gpxtpx:TrackPointExtension><gpxtpx:cad>0</gpxtpx:cad></gpxtpx:TrackPointExtension></extensions></trkpt><trkpt lat="15.6848274171" lon="73.6633820459"><ele>-0.82</ele><time>2023-12-07T03:30:11Z</time><extensions><gpxtpx:TrackPointExtension><gpxtpx:cad>0</gpxtpx:cad></gpxtpx:TrackPointExtension></extensions></trkpt><trkpt lat="15.6864448730" lon="73.6629783735"><ele>0.14</ele><time>2023-12-07T03:31:11Z</time><extensions><gpxtpx:TrackPointExtension><gpxtpx:cad>0</gpxtpx:cad></gpxtpx:TrackPointExtension></extensions></trkpt><trkpt lat="15.6880785059" lon="73.6626530718"><ele>0.14</ele><time>2023-12-07T03:32:11Z</time><extensions><gpxtpx:TrackPointExtension><gpxtpx:cad>0</gpxtpx:cad></gpxtpx:TrackPointExtension></extensions></trkpt><trkpt lat="15.6897206884" lon="73.6624590307"><ele>-0.34</ele><time>2023-12-07T03:33:11Z</time><extensions><gpxtpx:TrackPointExtension><gpxtpx:cad>0</gpxtpx:cad></gpxtpx:TrackPointExtension></extensions></trkpt><trkpt lat="15.6907804124" lon="73.6635083612"><ele>-0.82</ele><time>2023-12-07T03:34:11Z</time><extensions><gpxtpx:TrackPointExtension><gpxtpx:cad>0</gpxtpx:cad></gpxtpx:TrackPointExtension></extensions></trkpt><trkpt lat="15.6924659293" lon="73.6635432299"><ele>-0.34</ele><time>2023-12-07T03:35:11Z</time><extensions><gpxtpx:TrackPointExtension><gpxtpx:cad>0</gpxtpx:cad></gpxtpx:TrackPointExtension></extensions></trkpt><trkpt lat="15.6941027474" lon="73.6632266454"><ele>-1.30</ele><time>2023-12-07T03:36:11Z</time><extensions><gpxtpx:TrackPointExtension><gpxtpx:cad>0</gpxtpx:cad></gpxtpx:TrackPointExtension></extensions></trkpt><trkpt lat="15.6957518030" lon="73.6628135014"><ele>0.14</ele><time>2023-12-07T03:37:11Z</time><extensions><gpxtpx:TrackPointExtension><gpxtpx:cad>0</gpxtpx:cad></gpxtpx:TrackPointExtension></extensions></trkpt><trkpt lat="15.6973943207" lon="73.6624208931"><ele>-0.34</ele><time>2023-12-07T03:38:11Z</time><extensions><gpxtpx:TrackPointExtension><gpxtpx:cad>0</gpxtpx:cad></gpxtpx:TrackPointExtension></extensions></trkpt><trkpt lat="15.6990243495" lon="73.6623268481"><ele>1.10</ele><time>2023-12-07T03:39:11Z</time><extensions><gpxtpx:TrackPointExtension><gpxtpx:cad>0</gpxtpx:cad></gpxtpx:TrackPointExtension></extensions></trkpt><trkpt lat="15.7004379574" lon="73.6631826404"><ele>2.06</ele><time>2023-12-07T03:40:11Z</time><extensions><gpxtpx:TrackPointExtension><gpxtpx:cad>0</gpxtpx:cad></gpxtpx:TrackPointExtension></extensions></trkpt><trkpt lat="15.7018568460" lon="73.6640581302"><ele>1.10</ele><time>2023-12-07T03:41:11Z</time><extensions><gpxtpx:TrackPointExtension><gpxtpx:cad>0</gpxtpx:cad></gpxtpx:TrackPointExtension></extensions></trkpt><trkpt lat="15.7031535264" lon="73.6650983244"><ele>0.62</ele><time>2023-12-07T03:42:11Z</time><extensions><gpxtpx:TrackPointExtension><gpxtpx:cad>0</gpxtpx:cad></gpxtpx:TrackPointExtension></extensions></trkpt><trkpt lat="15.7042502984" lon="73.6663371697"><ele>-3.23</ele><time>2023-12-07T03:43:11Z</time><extensions><gpxtpx:TrackPointExtension><gpxtpx:cad>0</gpxtpx:cad></gpxtpx:TrackPointExtension></extensions></trkpt><trkpt lat="15.7052125409" lon="73.6677039228"><ele>0.14</ele><time>2023-12-07T03:44:11Z</time><extensions><gpxtpx:TrackPointExtension><gpxtpx:cad>0</gpxtpx:cad></gpxtpx:TrackPointExtension></extensions></trkpt><trkpt lat="15.7063829899" lon="73.6688835919"><ele>-0.34</ele><time>2023-12-07T03:45:11Z</time><extensions><gpxtpx:TrackPointExtension><gpxtpx:cad>0</gpxtpx:cad></gpxtpx:TrackPointExtension></extensions></trkpt><trkpt lat="15.7075655926" lon="73.6700319126"><ele>1.10</ele><time>2023-12-07T03:46:11Z</time><extensions><gpxtpx:TrackPointExtension><gpxtpx:cad>0</gpxtpx:cad></gpxtpx:TrackPointExtension></extensions></trkpt><trkpt lat="15.7087332755" lon="73.6711721029"><ele>2.06</ele><time>2023-12-07T03:47:11Z</time><extensions><gpxtpx:TrackPointExtension><gpxtpx:cad>0</gpxtpx:cad></gpxtpx:TrackPointExtension></extensions></trkpt><trkpt lat="15.7100252621" lon="73.6720521189"><ele>-0.34</ele><time>2023-12-07T03:48:11Z</time><extensions><gpxtpx:TrackPointExtension><gpxtpx:cad>0</gpxtpx:cad></gpxtpx:TrackPointExtension></extensions></trkpt><trkpt lat="15.7110280730" lon="73.6731188837"><ele>0.62</ele><time>2023-12-07T03:49:11Z</time><extensions><gpxtpx:TrackPointExtension><gpxtpx:cad>0</gpxtpx:cad></gpxtpx:TrackPointExtension></extensions></trkpt><trkpt lat="15.7120639924" lon="73.6741535459"><ele>-0.82</ele><time>2023-12-07T03:50:11Z</time><extensions><gpxtpx:TrackPointExtension><gpxtpx:cad>0</gpxtpx:cad></gpxtpx:TrackPointExtension></extensions></trkpt><trkpt lat="15.7132838108" lon="73.6750381719"><ele>-0.82</ele><time>2023-12-07T03:51:11Z</time><extensions><gpxtpx:TrackPointExtension><gpxtpx:cad>0</gpxtpx:cad></gpxtpx:TrackPointExtension></extensions></trkpt><trkpt lat="15.7143488992" lon="73.6760848202"><ele>0.14</ele><time>2023-12-07T03:52:11Z</time><extensions><gpxtpx:TrackPointExtension><gpxtpx:cad>0</gpxtpx:cad></gpxtpx:TrackPointExtension></extensions></trkpt><trkpt lat="15.7155516185" lon="73.6769953463"><ele>-1.79</ele><time>2023-12-07T03:53:11Z</time><extensions><gpxtpx:TrackPointExtension><gpxtpx:cad>0</gpxtpx:cad></gpxtpx:TrackPointExtension></extensions></trkpt><trkpt lat="15.7166366559" lon="73.6779676471"><ele>-0.82</ele><time>2023-12-07T03:54:11Z</time><extensions><gpxtpx:TrackPointExtension><gpxtpx:cad>0</gpxtpx:cad></gpxtpx:TrackPointExtension></extensions></trkpt><trkpt lat="15.7178340945" lon="73.6788277980"><ele>0.14</ele><time>2023-12-07T03:55:11Z</time><extensions><gpxtpx:TrackPointExtension><gpxtpx:cad>0</gpxtpx:cad></gpxtpx:TrackPointExtension></extensions></trkpt><trkpt lat="15.7188483048" lon="73.6798855942"><ele>0.14</ele><time>2023-12-07T03:56:11Z</time><extensions><gpxtpx:TrackPointExtension><gpxtpx:cad>0</gpxtpx:cad></gpxtpx:TrackPointExtension></extensions></trkpt><trkpt lat="15.7197537180" lon="73.6808752455"><ele>-0.34</ele><time>2023-12-07T03:57:11Z</time><extensions><gpxtpx:TrackPointExtension><gpxtpx:cad>0</gpxtpx:cad></gpxtpx:TrackPointExtension></extensions></trkpt><trkpt lat="15.7207913138" lon="73.6816851050"><ele>-1.30</ele><time>2023-12-07T03:58:11Z</time><extensions><gpxtpx:TrackPointExtension><gpxtpx:cad>0</gpxtpx:cad></gpxtpx:TrackPointExtension></extensions></trkpt><trkpt lat="15.7216285821" lon="73.6823341995"><ele>-1.79</ele><time>2023-12-07T03:59:11Z</time><extensions><gpxtpx:TrackPointExtension><gpxtpx:cad>0</gpxtpx:cad></gpxtpx:TrackPointExtension></extensions></trkpt><trkpt lat="15.7219098788" lon="73.6828563083"><ele>-2.27</ele><time>2023-12-07T04:00:11Z</time><extensions><gpxtpx:TrackPointExtension><gpxtpx:cad>0</gpxtpx:cad></gpxtpx:TrackPointExtension></extensions></trkpt><trkpt lat="15.7219296601" lon="73.6828315817"><ele>-0.82</ele><time>2023-12-07T04:01:11Z</time><extensions><gpxtpx:TrackPointExtension><gpxtpx:cad>0</gpxtpx:cad></gpxtpx:TrackPointExtension></extensions></trkpt><trkpt lat="15.7219517883" lon="73.6827941146"><ele>-0.34</ele><time>2023-12-07T04:02:11Z</time><extensions><gpxtpx:TrackPointExtension><gpxtpx:cad>0</gpxtpx:cad></gpxtpx:TrackPointExtension></extensions></trkpt><trkpt lat="15.7219139021" lon="73.6827843916"><ele>0.14</ele><time>2023-12-07T04:03:11Z</time><extensions><gpxtpx:TrackPointExtension><gpxtpx:cad>0</gpxtpx:cad></gpxtpx:TrackPointExtension></extensions></trkpt><trkpt lat="15.7219310012" lon="73.6827547196"><ele>0.62</ele><time>2023-12-07T04:04:11Z</time><extensions><gpxtpx:TrackPointExtension><gpxtpx:cad>0</gpxtpx:cad></gpxtpx:TrackPointExtension></extensions></trkpt><trkpt lat="15.7219199371" lon="73.6826948728"><ele>1.10</ele><time>2023-12-07T04:05:11Z</time><extensions><gpxtpx:TrackPointExtension><gpxtpx:cad>0</gpxtpx:cad></gpxtpx:TrackPointExtension></extensions></trkpt><trkpt lat="15.7212202158" lon="73.6824634485"><ele>-0.34</ele><time>2023-12-07T04:06:11Z</time><extensions><gpxtpx:TrackPointExtension><gpxtpx:cad>0</gpxtpx:cad></gpxtpx:TrackPointExtension></extensions></trkpt><trkpt lat="15.7198560610" lon="73.6821586825"><ele>-0.82</ele><time>2023-12-07T04:07:11Z</time><extensions><gpxtpx:TrackPointExtension><gpxtpx:cad>0</gpxtpx:cad></gpxtpx:TrackPointExtension></extensions></trkpt><trkpt lat="15.7183413673" lon="73.6821340397"><ele>-0.82</ele><time>2023-12-07T04:08:11Z</time><extensions><gpxtpx:TrackPointExtension><gpxtpx:cad>0</gpxtpx:cad></gpxtpx:TrackPointExtension></extensions></trkpt><trkpt lat="15.7167909667" lon="73.6816883739"><ele>-1.79</ele><time>2023-12-07T04:09:11Z</time><extensions><gpxtpx:TrackPointExtension><gpxtpx:cad>0</gpxtpx:cad></gpxtpx:TrackPointExtension></extensions></trkpt><trkpt lat="15.7152202819" lon="73.6809604056"><ele>-0.34</ele><time>2023-12-07T04:10:11Z</time><extensions><gpxtpx:TrackPointExtension><gpxtpx:cad>0</gpxtpx:cad></gpxtpx:TrackPointExtension></extensions></trkpt><trkpt lat="15.7136202604" lon="73.6802595947"><ele>0.14</ele><time>2023-12-07T04:11:11Z</time><extensions><gpxtpx:TrackPointExtension><gpxtpx:cad>0</gpxtpx:cad></gpxtpx:TrackPointExtension></extensions></trkpt><trkpt lat="15.7119460590" lon="73.6798182875"><ele>1.10</ele><time>2023-12-07T04:12:11Z</time><extensions><gpxtpx:TrackPointExtension><gpxtpx:cad>0</gpxtpx:cad></gpxtpx:TrackPointExtension></extensions></trkpt><trkpt lat="15.7102192193" lon="73.6793111823"><ele>0.14</ele><time>2023-12-07T04:13:11Z</time><extensions><gpxtpx:TrackPointExtension><gpxtpx:cad>0</gpxtpx:cad></gpxtpx:TrackPointExtension></extensions></trkpt><trkpt lat="15.7085469458" lon="73.6786451563"><ele>1.58</ele><time>2023-12-07T04:14:11Z</time><extensions><gpxtpx:TrackPointExtension><gpxtpx:cad>0</gpxtpx:cad></gpxtpx:TrackPointExtension></extensions></trkpt><trkpt lat="15.7069589105" lon="73.6779030226"><ele>1.10</ele><time>2023-12-07T04:15:11Z</time><extensions><gpxtpx:TrackPointExtension><gpxtpx:cad>0</gpxtpx:cad></gpxtpx:TrackPointExtension></extensions></trkpt><trkpt lat="15.7053857110" lon="73.6771853641"><ele>2.06</ele><time>2023-12-07T04:16:11Z</time><extensions><gpxtpx:TrackPointExtension><gpxtpx:cad>0</gpxtpx:cad></gpxtpx:TrackPointExtension></extensions></trkpt><trkpt lat="15.7039890345" lon="73.6763708107"><ele>0.14</ele><time>2023-12-07T04:17:11Z</time><extensions><gpxtpx:TrackPointExtension><gpxtpx:cad>0</gpxtpx:cad></gpxtpx:TrackPointExtension></extensions></trkpt><trkpt lat="15.7026707288" lon="73.6757611111"><ele>0.62</ele><time>2023-12-07T04:18:11Z</time><extensions><gpxtpx:TrackPointExtension><gpxtpx:cad>0</gpxtpx:cad></gpxtpx:TrackPointExtension></extensions></trkpt><trkpt lat="15.7012730464" lon="73.6751289479"><ele>1.58</ele><time>2023-12-07T04:19:11Z</time><extensions><gpxtpx:TrackPointExtension><gpxtpx:cad>0</gpxtpx:cad></gpxtpx:TrackPointExtension></extensions></trkpt><trkpt lat="15.6997956522" lon="73.6745016463"><ele>0.14</ele><time>2023-12-07T04:20:11Z</time><extensions><gpxtpx:TrackPointExtension><gpxtpx:cad>0</gpxtpx:cad></gpxtpx:TrackPointExtension></extensions></trkpt><trkpt lat="15.6984985527" lon="73.6737555731"><ele>0.62</ele><time>2023-12-07T04:21:11Z</time><extensions><gpxtpx:TrackPointExtension><gpxtpx:cad>0</gpxtpx:cad></gpxtpx:TrackPointExtension></extensions></trkpt><trkpt lat="15.6970395148" lon="73.6740729120"><ele>-1.30</ele><time>2023-12-07T04:22:11Z</time><extensions><gpxtpx:TrackPointExtension><gpxtpx:cad>0</gpxtpx:cad></gpxtpx:TrackPointExtension></extensions></trkpt><trkpt lat="15.6955783814" lon="73.6745732278"><ele>0.14</ele><time>2023-12-07T04:23:11Z</time><extensions><gpxtpx:TrackPointExtension><gpxtpx:cad>0</gpxtpx:cad></gpxtpx:TrackPointExtension></extensions></trkpt><trkpt lat="15.6941543799" lon="73.6751293670"><ele>-0.82</ele><time>2023-12-07T04:24:11Z</time><extensions><gpxtpx:TrackPointExtension><gpxtpx:cad>0</gpxtpx:cad></gpxtpx:TrackPointExtension></extensions></trkpt><trkpt lat="15.6927731261" lon="73.6751841009"><ele>-1.30</ele><time>2023-12-07T04:25:11Z</time><extensions><gpxtpx:TrackPointExtension><gpxtpx:cad>0</gpxtpx:cad></gpxtpx:TrackPointExtension></extensions></trkpt><trkpt lat="15.6914230529" lon="73.6743873172"><ele>-0.34</ele><time>2023-12-07T04:26:11Z</time><extensions><gpxtpx:TrackPointExtension><gpxtpx:cad>0</gpxtpx:cad></gpxtpx:TrackPointExtension></extensions></trkpt><trkpt lat="15.6901955232" lon="73.6733100750"><ele>-0.34</ele><time>2023-12-07T04:27:11Z</time><extensions><gpxtpx:TrackPointExtension><gpxtpx:cad>0</gpxtpx:cad></gpxtpx:TrackPointExtension></extensions></trkpt><trkpt lat="15.6890575122" lon="73.6721481755"><ele>-1.79</ele><time>2023-12-07T04:28:11Z</time><extensions><gpxtpx:TrackPointExtension><gpxtpx:cad>0</gpxtpx:cad></gpxtpx:TrackPointExtension></extensions></trkpt><trkpt lat="15.6877620053" lon="73.6711824127"><ele>2.06</ele><time>2023-12-07T04:29:11Z</time><extensions><gpxtpx:TrackPointExtension><gpxtpx:cad>0</gpxtpx:cad></gpxtpx:TrackPointExtension></extensions></trkpt><trkpt lat="15.6865007803" lon="73.6702065077"><ele>0.62</ele><time>2023-12-07T04:30:11Z</time><extensions><gpxtpx:TrackPointExtension><gpxtpx:cad>0</gpxtpx:cad></gpxtpx:TrackPointExtension></extensions></trkpt><trkpt lat="15.6850832328" lon="73.6694700737"><ele>1.10</ele><time>2023-12-07T04:31:11Z</time><extensions><gpxtpx:TrackPointExtension><gpxtpx:cad>0</gpxtpx:cad></gpxtpx:TrackPointExtension></extensions></trkpt><trkpt lat="15.6838495005" lon="73.6684576236"><ele>-0.34</ele><time>2023-12-07T04:32:11Z</time><extensions><gpxtpx:TrackPointExtension><gpxtpx:cad>0</gpxtpx:cad></gpxtpx:TrackPointExtension></extensions></trkpt><trkpt lat="15.6824240740" lon="73.6677067727"><ele>-0.34</ele><time>2023-12-07T04:33:11Z</time><extensions><gpxtpx:TrackPointExtension><gpxtpx:cad>0</gpxtpx:cad></gpxtpx:TrackPointExtension></extensions></trkpt><trkpt lat="15.6809956301" lon="73.6672163475"><ele>-0.82</ele><time>2023-12-07T04:34:11Z</time><extensions><gpxtpx:TrackPointExtension><gpxtpx:cad>0</gpxtpx:cad></gpxtpx:TrackPointExtension></extensions></trkpt><trkpt lat="15.6795511767" lon="73.6666503176"><ele>2.06</ele><time>2023-12-07T04:35:11Z</time><extensions><gpxtpx:TrackPointExtension><gpxtpx:cad>0</gpxtpx:cad></gpxtpx:TrackPointExtension></extensions></trkpt><trkpt lat="15.6786621921" lon="73.6670855060"><ele>0.14</ele><time>2023-12-07T04:36:11Z</time><extensions><gpxtpx:TrackPointExtension><gpxtpx:cad>0</gpxtpx:cad></gpxtpx:TrackPointExtension></extensions></trkpt><trkpt lat="15.6790792756" lon="73.6684761476"><ele>-0.82</ele><time>2023-12-07T04:37:11Z</time><extensions><gpxtpx:TrackPointExtension><gpxtpx:cad>0</gpxtpx:cad></gpxtpx:TrackPointExtension></extensions></trkpt><trkpt lat="15.6798548531" lon="73.6697379593"><ele>0.14</ele><time>2023-12-07T04:38:11Z</time><extensions><gpxtpx:TrackPointExtension><gpxtpx:cad>0</gpxtpx:cad></gpxtpx:TrackPointExtension></extensions></trkpt><trkpt lat="15.6808173470" lon="73.6708502378"><ele>-0.34</ele><time>2023-12-07T04:39:11Z</time><extensions><gpxtpx:TrackPointExtension><gpxtpx:cad>0</gpxtpx:cad></gpxtpx:TrackPointExtension></extensions></trkpt><trkpt lat="15.6811631843" lon="73.6722430587"><ele>2.06</ele><time>2023-12-07T04:40:11Z</time><extensions><gpxtpx:TrackPointExtension><gpxtpx:cad>0</gpxtpx:cad></gpxtpx:TrackPointExtension></extensions></trkpt><trkpt lat="15.6812812854" lon="73.6736986600"><ele>0.62</ele><time>2023-12-07T04:41:11Z</time><extensions><gpxtpx:TrackPointExtension><gpxtpx:cad>0</gpxtpx:cad></gpxtpx:TrackPointExtension></extensions></trkpt><trkpt lat="15.6813874841" lon="73.6751960870"><ele>-1.79</ele><time>2023-12-07T04:42:11Z</time><extensions><gpxtpx:TrackPointExtension><gpxtpx:cad>0</gpxtpx:cad></gpxtpx:TrackPointExtension></extensions></trkpt><trkpt lat="15.6809102185" lon="73.6766089406"><ele>1.10</ele><time>2023-12-07T04:43:11Z</time><extensions><gpxtpx:TrackPointExtension><gpxtpx:cad>0</gpxtpx:cad></gpxtpx:TrackPointExtension></extensions></trkpt><trkpt lat="15.6802946515" lon="73.6779447645"><ele>1.10</ele><time>2023-12-07T04:44:11Z</time><extensions><gpxtpx:TrackPointExtension><gpxtpx:cad>0</gpxtpx:cad></gpxtpx:TrackPointExtension></extensions></trkpt><trkpt lat="15.6796985306" lon="73.6792939994"><ele>1.58</ele><time>2023-12-07T04:45:11Z</time><extensions><gpxtpx:TrackPointExtension><gpxtpx:cad>0</gpxtpx:cad></gpxtpx:TrackPointExtension></extensions></trkpt><trkpt lat="15.6792972889" lon="73.6806601658"><ele>1.10</ele><time>2023-12-07T04:46:11Z</time><extensions><gpxtpx:TrackPointExtension><gpxtpx:cad>0</gpxtpx:cad></gpxtpx:TrackPointExtension></extensions></trkpt><trkpt lat="15.6791264657" lon="73.6820539925"><ele>1.10</ele><time>2023-12-07T04:47:11Z</time><extensions><gpxtpx:TrackPointExtension><gpxtpx:cad>0</gpxtpx:cad></gpxtpx:TrackPointExtension></extensions></trkpt><trkpt lat="15.6781952363" lon="73.6831802689"><ele>3.02</ele><time>2023-12-07T04:48:11Z</time><extensions><gpxtpx:TrackPointExtension><gpxtpx:cad>0</gpxtpx:cad></gpxtpx:TrackPointExtension></extensions></trkpt><trkpt lat="15.6771055888" lon="73.6841687467"><ele>3.50</ele><time>2023-12-07T04:49:11Z</time><extensions><gpxtpx:TrackPointExtension><gpxtpx:cad>0</gpxtpx:cad></gpxtpx:TrackPointExtension></extensions></trkpt><trkpt lat="15.6762689073" lon="73.6853595637"><ele>3.98</ele><time>2023-12-07T04:50:11Z</time><extensions><gpxtpx:TrackPointExtension><gpxtpx:cad>0</gpxtpx:cad></gpxtpx:TrackPointExtension></extensions></trkpt><trkpt lat="15.6755183917" lon="73.6866548192"><ele>3.98</ele><time>2023-12-07T04:51:11Z</time><extensions><gpxtpx:TrackPointExtension><gpxtpx:cad>0</gpxtpx:cad></gpxtpx:TrackPointExtension></extensions></trkpt><trkpt lat="15.6745418999" lon="73.6878267769"><ele>3.02</ele><time>2023-12-07T04:52:11Z</time><extensions><gpxtpx:TrackPointExtension><gpxtpx:cad>0</gpxtpx:cad></gpxtpx:TrackPointExtension></extensions></trkpt><trkpt lat="15.6735594571" lon="73.6888532247"><ele>3.50</ele><time>2023-12-07T04:53:11Z</time><extensions><gpxtpx:TrackPointExtension><gpxtpx:cad>0</gpxtpx:cad></gpxtpx:TrackPointExtension></extensions></trkpt><trkpt lat="15.6731988676" lon="73.6902540084"><ele>3.50</ele><time>2023-12-07T04:54:11Z</time><extensions><gpxtpx:TrackPointExtension><gpxtpx:cad>0</gpxtpx:cad></gpxtpx:TrackPointExtension></extensions></trkpt><trkpt lat="15.6725995615" lon="73.6916117091"><ele>4.94</ele><time>2023-12-07T04:55:11Z</time><extensions><gpxtpx:TrackPointExtension><gpxtpx:cad>0</gpxtpx:cad></gpxtpx:TrackPointExtension></extensions></trkpt><trkpt lat="15.6720584258" lon="73.6930155102"><ele>5.91</ele><time>2023-12-07T04:56:11Z</time><extensions><gpxtpx:TrackPointExtension><gpxtpx:cad>0</gpxtpx:cad></gpxtpx:TrackPointExtension></extensions></trkpt><trkpt lat="15.6712891348" lon="73.6942989472"><ele>3.98</ele><time>2023-12-07T04:57:11Z</time><extensions><gpxtpx:TrackPointExtension><gpxtpx:cad>0</gpxtpx:cad></gpxtpx:TrackPointExtension></extensions></trkpt><trkpt lat="15.6703253835" lon="73.6954514589"><ele>3.98</ele><time>2023-12-07T04:58:11Z</time><extensions><gpxtpx:TrackPointExtension><gpxtpx:cad>0</gpxtpx:cad></gpxtpx:TrackPointExtension></extensions></trkpt><trkpt lat="15.6692525838" lon="73.6965285335"><ele>4.46</ele><time>2023-12-07T04:59:11Z</time><extensions><gpxtpx:TrackPointExtension><gpxtpx:cad>0</gpxtpx:cad></gpxtpx:TrackPointExtension></extensions></trkpt><trkpt lat="15.6681278162" lon="73.6975630280"><ele>7.35</ele><time>2023-12-07T05:00:11Z</time><extensions><gpxtpx:TrackPointExtension><gpxtpx:cad>0</gpxtpx:cad></gpxtpx:TrackPointExtension></extensions></trkpt><trkpt lat="15.6670381688" lon="73.6985872965"><ele>6.39</ele><time>2023-12-07T05:01:11Z</time><extensions><gpxtpx:TrackPointExtension><gpxtpx:cad>0</gpxtpx:cad></gpxtpx:TrackPointExtension></extensions></trkpt><trkpt lat="15.6660560612" lon="73.6996909417"><ele>7.35</ele><time>2023-12-07T05:02:11Z</time><extensions><gpxtpx:TrackPointExtension><gpxtpx:cad>0</gpxtpx:cad></gpxtpx:TrackPointExtension></extensions></trkpt><trkpt lat="15.6651205570" lon="73.7008742988"><ele>7.35</ele><time>2023-12-07T05:03:11Z</time><extensions><gpxtpx:TrackPointExtension><gpxtpx:cad>0</gpxtpx:cad></gpxtpx:TrackPointExtension></extensions></trkpt><trkpt lat="15.6643578038" lon="73.7022108771"><ele>6.87</ele><time>2023-12-07T05:04:11Z</time><extensions><gpxtpx:TrackPointExtension><gpxtpx:cad>0</gpxtpx:cad></gpxtpx:TrackPointExtension></extensions></trkpt><trkpt lat="15.6633371394" lon="73.7033835892"><ele>5.91</ele><time>2023-12-07T05:05:11Z</time><extensions><gpxtpx:TrackPointExtension><gpxtpx:cad>0</gpxtpx:cad></gpxtpx:TrackPointExtension></extensions></trkpt><trkpt lat="15.6621266250" lon="73.7043579016"><ele>5.91</ele><time>2023-12-07T05:06:11Z</time><extensions><gpxtpx:TrackPointExtension><gpxtpx:cad>0</gpxtpx:cad></gpxtpx:TrackPointExtension></extensions></trkpt><trkpt lat="15.6613388099" lon="73.7056867685"><ele>2.54</ele><time>2023-12-07T05:07:11Z</time><extensions><gpxtpx:TrackPointExtension><gpxtpx:cad>0</gpxtpx:cad></gpxtpx:TrackPointExtension></extensions></trkpt><trkpt lat="15.6604069937" lon="73.7069339957"><ele>2.54</ele><time>2023-12-07T05:08:11Z</time><extensions><gpxtpx:TrackPointExtension><gpxtpx:cad>0</gpxtpx:cad></gpxtpx:TrackPointExtension></extensions></trkpt><trkpt lat="15.6592105608" lon="73.7078967411"><ele>5.42</ele><time>2023-12-07T05:09:11Z</time><extensions><gpxtpx:TrackPointExtension><gpxtpx:cad>0</gpxtpx:cad></gpxtpx:TrackPointExtension></extensions></trkpt><trkpt lat="15.6582898088" lon="73.7091008015"><ele>5.42</ele><time>2023-12-07T05:10:11Z</time><extensions><gpxtpx:TrackPointExtension><gpxtpx:cad>0</gpxtpx:cad></gpxtpx:TrackPointExtension></extensions></trkpt><trkpt lat="15.6568474509" lon="73.7085314188"><ele>6.39</ele><time>2023-12-07T05:11:11Z</time><extensions><gpxtpx:TrackPointExtension><gpxtpx:cad>0</gpxtpx:cad></gpxtpx:TrackPointExtension></extensions></trkpt><trkpt lat="15.6556051690" lon="73.7074367423"><ele>6.39</ele><time>2023-12-07T05:12:11Z</time><extensions><gpxtpx:TrackPointExtension><gpxtpx:cad>0</gpxtpx:cad></gpxtpx:TrackPointExtension></extensions></trkpt><trkpt lat="15.6544704270" lon="73.7062388007"><ele>4.46</ele><time>2023-12-07T05:13:11Z</time><extensions><gpxtpx:TrackPointExtension><gpxtpx:cad>0</gpxtpx:cad></gpxtpx:TrackPointExtension></extensions></trkpt><trkpt lat="15.6531023327" lon="73.7053349800"><ele>2.54</ele><time>2023-12-07T05:14:11Z</time><extensions><gpxtpx:TrackPointExtension><gpxtpx:cad>0</gpxtpx:cad></gpxtpx:TrackPointExtension></extensions></trkpt><trkpt lat="15.6516961847" lon="73.7044823729"><ele>2.54</ele><time>2023-12-07T05:15:11Z</time><extensions><gpxtpx:TrackPointExtension><gpxtpx:cad>0</gpxtpx:cad></gpxtpx:TrackPointExtension></extensions></trkpt><trkpt lat="15.6503785495" lon="73.7034395803"><ele>-0.82</ele><time>2023-12-07T05:16:11Z</time><extensions><gpxtpx:TrackPointExtension><gpxtpx:cad>0</gpxtpx:cad></gpxtpx:TrackPointExtension></extensions></trkpt><trkpt lat="15.6492125429" lon="73.7021894194"><ele>-1.30</ele><time>2023-12-07T05:17:11Z</time><extensions><gpxtpx:TrackPointExtension><gpxtpx:cad>0</gpxtpx:cad></gpxtpx:TrackPointExtension></extensions></trkpt><trkpt lat="15.6480148528" lon="73.7009315472"><ele>0.14</ele><time>2023-12-07T05:18:11Z</time><extensions><gpxtpx:TrackPointExtension><gpxtpx:cad>0</gpxtpx:cad></gpxtpx:TrackPointExtension></extensions></trkpt><trkpt lat="15.6465988141" lon="73.7000256311"><ele>3.98</ele><time>2023-12-07T05:19:11Z</time><extensions><gpxtpx:TrackPointExtension><gpxtpx:cad>0</gpxtpx:cad></gpxtpx:TrackPointExtension></extensions></trkpt><trkpt lat="15.6450898200" lon="73.6994606070"><ele>6.87</ele><time>2023-12-07T05:20:11Z</time><extensions><gpxtpx:TrackPointExtension><gpxtpx:cad>0</gpxtpx:cad></gpxtpx:TrackPointExtension></extensions></trkpt><trkpt lat="15.6439071335" lon="73.6983574647"><ele>5.42</ele><time>2023-12-07T05:21:11Z</time><extensions><gpxtpx:TrackPointExtension><gpxtpx:cad>0</gpxtpx:cad></gpxtpx:TrackPointExtension></extensions></trkpt><trkpt lat="15.6424217764" lon="73.6976798717"><ele>4.94</ele><time>2023-12-07T05:22:11Z</time><extensions><gpxtpx:TrackPointExtension><gpxtpx:cad>0</gpxtpx:cad></gpxtpx:TrackPointExtension></extensions></trkpt><trkpt lat="15.6410223339" lon="73.6968920566"><ele>6.39</ele><time>2023-12-07T05:23:11Z</time><extensions><gpxtpx:TrackPointExtension><gpxtpx:cad>0</gpxtpx:cad></gpxtpx:TrackPointExtension></extensions></trkpt><trkpt lat="15.6395384017" lon="73.6964069959"><ele>8.31</ele><time>2023-12-07T05:24:11Z</time><extensions><gpxtpx:TrackPointExtension><gpxtpx:cad>0</gpxtpx:cad></gpxtpx:TrackPointExtension></extensions></trkpt><trkpt lat="15.6380954571" lon="73.6956231203"><ele>8.31</ele><time>2023-12-07T05:25:11Z</time><extensions><gpxtpx:TrackPointExtension><gpxtpx:cad>0</gpxtpx:cad></gpxtpx:TrackPointExtension></extensions></trkpt><trkpt lat="15.6368975993" lon="73.6945084110"><ele>7.35</ele><time>2023-12-07T05:26:11Z</time><extensions><gpxtpx:TrackPointExtension><gpxtpx:cad>0</gpxtpx:cad></gpxtpx:TrackPointExtension></extensions></trkpt><trkpt lat="15.6354405731" lon="73.6939637549"><ele>7.35</ele><time>2023-12-07T05:27:11Z</time><extensions><gpxtpx:TrackPointExtension><gpxtpx:cad>0</gpxtpx:cad></gpxtpx:TrackPointExtension></extensions></trkpt><trkpt lat="15.6341030728" lon="73.6929337867"><ele>7.83</ele><time>2023-12-07T05:28:11Z</time><extensions><gpxtpx:TrackPointExtension><gpxtpx:cad>0</gpxtpx:cad></gpxtpx:TrackPointExtension></extensions></trkpt><trkpt lat="15.6326875370" lon="73.6921907309"><ele>7.83</ele><time>2023-12-07T05:29:11Z</time><extensions><gpxtpx:TrackPointExtension><gpxtpx:cad>0</gpxtpx:cad></gpxtpx:TrackPointExtension></extensions></trkpt><trkpt lat="15.6312005036" lon="73.6914507765"><ele>8.31</ele><time>2023-12-07T05:30:11Z</time><extensions><gpxtpx:TrackPointExtension><gpxtpx:cad>0</gpxtpx:cad></gpxtpx:TrackPointExtension></extensions></trkpt><trkpt lat="15.6298619136" lon="73.6905211397"><ele>10.23</ele><time>2023-12-07T05:31:11Z</time><extensions><gpxtpx:TrackPointExtension><gpxtpx:cad>0</gpxtpx:cad></gpxtpx:TrackPointExtension></extensions></trkpt><trkpt lat="15.6283928175" lon="73.6898991186"><ele>10.71</ele><time>2023-12-07T05:32:11Z</time><extensions><gpxtpx:TrackPointExtension><gpxtpx:cad>0</gpxtpx:cad></gpxtpx:TrackPointExtension></extensions></trkpt><trkpt lat="15.6268186960" lon="73.6893521994"><ele>11.67</ele><time>2023-12-07T05:33:11Z</time><extensions><gpxtpx:TrackPointExtension><gpxtpx:cad>0</gpxtpx:cad></gpxtpx:TrackPointExtension></extensions></trkpt><trkpt lat="15.6252674572" lon="73.6888563260"><ele>11.67</ele><time>2023-12-07T05:34:11Z</time><extensions><gpxtpx:TrackPointExtension><gpxtpx:cad>0</gpxtpx:cad></gpxtpx:TrackPointExtension></extensions></trkpt><trkpt lat="15.6239320524" lon="73.6879160441"><ele>11.67</ele><time>2023-12-07T05:35:11Z</time><extensions><gpxtpx:TrackPointExtension><gpxtpx:cad>0</gpxtpx:cad></gpxtpx:TrackPointExtension></extensions></trkpt><trkpt lat="15.6225755252" lon="73.6870756745"><ele>8.31</ele><time>2023-12-07T05:36:11Z</time><extensions><gpxtpx:TrackPointExtension><gpxtpx:cad>0</gpxtpx:cad></gpxtpx:TrackPointExtension></extensions></trkpt><trkpt lat="15.6213011406" lon="73.6860416830"><ele>8.79</ele><time>2023-12-07T05:37:11Z</time><extensions><gpxtpx:TrackPointExtension><gpxtpx:cad>0</gpxtpx:cad></gpxtpx:TrackPointExtension></extensions></trkpt><trkpt lat="15.6199182104" lon="73.6852013972"><ele>8.79</ele><time>2023-12-07T05:38:11Z</time><extensions><gpxtpx:TrackPointExtension><gpxtpx:cad>0</gpxtpx:cad></gpxtpx:TrackPointExtension></extensions></trkpt><trkpt lat="15.6193491630" lon="73.6856698617"><ele>3.98</ele><time>2023-12-07T05:39:11Z</time><extensions><gpxtpx:TrackPointExtension><gpxtpx:cad>0</gpxtpx:cad></gpxtpx:TrackPointExtension></extensions></trkpt><trkpt lat="15.6188269705" lon="73.6870071944"><ele>2.54</ele><time>2023-12-07T05:40:11Z</time><extensions><gpxtpx:TrackPointExtension><gpxtpx:cad>0</gpxtpx:cad></gpxtpx:TrackPointExtension></extensions></trkpt><trkpt lat="15.6180711742" lon="73.6881851871"><ele>2.54</ele><time>2023-12-07T05:41:11Z</time><extensions><gpxtpx:TrackPointExtension><gpxtpx:cad>0</gpxtpx:cad></gpxtpx:TrackPointExtension></extensions></trkpt><trkpt lat="15.6173106004" lon="73.6895328294"><ele>4.46</ele><time>2023-12-07T05:42:11Z</time><extensions><gpxtpx:TrackPointExtension><gpxtpx:cad>0</gpxtpx:cad></gpxtpx:TrackPointExtension></extensions></trkpt><trkpt lat="15.6165119726" lon="73.6908686534"><ele>6.87</ele><time>2023-12-07T05:43:11Z</time><extensions><gpxtpx:TrackPointExtension><gpxtpx:cad>0</gpxtpx:cad></gpxtpx:TrackPointExtension></extensions></trkpt><trkpt lat="15.6157851778" lon="73.6922904756"><ele>6.39</ele><time>2023-12-07T05:44:11Z</time><extensions><gpxtpx:TrackPointExtension><gpxtpx:cad>0</gpxtpx:cad></gpxtpx:TrackPointExtension></extensions></trkpt><trkpt lat="15.6150380149" lon="73.6937330011"><ele>3.02</ele><time>2023-12-07T05:45:11Z</time><extensions><gpxtpx:TrackPointExtension><gpxtpx:cad>0</gpxtpx:cad></gpxtpx:TrackPointExtension></extensions></trkpt><trkpt lat="15.6144428160" lon="73.6951652169"><ele>4.46</ele><time>2023-12-07T05:46:11Z</time><extensions><gpxtpx:TrackPointExtension><gpxtpx:cad>0</gpxtpx:cad></gpxtpx:TrackPointExtension></extensions></trkpt><trkpt lat="15.6139751896" lon="73.6966975126"><ele>3.98</ele><time>2023-12-07T05:47:11Z</time><extensions><gpxtpx:TrackPointExtension><gpxtpx:cad>0</gpxtpx:cad></gpxtpx:TrackPointExtension></extensions></trkpt><trkpt lat="15.6140893511" lon="73.6982951872"><ele>3.02</ele><time>2023-12-07T05:48:11Z</time><extensions><gpxtpx:TrackPointExtension><gpxtpx:cad>0</gpxtpx:cad></gpxtpx:TrackPointExtension></extensions></trkpt><trkpt lat="15.6141855754" lon="73.6997715756"><ele>2.54</ele><time>2023-12-07T05:49:11Z</time><extensions><gpxtpx:TrackPointExtension><gpxtpx:cad>0</gpxtpx:cad></gpxtpx:TrackPointExtension></extensions></trkpt><trkpt lat="15.6135367323" lon="73.7012335472"><ele>3.98</ele><time>2023-12-07T05:50:11Z</time><extensions><gpxtpx:TrackPointExtension><gpxtpx:cad>0</gpxtpx:cad></gpxtpx:TrackPointExtension></extensions></trkpt><trkpt lat="15.6130107678" lon="73.7026983686"><ele>4.46</ele><time>2023-12-07T05:51:11Z</time><extensions><gpxtpx:TrackPointExtension><gpxtpx:cad>0</gpxtpx:cad></gpxtpx:TrackPointExtension></extensions></trkpt><trkpt lat="15.6123389583" lon="73.7041403912"><ele>5.91</ele><time>2023-12-07T05:52:11Z</time><extensions><gpxtpx:TrackPointExtension><gpxtpx:cad>0</gpxtpx:cad></gpxtpx:TrackPointExtension></extensions></trkpt><trkpt lat="15.6117352936" lon="73.7056411710"><ele>3.98</ele><time>2023-12-07T05:53:11Z</time><extensions><gpxtpx:TrackPointExtension><gpxtpx:cad>0</gpxtpx:cad></gpxtpx:TrackPointExtension></extensions></trkpt><trkpt lat="15.6110699382" lon="73.7070537731"><ele>3.98</ele><time>2023-12-07T05:54:11Z</time><extensions><gpxtpx:TrackPointExtension><gpxtpx:cad>0</gpxtpx:cad></gpxtpx:TrackPointExtension></extensions></trkpt><trkpt lat="15.6106177345" lon="73.7084713206"><ele>3.02</ele><time>2023-12-07T05:55:11Z</time><extensions><gpxtpx:TrackPointExtension><gpxtpx:cad>0</gpxtpx:cad></gpxtpx:TrackPointExtension></extensions></trkpt><trkpt lat="15.6102055125" lon="73.7098793965"><ele>4.94</ele><time>2023-12-07T05:56:11Z</time><extensions><gpxtpx:TrackPointExtension><gpxtpx:cad>0</gpxtpx:cad></gpxtpx:TrackPointExtension></extensions></trkpt><trkpt lat="15.6097934581" lon="73.7112186570"><ele>4.94</ele><time>2023-12-07T05:57:11Z</time><extensions><gpxtpx:TrackPointExtension><gpxtpx:cad>0</gpxtpx:cad></gpxtpx:TrackPointExtension></extensions></trkpt><trkpt lat="15.6093512289" lon="73.7125644553"><ele>3.50</ele><time>2023-12-07T05:58:11Z</time><extensions><gpxtpx:TrackPointExtension><gpxtpx:cad>0</gpxtpx:cad></gpxtpx:TrackPointExtension></extensions></trkpt><trkpt lat="15.6090540066" lon="73.7140041310"><ele>4.94</ele><time>2023-12-07T05:59:11Z</time><extensions><gpxtpx:TrackPointExtension><gpxtpx:cad>0</gpxtpx:cad></gpxtpx:TrackPointExtension></extensions></trkpt><trkpt lat="15.6086694449" lon="73.7154064234"><ele>3.50</ele><time>2023-12-07T06:00:11Z</time><extensions><gpxtpx:TrackPointExtension><gpxtpx:cad>0</gpxtpx:cad></gpxtpx:TrackPointExtension></extensions></trkpt><trkpt lat="15.6083734799" lon="73.7167985737"><ele>3.02</ele><time>2023-12-07T06:01:11Z</time><extensions><gpxtpx:TrackPointExtension><gpxtpx:cad>0</gpxtpx:cad></gpxtpx:TrackPointExtension></extensions></trkpt><trkpt lat="15.6081451569" lon="73.7181530055"><ele>1.10</ele><time>2023-12-07T06:02:11Z</time><extensions><gpxtpx:TrackPointExtension><gpxtpx:cad>0</gpxtpx:cad></gpxtpx:TrackPointExtension></extensions></trkpt><trkpt lat="15.6075134967" lon="73.7195713911"><ele>-1.30</ele><time>2023-12-07T06:03:11Z</time><extensions><gpxtpx:TrackPointExtension><gpxtpx:cad>0</gpxtpx:cad></gpxtpx:TrackPointExtension></extensions></trkpt><trkpt lat="15.6068054773" lon="73.7210916169"><ele>-1.30</ele><time>2023-12-07T06:04:11Z</time><extensions><gpxtpx:TrackPointExtension><gpxtpx:cad>0</gpxtpx:cad></gpxtpx:TrackPointExtension></extensions></trkpt><trkpt lat="15.6063936744" lon="73.7227007747"><ele>-0.82</ele><time>2023-12-07T06:05:11Z</time><extensions><gpxtpx:TrackPointExtension><gpxtpx:cad>0</gpxtpx:cad></gpxtpx:TrackPointExtension></extensions></trkpt><trkpt lat="15.6061192509" lon="73.7243744731"><ele>-2.27</ele><time>2023-12-07T06:06:11Z</time><extensions><gpxtpx:TrackPointExtension><gpxtpx:cad>0</gpxtpx:cad></gpxtpx:TrackPointExtension></extensions></trkpt><trkpt lat="15.6056309212" lon="73.7260404602"><ele>-3.71</ele><time>2023-12-07T06:07:11Z</time><extensions><gpxtpx:TrackPointExtension><gpxtpx:cad>0</gpxtpx:cad></gpxtpx:TrackPointExtension></extensions></trkpt><trkpt lat="15.6059139781" lon="73.7276783679"><ele>-5.15</ele><time>2023-12-07T06:08:11Z</time><extensions><gpxtpx:TrackPointExtension><gpxtpx:cad>0</gpxtpx:cad></gpxtpx:TrackPointExtension></extensions></trkpt><trkpt lat="15.6070394162" lon="73.7291056383"><ele>-3.23</ele><time>2023-12-07T06:09:11Z</time><extensions><gpxtpx:TrackPointExtension><gpxtpx:cad>0</gpxtpx:cad></gpxtpx:TrackPointExtension></extensions></trkpt><trkpt lat="15.6080516148" lon="73.7304554600"><ele>-5.15</ele><time>2023-12-07T06:10:11Z</time><extensions><gpxtpx:TrackPointExtension><gpxtpx:cad>0</gpxtpx:cad></gpxtpx:TrackPointExtension></extensions></trkpt><trkpt lat="15.6087307166" lon="73.7319687288"><ele>-1.79</ele><time>2023-12-07T06:11:11Z</time><extensions><gpxtpx:TrackPointExtension><gpxtpx:cad>0</gpxtpx:cad></gpxtpx:TrackPointExtension></extensions></trkpt><trkpt lat="15.6089000311" lon="73.7333494797"><ele>-1.79</ele><time>2023-12-07T06:12:11Z</time><extensions><gpxtpx:TrackPointExtension><gpxtpx:cad>0</gpxtpx:cad></gpxtpx:TrackPointExtension></extensions></trkpt><trkpt lat="15.6091740355" lon="73.7348415423"><ele>-2.75</ele><time>2023-12-07T06:13:11Z</time><extensions><gpxtpx:TrackPointExtension><gpxtpx:cad>0</gpxtpx:cad></gpxtpx:TrackPointExtension></extensions></trkpt><trkpt lat="15.6102361903" lon="73.7360127456"><ele>-1.30</ele><time>2023-12-07T06:14:11Z</time><extensions><gpxtpx:TrackPointExtension><gpxtpx:cad>0</gpxtpx:cad></gpxtpx:TrackPointExtension></extensions></trkpt><trkpt lat="15.6116517261" lon="73.7367967051"><ele>0.14</ele><time>2023-12-07T06:15:11Z</time><extensions><gpxtpx:TrackPointExtension><gpxtpx:cad>0</gpxtpx:cad></gpxtpx:TrackPointExtension></extensions></trkpt><trkpt lat="15.6126536150" lon="73.7372717075"><ele>-0.34</ele><time>2023-12-07T06:16:11Z</time><extensions><gpxtpx:TrackPointExtension><gpxtpx:cad>0</gpxtpx:cad></gpxtpx:TrackPointExtension></extensions></trkpt><trkpt lat="15.6142883375" lon="73.7375111785"><ele>-0.34</ele><time>2023-12-07T06:17:11Z</time><extensions><gpxtpx:TrackPointExtension><gpxtpx:cad>0</gpxtpx:cad></gpxtpx:TrackPointExtension></extensions></trkpt></trkseg></trk></gpx>