<?xml version="1.0" encoding="UTF-8" standalone="no" ?><gpx xmlns="http://www.topografix.com/GPX/1/1" xmlns:gpxx="http://www.garmin.com/xmlschemas/GpxExtensions/v3" xmlns:wptx1="http://www.garmin.com/xmlschemas/WaypointExtension/v1" xmlns:gpxtpx="http://www.garmin.com/xmlschemas/TrackPointExtension/v1" creator="eTrex 10 SEA" version="1.1" xmlns:xsi="http://www.w3.org/2001/XMLSchema-instance" xsi:schemaLocation="http://www.topografix.com/GPX/1/1 http://www.topografix.com/GPX/1/1/gpx.xsd http://www.garmin.com/xmlschemas/GpxExtensions/v3 http://www8.garmin.com/xmlschemas/GpxExtensionsv3.xsd http://www.garmin.com/xmlschemas/WaypointExtension/v1 http://www8.garmin.com/xmlschemas/WaypointExtensionv1.xsd http://www.garmin.com/xmlschemas/TrackPointExtension/v1 http://www.garmin.com/xmlschemas/TrackPointExtensionv1.xsd"><metadata><link href="http://www.garmin.com"><text>Garmin International</text></link><time>2023-12-12T01:18:35Z</time></metadata><wpt lat="15.142447" lon="73.949309"><ele>0.979271</ele><time>2023-12-12T01:18:35Z</time><name>252</name><sym>Flag, Blue</sym></wpt><wpt lat="15.145487" lon="73.938943"><ele>0.273911</ele><time>2023-12-12T01:24:04Z</time><name>253</name><sym>Flag, Blue</sym></wpt><wpt lat="15.150310" lon="73.927532"><ele>-0.355644</ele><time>2023-12-12T01:30:24Z</time><name>254</name><sym>Flag, Blue</sym></wpt><wpt lat="15.154144" lon="73.920462"><ele>1.589226</ele><time>2023-12-12T01:34:43Z</time><name>255</name><sym>Flag, Blue</sym></wpt><wpt lat="15.159028" lon="73.924989"><ele>0.596428</ele><time>2023-12-12T01:38:11Z</time><name>256</name><sym>Flag, Blue</sym></wpt><wpt lat="15.167385" lon="73.931816"><ele>-0.105080</ele><time>2023-12-12T01:43:49Z</time><name>257</name><sym>Flag, Blue</sym></wpt><wpt lat="15.177015" lon="73.936930"><ele>0.576813</ele><time>2023-12-12T01:50:04Z</time><name>258</name><sym>Flag, Blue</sym></wpt><wpt lat="15.181832" lon="73.929175"><ele>0.556671</ele><time>2023-12-12T01:54:45Z</time><name>259</name><sym>Flag, Blue</sym></wpt><wpt lat="15.190736" lon="73.912950"><ele>0.827225</ele><time>2023-12-12T02:04:09Z</time><name>260</name><sym>Flag, Blue</sym></wpt><wpt lat="15.200901" lon="73.914569"><ele>1.941414</ele><time>2023-12-12T02:12:33Z</time><name>261</name><sym>Flag, Blue</sym></wpt><wpt lat="15.210324" lon="73.921882"><ele>2.592987</ele><time>2023-12-12T02:18:51Z</time><name>262</name><sym>Flag, Blue</sym></wpt><wpt lat="15.215070" lon="73.924643"><ele>1.519829</ele><time>2023-12-12T02:21:47Z</time><name>263</name><sym>Flag, Blue</sym></wpt><wpt lat="15.216977" lon="73.925682"><ele>2.546356</ele><time>2023-12-12T02:22:56Z</time><name>264</name><sym>Flag, Blue</sym></wpt><wpt lat="15.219387" lon="73.926391"><ele>1.089279</ele><time>2023-12-12T02:24:17Z</time><name>265</name><sym>Flag, Blue</sym></wpt><wpt lat="15.225593" lon="73.919766"><ele>2.313019</ele><time>2023-12-12T02:29:44Z</time><name>266</name><sym>Flag, Blue</sym></wpt><wpt lat="15.240039" lon="73.895523"><ele>1.313690</ele><time>2023-12-12T02:44:32Z</time><name>267</name><sym>Flag, Blue</sym></wpt><wpt lat="15.252037" lon="73.902625"><ele>3.761772</ele><time>2023-12-12T02:52:44Z</time><name>268</name><sym>Flag, Blue</sym></wpt><wpt lat="15.261799" lon="73.911333"><ele>3.547012</ele><time>2023-12-12T02:59:37Z</time><name>269</name><sym>Flag, Blue</sym></wpt><wpt lat="15.272732" lon="73.905144"><ele>1.616867</ele><time>2023-12-12T03:08:00Z</time><name>270</name><sym>Flag, Blue</sym></wpt><wpt lat="15.280940" lon="73.893713"><ele>1.656242</ele><time>2023-12-12T03:15:11Z</time><name>271</name><sym>Flag, Blue</sym></wpt><wpt lat="15.288993" lon="73.885248"><ele>2.782272</ele><time>2023-12-12T03:21:57Z</time><name>272</name><sym>Flag, Blue</sym></wpt><wpt lat="15.303165" lon="73.894880"><ele>1.854012</ele><time>2023-12-12T03:30:43Z</time><name>273</name><sym>Flag, Blue</sym></wpt><wpt lat="15.312854" lon="73.894073"><ele>0.792450</ele><time>2023-12-12T03:37:29Z</time><name>274</name><sym>Flag, Blue</sym></wpt><wpt lat="15.314656" lon="73.889966"><ele>3.383186</ele><time>2023-12-12T03:39:43Z</time><name>275</name><sym>Flag, Blue</sym></wpt><wpt lat="15.315510" lon="73.888377"><ele>1.659111</ele><time>2023-12-12T03:40:37Z</time><name>276</name><sym>Flag, Blue</sym></wpt><wpt lat="15.323342" lon="73.868838"><ele>0.918205</ele><time>2023-12-12T04:00:56Z</time><name>277</name><sym>Flag, Blue</sym></wpt><wpt lat="15.334436" lon="73.868719"><ele>3.883957</ele><time>2023-12-12T04:07:55Z</time><name>278</name><sym>Flag, Blue</sym></wpt><wpt lat="15.352982" lon="73.877338"><ele>6.325928</ele><time>2023-12-12T04:18:40Z</time><name>279</name><sym>Flag, Blue</sym></wpt><wpt lat="15.354720" lon="73.878449"><ele>5.575981</ele><time>2023-12-12T04:19:47Z</time><name>280</name><sym>Flag, Blue</sym></wpt><wpt lat="15.358524" lon="73.877087"><ele>5.959114</ele><time>2023-12-12T04:22:21Z</time><name>281</name><sym>Flag, Blue</sym></wpt><wpt lat="15.358812" lon="73.873482"><ele>2.121811</ele><time>2023-12-12T04:24:12Z</time><name>282</name><sym>Flag, Blue</sym></wpt><wpt lat="15.358632" lon="73.851567"><ele>3.315247</ele><time>2023-12-12T04:48:26Z</time><name>283</name><sym>Flag, Blue</sym></wpt><wpt lat="15.358845" lon="73.844107"><ele>2.332886</ele><time>2023-12-12T04:52:04Z</time><name>284</name><sym>Flag, Blue</sym></wpt><wpt lat="15.358045" lon="73.837171"><ele>7.292862</ele><time>2023-12-12T04:55:28Z</time><name>285</name><sym>Flag, Blue</sym></wpt><wpt lat="15.358508" lon="73.829859"><ele>3.760895</ele><time>2023-12-12T04:59:03Z</time><name>286</name><sym>Flag, Blue</sym></wpt><wpt lat="15.360502" lon="73.820325"><ele>5.581955</ele><time>2023-12-12T05:03:42Z</time><name>287</name><sym>Flag, Blue</sym></wpt><wpt lat="15.362289" lon="73.809970"><ele>2.712547</ele><time>2023-12-12T05:08:44Z</time><name>288</name><sym>Flag, Blue</sym></wpt><wpt lat="15.369525" lon="73.804078"><ele>2.020752</ele><time>2023-12-12T05:14:26Z</time><name>289</name><sym>Flag, Blue</sym></wpt><wpt lat="15.377700" lon="73.804952"><ele>6.002670</ele><time>2023-12-12T05:18:40Z</time><name>290</name><sym>Flag, Blue</sym></wpt><wpt lat="15.383354" lon="73.797611"><ele>4.332405</ele><time>2023-12-12T05:24:12Z</time><name>291</name><sym>Flag, Blue</sym></wpt><wpt lat="15.385788" lon="73.790457"><ele>1.018173</ele><time>2023-12-12T05:28:04Z</time><name>292</name><sym>Flag, Blue</sym></wpt><wpt lat="15.387975" lon="73.786569"><ele>3.758072</ele><time>2023-12-12T05:30:21Z</time><name>293</name><sym>Flag, Blue</sym></wpt><wpt lat="15.394829" lon="73.781943"><ele>2.725266</ele><time>2023-12-12T05:34:52Z</time><name>294</name><sym>Flag, Blue</sym></wpt><wpt lat="15.403986" lon="73.780411"><ele>3.708267</ele><time>2023-12-12T05:39:46Z</time><name>295</name><sym>Flag, Blue</sym></wpt><wpt lat="15.411507" lon="73.775977"><ele>-0.809013</ele><time>2023-12-12T05:44:47Z</time><name>296</name><sym>Flag, Blue</sym></wpt><wpt lat="15.421458" lon="73.768105"><ele>1.000221</ele><time>2023-12-12T05:51:25Z</time><name>297</name><sym>Flag, Blue</sym></wpt><wpt lat="15.432174" lon="73.768549"><ele>2.683517</ele><time>2023-12-12T05:57:49Z</time><name>298</name><sym>Flag, Blue</sym></wpt><wpt lat="15.442592" lon="73.772642"><ele>3.159134</ele><time>2023-12-12T06:04:06Z</time><name>299</name><sym>Flag, Blue</sym></wpt><wpt lat="15.452102" lon="73.773663"><ele>2.915634</ele><time>2023-12-12T06:09:45Z</time><name>300</name><sym>Flag, Blue</sym></wpt><wpt lat="15.460444" lon="73.774810"><ele>1.653931</ele><time>2023-12-12T06:14:22Z</time><name>301</name><sym>Flag, Blue</sym></wpt><wpt lat="15.463885" lon="73.775889"><ele>2.064209</ele><time>2023-12-12T06:16:17Z</time><name>302</name><sym>Flag, Blue</sym></wpt><wpt lat="15.467855" lon="73.776545"><ele>1.693848</ele><time>2023-12-12T06:18:25Z</time><name>303</name><sym>Flag, Blue</sym></wpt><wpt lat="15.471215" lon="73.777752"><ele>2.646225</ele><time>2023-12-12T06:20:18Z</time><name>304</name><sym>Flag, Blue</sym></wpt><wpt lat="15.478327" lon="73.781723"><ele>2.877502</ele><time>2023-12-12T06:24:44Z</time><name>305</name><sym>Flag, Blue</sym></wpt><wpt lat="15.482935" lon="73.786763"><ele>2.367691</ele><time>2023-12-12T06:30:21Z</time><name>306</name><sym>Flag, Blue</sym></wpt><wpt lat="15.479516" lon="73.788606"><ele>2.847847</ele><time>2023-12-12T06:32:28Z</time><name>307</name><sym>Flag, Blue</sym></wpt><wpt lat="15.472381" lon="73.790492"><ele>3.228828</ele><time>2023-12-12T06:36:53Z</time><name>308</name><sym>Flag, Blue</sym></wpt><wpt lat="15.464432" lon="73.795119"><ele>5.348366</ele><time>2023-12-12T06:41:59Z</time><name>309</name><sym>Flag, Blue</sym></wpt></gpx>