<?xml version="1.0" encoding="UTF-8" standalone="no" ?><gpx xmlns="http://www.topografix.com/GPX/1/1" xmlns:gpxx="http://www.garmin.com/xmlschemas/GpxExtensions/v3" xmlns:wptx1="http://www.garmin.com/xmlschemas/WaypointExtension/v1" xmlns:gpxtpx="http://www.garmin.com/xmlschemas/TrackPointExtension/v1" creator="eTrex 10 SEA" version="1.1" xmlns:xsi="http://www.w3.org/2001/XMLSchema-instance" xsi:schemaLocation="http://www.topografix.com/GPX/1/1 http://www.topografix.com/GPX/1/1/gpx.xsd http://www.garmin.com/xmlschemas/GpxExtensions/v3 http://www8.garmin.com/xmlschemas/GpxExtensionsv3.xsd http://www.garmin.com/xmlschemas/WaypointExtension/v1 http://www8.garmin.com/xmlschemas/WaypointExtensionv1.xsd http://www.garmin.com/xmlschemas/TrackPointExtension/v1 http://www.garmin.com/xmlschemas/TrackPointExtensionv1.xsd"><metadata><link href="http://www.garmin.com"><text>Garmin International</text></link><time>2023-12-08T01:49:01Z</time></metadata><wpt lat="15.608875" lon="73.732225"><ele>1.352951</ele><time>2023-12-08T01:49:01Z</time><name>053</name><sym>Flag, Blue</sym></wpt><wpt lat="15.602079" lon="73.725760"><ele>1.153893</ele><time>2023-12-08T01:53:52Z</time><name>054</name><sym>Flag, Blue</sym></wpt><wpt lat="15.597681" lon="73.717551"><ele>2.812332</ele><time>2023-12-08T01:58:40Z</time><name>055</name><sym>Flag, Blue</sym></wpt><wpt lat="15.596410" lon="73.716021"><ele>3.588898</ele><time>2023-12-08T01:59:39Z</time><name>056</name><sym>Flag, Blue</sym></wpt><wpt lat="15.591108" lon="73.712977"><ele>7.181656</ele><time>2023-12-08T02:03:37Z</time><name>057</name><sym>Flag, Blue</sym></wpt><wpt lat="15.591039" lon="73.717134"><ele>3.470627</ele><time>2023-12-08T02:05:53Z</time><name>058</name><sym>Flag, Blue</sym></wpt><wpt lat="15.586752" lon="73.720604"><ele>3.761650</ele><time>2023-12-08T02:08:59Z</time><name>059</name><sym>Flag, Blue</sym></wpt><wpt lat="15.578352" lon="73.725437"><ele>4.470650</ele><time>2023-12-08T02:14:07Z</time><name>060</name><sym>Flag, Blue</sym></wpt><wpt lat="15.569839" lon="73.738233"><ele>4.832756</ele><time>2023-12-08T02:23:38Z</time><name>061</name><sym>Flag, Blue</sym></wpt><wpt lat="15.566910" lon="73.737005"><ele>3.585495</ele><time>2023-12-08T02:25:42Z</time><name>062</name><sym>Flag, Blue</sym></wpt><wpt lat="15.562521" lon="73.732412"><ele>3.219482</ele><time>2023-12-08T02:29:09Z</time><name>063</name><sym>Flag, Blue</sym></wpt><wpt lat="15.557101" lon="73.725395"><ele>4.007774</ele><time>2023-12-08T02:33:55Z</time><name>064</name><sym>Flag, Blue</sym></wpt><wpt lat="15.552207" lon="73.728335"><ele>5.798798</ele><time>2023-12-08T02:39:36Z</time><name>065</name><sym>Flag, Blue</sym></wpt><wpt lat="15.549192" lon="73.734819"><ele>4.953522</ele><time>2023-12-08T02:43:34Z</time><name>066</name><sym>Flag, Blue</sym></wpt><wpt lat="15.544880" lon="73.743381"><ele>4.234062</ele><time>2023-12-08T02:48:56Z</time><name>067</name><sym>Flag, Blue</sym></wpt><wpt lat="15.539110" lon="73.753519"><ele>3.561226</ele><time>2023-12-08T02:55:19Z</time><name>068</name><sym>Flag, Blue</sym></wpt><wpt lat="15.534687" lon="73.751707"><ele>5.853828</ele><time>2023-12-08T02:58:54Z</time><name>069</name><sym>Flag, Blue</sym></wpt><wpt lat="15.519805" lon="73.742325"><ele>7.368690</ele><time>2023-12-08T03:08:17Z</time><name>070</name><sym>Flag, Blue</sym></wpt><wpt lat="15.510897" lon="73.737101"><ele>3.822609</ele><time>2023-12-08T03:13:48Z</time><name>071</name><sym>Flag, Blue</sym></wpt><wpt lat="15.505340" lon="73.742328"><ele>2.622566</ele><time>2023-12-08T03:19:31Z</time><name>072</name><sym>Flag, Blue</sym></wpt><wpt lat="15.498797" lon="73.753298"><ele>3.307343</ele><time>2023-12-08T03:26:38Z</time><name>073</name><sym>Flag, Blue</sym></wpt><wpt lat="15.494920" lon="73.759904"><ele>3.709564</ele><time>2023-12-08T03:30:51Z</time><name>074</name><sym>Flag, Blue</sym></wpt><wpt lat="15.493155" lon="73.762145"><ele>3.397560</ele><time>2023-12-08T03:32:29Z</time><name>075</name><sym>Flag, Blue</sym></wpt><wpt lat="15.489948" lon="73.765271"><ele>2.391335</ele><time>2023-12-08T03:35:04Z</time><name>076</name><sym>Flag, Blue</sym></wpt><wpt lat="15.487280" lon="73.766560"><ele>3.771423</ele><time>2023-12-08T03:36:46Z</time><name>077</name><sym>Flag, Blue</sym></wpt><wpt lat="15.484254" lon="73.768047"><ele>3.934265</ele><time>2023-12-08T03:38:43Z</time><name>078</name><sym>Flag, Blue</sym></wpt><wpt lat="15.482950" lon="73.768708"><ele>4.703568</ele><time>2023-12-08T03:39:33Z</time><name>079</name><sym>Flag, Blue</sym></wpt><wpt lat="15.480752" lon="73.768610"><ele>2.385620</ele><time>2023-12-08T03:41:00Z</time><name>080</name><sym>Flag, Blue</sym></wpt><wpt lat="15.480237" lon="73.767864"><ele>1.934273</ele><time>2023-12-08T03:41:28Z</time><name>081</name><sym>Flag, Blue</sym></wpt><wpt lat="15.475238" lon="73.758469"><ele>1.675179</ele><time>2023-12-08T03:46:53Z</time><name>082</name><sym>Flag, Blue</sym></wpt><wpt lat="15.467175" lon="73.753153"><ele>1.387573</ele><time>2023-12-08T03:54:40Z</time><name>083</name><sym>Flag, Blue</sym></wpt><wpt lat="15.466399" lon="73.754026"><ele>1.091995</ele><time>2023-12-08T03:55:19Z</time><name>084</name><sym>Flag, Blue</sym></wpt><wpt lat="15.460062" lon="73.759822"><ele>1.162483</ele><time>2023-12-08T04:00:11Z</time><name>085</name><sym>Flag, Blue</sym></wpt><wpt lat="15.452401" lon="73.764173"><ele>-0.894325</ele><time>2023-12-08T04:05:00Z</time><name>086</name><sym>Flag, Blue</sym></wpt><wpt lat="15.440434" lon="73.770793"><ele>-1.499321</ele><time>2023-12-08T04:12:25Z</time><name>087</name><sym>Flag, Blue</sym></wpt><wpt lat="15.437714" lon="73.773202"><ele>1.464775</ele><time>2023-12-08T04:14:25Z</time><name>088</name><sym>Flag, Blue</sym></wpt><wpt lat="15.435819" lon="73.780126"><ele>3.778877</ele><time>2023-12-08T04:19:41Z</time><name>089</name><sym>Flag, Blue</sym></wpt><wpt lat="15.438329" lon="73.791695"><ele>3.334343</ele><time>2023-12-08T04:28:13Z</time><name>090</name><sym>Flag, Blue</sym></wpt><wpt lat="15.444939" lon="73.792859"><ele>3.133408</ele><time>2023-12-08T04:32:15Z</time><name>091</name><sym>Flag, Blue</sym></wpt><wpt lat="15.452480" lon="73.789033"><ele>2.666885</ele><time>2023-12-08T04:36:56Z</time><name>092</name><sym>Flag, Blue</sym></wpt><wpt lat="15.459843" lon="73.779732"><ele>5.117538</ele><time>2023-12-08T04:43:11Z</time><name>093</name><sym>Flag, Blue</sym></wpt><wpt lat="15.467763" lon="73.776176"><ele>6.928581</ele><time>2023-12-08T04:48:04Z</time><name>094</name><sym>Flag, Blue</sym></wpt><wpt lat="15.470831" lon="73.775385"><ele>9.158043</ele><time>2023-12-08T04:49:45Z</time><name>095</name><sym>Flag, Blue</sym></wpt><wpt lat="15.475163" lon="73.774956"><ele>8.347305</ele><time>2023-12-08T04:52:05Z</time><name>096</name><sym>Flag, Blue</sym></wpt><wpt lat="15.484472" lon="73.774610"><ele>2.372009</ele><time>2023-12-08T04:57:15Z</time><name>097</name><sym>Flag, Blue</sym></wpt><wpt lat="15.489422" lon="73.779579"><ele>1.625633</ele><time>2023-12-08T05:01:42Z</time><name>098</name><sym>Flag, Blue</sym></wpt><wpt lat="15.491724" lon="73.787487"><ele>4.770866</ele><time>2023-12-08T05:06:56Z</time><name>099</name><sym>Flag, Blue</sym></wpt><wpt lat="15.485548" lon="73.792112"><ele>3.830299</ele><time>2023-12-08T05:10:58Z</time><name>100</name><sym>Flag, Blue</sym></wpt><wpt lat="15.482037" lon="73.795753"><ele>3.278534</ele><time>2023-12-08T05:13:23Z</time><name>101</name><sym>Flag, Blue</sym></wpt></gpx>