<?xml version="1.0" encoding="UTF-8" standalone="no" ?><gpx xmlns="http://www.topografix.com/GPX/1/1" xmlns:gpxx="http://www.garmin.com/xmlschemas/GpxExtensions/v3" xmlns:wptx1="http://www.garmin.com/xmlschemas/WaypointExtension/v1" xmlns:gpxtpx="http://www.garmin.com/xmlschemas/TrackPointExtension/v1" creator="eTrex 10 SEA" version="1.1" xmlns:xsi="http://www.w3.org/2001/XMLSchema-instance" xsi:schemaLocation="http://www.topografix.com/GPX/1/1 http://www.topografix.com/GPX/1/1/gpx.xsd http://www.garmin.com/xmlschemas/GpxExtensions/v3 http://www8.garmin.com/xmlschemas/GpxExtensionsv3.xsd http://www.garmin.com/xmlschemas/WaypointExtension/v1 http://www8.garmin.com/xmlschemas/WaypointExtensionv1.xsd http://www.garmin.com/xmlschemas/TrackPointExtension/v1 http://www.garmin.com/xmlschemas/TrackPointExtensionv1.xsd"><metadata><link href="http://www.garmin.com"><text>Garmin International</text></link><time>2026-02-17T01:37:15Z</time></metadata><wpt lat="15.462712" lon="73.797020"><ele>-1.910797</ele><time>2026-02-17T01:37:15Z</time><name>141</name><sym>Flag, Blue</sym></wpt><wpt lat="15.466811" lon="73.788352"><ele>-1.270981</ele><time>2026-02-17T01:42:27Z</time><name>142</name><sym>Flag, Blue</sym></wpt><wpt lat="15.464530" lon="73.780070"><ele>0.758957</ele><time>2026-02-17T01:47:50Z</time><name>143</name><sym>Flag, Blue</sym></wpt><wpt lat="15.462785" lon="73.776957"><ele>0.876457</ele><time>2026-02-17T01:49:40Z</time><name>144</name><sym>Flag, Blue</sym></wpt><wpt lat="15.460280" lon="73.772186"><ele>1.218880</ele><time>2026-02-17T01:52:13Z</time><name>145</name><sym>Flag, Blue</sym></wpt><wpt lat="15.454134" lon="73.772392"><ele>1.406197</ele><time>2026-02-17T01:57:17Z</time><name>146</name><sym>Flag, Blue</sym></wpt><wpt lat="15.449809" lon="73.778303"><ele>1.336586</ele><time>2026-02-17T02:00:49Z</time><name>147</name><sym>Flag, Blue</sym></wpt><wpt lat="15.445284" lon="73.786447"><ele>1.691925</ele><time>2026-02-17T02:05:14Z</time><name>148</name><sym>Flag, Blue</sym></wpt><wpt lat="15.437742" lon="73.790174"><ele>1.480995</ele><time>2026-02-17T02:09:42Z</time><name>149</name><sym>Flag, Blue</sym></wpt><wpt lat="15.429698" lon="73.785772"><ele>1.078949</ele><time>2026-02-17T02:14:22Z</time><name>150</name><sym>Flag, Blue</sym></wpt><wpt lat="15.421630" lon="73.782459"><ele>2.678238</ele><time>2026-02-17T02:18:47Z</time><name>151</name><sym>Flag, Blue</sym></wpt><wpt lat="15.412963" lon="73.778657"><ele>2.610435</ele><time>2026-02-17T02:23:46Z</time><name>152</name><sym>Flag, Blue</sym></wpt><wpt lat="15.407162" lon="73.771263"><ele>3.213509</ele><time>2026-02-17T02:28:47Z</time><name>153</name><sym>Flag, Blue</sym></wpt><wpt lat="15.400575" lon="73.777241"><ele>2.355064</ele><time>2026-02-17T02:33:08Z</time><name>154</name><sym>Flag, Blue</sym></wpt><wpt lat="15.395574" lon="73.782326"><ele>1.533661</ele><time>2026-02-17T02:36:39Z</time><name>155</name><sym>Flag, Blue</sym></wpt><wpt lat="15.392146" lon="73.790623"><ele>2.806320</ele><time>2026-02-17T02:41:09Z</time><name>156</name><sym>Flag, Blue</sym></wpt><wpt lat="15.389828" lon="73.799628"><ele>1.961319</ele><time>2026-02-17T02:45:41Z</time><name>157</name><sym>Flag, Blue</sym></wpt><wpt lat="15.369802" lon="73.800076"><ele>3.334625</ele><time>2026-02-17T02:56:07Z</time><name>158</name><sym>Flag, Blue</sym></wpt><wpt lat="15.365786" lon="73.805462"><ele>3.898308</ele><time>2026-02-17T02:59:40Z</time><name>159</name><sym>Flag, Blue</sym></wpt><wpt lat="15.364196" lon="73.815173"><ele>4.714851</ele><time>2026-02-17T03:04:15Z</time><name>160</name><sym>Flag, Blue</sym></wpt><wpt lat="15.364111" lon="73.817480"><ele>5.338852</ele><time>2026-02-17T03:05:19Z</time><name>161</name><sym>Flag, Blue</sym></wpt><wpt lat="15.364667" lon="73.822807"><ele>4.487114</ele><time>2026-02-17T03:07:50Z</time><name>162</name><sym>Flag, Blue</sym></wpt><wpt lat="15.365526" lon="73.828517"><ele>8.735435</ele><time>2026-02-17T03:10:37Z</time><name>163</name><sym>Flag, Blue</sym></wpt><wpt lat="15.365588" lon="73.831549"><ele>5.698227</ele><time>2026-02-17T03:12:21Z</time><name>164</name><sym>Flag, Blue</sym></wpt><wpt lat="15.358159" lon="73.838538"><ele>5.305847</ele><time>2026-02-17T03:17:39Z</time><name>165</name><sym>Flag, Blue</sym></wpt><wpt lat="15.357248" lon="73.846573"><ele>5.155418</ele><time>2026-02-17T03:22:23Z</time><name>166</name><sym>Flag, Blue</sym></wpt><wpt lat="15.357931" lon="73.852415"><ele>5.481522</ele><time>2026-02-17T03:25:28Z</time><name>167</name><sym>Flag, Blue</sym></wpt><wpt lat="15.358455" lon="73.854029"><ele>4.613510</ele><time>2026-02-17T03:26:20Z</time><name>168</name><sym>Flag, Blue</sym></wpt><wpt lat="15.358530" lon="73.855188"><ele>4.995308</ele><time>2026-02-17T03:26:56Z</time><name>169</name><sym>Flag, Blue</sym></wpt><wpt lat="15.358749" lon="73.859059"><ele>5.606667</ele><time>2026-02-17T03:28:57Z</time><name>170</name><sym>Flag, Blue</sym></wpt><wpt lat="15.359364" lon="73.864629"><ele>5.568771</ele><time>2026-02-17T03:31:51Z</time><name>171</name><sym>Flag, Blue</sym></wpt><wpt lat="15.360453" lon="73.873682"><ele>6.273666</ele><time>2026-02-17T03:36:36Z</time><name>172</name><sym>Flag, Blue</sym></wpt><wpt lat="15.354626" lon="73.875573"><ele>5.304771</ele><time>2026-02-17T03:41:21Z</time><name>173</name><sym>Flag, Blue</sym></wpt><wpt lat="15.352031" lon="73.874194"><ele>6.393143</ele><time>2026-02-17T03:46:39Z</time><name>174</name><sym>Flag, Blue</sym></wpt><wpt lat="15.347068" lon="73.873787"><ele>5.574730</ele><time>2026-02-17T03:49:13Z</time><name>175</name><sym>Flag, Blue</sym></wpt><wpt lat="15.345823" lon="73.873725"><ele>7.475815</ele><time>2026-02-17T03:49:52Z</time><name>176</name><sym>Flag, Blue</sym></wpt><wpt lat="15.344301" lon="73.873184"><ele>5.547768</ele><time>2026-02-17T03:50:40Z</time><name>177</name><sym>Flag, Blue</sym></wpt><wpt lat="15.343099" lon="73.872859"><ele>5.497482</ele><time>2026-02-17T03:51:18Z</time><name>178</name><sym>Flag, Blue</sym></wpt><wpt lat="15.341487" lon="73.872323"><ele>6.472351</ele><time>2026-02-17T03:52:10Z</time><name>179</name><sym>Flag, Blue</sym></wpt><wpt lat="15.339086" lon="73.871554"><ele>7.226082</ele><time>2026-02-17T03:53:27Z</time><name>180</name><sym>Flag, Blue</sym></wpt><wpt lat="15.332486" lon="73.873662"><ele>6.178772</ele><time>2026-02-17T03:57:49Z</time><name>181</name><sym>Flag, Blue</sym></wpt><wpt lat="15.330390" lon="73.875986"><ele>7.974403</ele><time>2026-02-17T03:59:25Z</time><name>182</name><sym>Flag, Blue</sym></wpt><wpt lat="15.326875" lon="73.881287"><ele>8.723877</ele><time>2026-02-17T04:02:40Z</time><name>183</name><sym>Flag, Blue</sym></wpt><wpt lat="15.320737" lon="73.888997"><ele>8.005524</ele><time>2026-02-17T04:07:43Z</time><name>184</name><sym>Flag, Blue</sym></wpt><wpt lat="15.316980" lon="73.894138"><ele>7.398994</ele><time>2026-02-17T04:11:00Z</time><name>185</name><sym>Flag, Blue</sym></wpt><wpt lat="15.315243" lon="73.895926"><ele>6.704094</ele><time>2026-02-17T04:12:16Z</time><name>186</name><sym>Flag, Blue</sym></wpt><wpt lat="15.307572" lon="73.895011"><ele>6.742851</ele><time>2026-02-17T04:17:07Z</time><name>187</name><sym>Flag, Blue</sym></wpt><wpt lat="15.300242" lon="73.892096"><ele>6.612579</ele><time>2026-02-17T04:21:09Z</time><name>188</name><sym>Flag, Blue</sym></wpt><wpt lat="15.292391" lon="73.892064"><ele>4.097778</ele><time>2026-02-17T04:25:57Z</time><name>189</name><sym>Flag, Blue</sym></wpt><wpt lat="15.286670" lon="73.898279"><ele>8.664307</ele><time>2026-02-17T04:30:18Z</time><name>190</name><sym>Flag, Blue</sym></wpt><wpt lat="15.281523" lon="73.905700"><ele>9.391335</ele><time>2026-02-17T04:34:51Z</time><name>191</name><sym>Flag, Blue</sym></wpt><wpt lat="15.273369" lon="73.907616"><ele>10.092285</ele><time>2026-02-17T04:40:07Z</time><name>192</name><sym>Flag, Blue</sym></wpt><wpt lat="15.266373" lon="73.905437"><ele>8.669411</ele><time>2026-02-17T04:43:51Z</time><name>193</name><sym>Flag, Blue</sym></wpt><wpt lat="15.258529" lon="73.905119"><ele>6.821259</ele><time>2026-02-17T04:48:28Z</time><name>194</name><sym>Flag, Blue</sym></wpt><wpt lat="15.256590" lon="73.907050"><ele>8.328987</ele><time>2026-02-17T04:49:45Z</time><name>195</name><sym>Flag, Blue</sym></wpt><wpt lat="15.251753" lon="73.910295"><ele>7.539383</ele><time>2026-02-17T04:52:41Z</time><name>196</name><sym>Flag, Blue</sym></wpt><wpt lat="15.250838" lon="73.910769"><ele>7.717392</ele><time>2026-02-17T04:53:09Z</time><name>197</name><sym>Flag, Blue</sym></wpt><wpt lat="15.245259" lon="73.914528"><ele>6.878838</ele><time>2026-02-17T04:56:17Z</time><name>198</name><sym>Flag, Blue</sym></wpt><wpt lat="15.243705" lon="73.915539"><ele>7.700333</ele><time>2026-02-17T04:57:08Z</time><name>199</name><sym>Flag, Blue</sym></wpt><wpt lat="15.242321" lon="73.916541"><ele>7.761749</ele><time>2026-02-17T04:57:57Z</time><name>200</name><sym>Flag, Blue</sym></wpt><wpt lat="15.238764" lon="73.919557"><ele>7.105919</ele><time>2026-02-17T05:00:06Z</time><name>201</name><sym>Flag, Blue</sym></wpt><wpt lat="15.231660" lon="73.919342"><ele>3.749687</ele><time>2026-02-17T05:04:14Z</time><name>202</name><sym>Flag, Blue</sym></wpt><wpt lat="15.229148" lon="73.917785"><ele>5.553329</ele><time>2026-02-17T05:05:35Z</time><name>203</name><sym>Flag, Blue</sym></wpt><wpt lat="15.227121" lon="73.916893"><ele>7.824669</ele><time>2026-02-17T05:06:36Z</time><name>204</name><sym>Flag, Blue</sym></wpt><wpt lat="15.223267" lon="73.915924"><ele>6.788391</ele><time>2026-02-17T05:08:27Z</time><name>205</name><sym>Flag, Blue</sym></wpt><wpt lat="15.219051" lon="73.914920"><ele>6.554955</ele><time>2026-02-17T05:10:27Z</time><name>206</name><sym>Flag, Blue</sym></wpt><wpt lat="15.214265" lon="73.916030"><ele>5.873619</ele><time>2026-02-17T05:13:01Z</time><name>207</name><sym>Flag, Blue</sym></wpt><wpt lat="15.213357" lon="73.916856"><ele>6.791931</ele><time>2026-02-17T05:13:35Z</time><name>208</name><sym>Flag, Blue</sym></wpt><wpt lat="15.205689" lon="73.922430"><ele>7.123116</ele><time>2026-02-17T05:18:00Z</time><name>209</name><sym>Flag, Blue</sym></wpt><wpt lat="15.202893" lon="73.925281"><ele>9.699852</ele><time>2026-02-17T05:19:51Z</time><name>210</name><sym>Flag, Blue</sym></wpt><wpt lat="15.199205" lon="73.928686"><ele>3.811150</ele><time>2026-02-17T05:22:12Z</time><name>211</name><sym>Flag, Blue</sym></wpt><wpt lat="15.191034" lon="73.934202"><ele>8.237366</ele><time>2026-02-17T05:26:49Z</time><name>212</name><sym>Flag, Blue</sym></wpt><wpt lat="15.183448" lon="73.932864"><ele>6.333328</ele><time>2026-02-17T05:30:34Z</time><name>213</name><sym>Flag, Blue</sym></wpt><wpt lat="15.174893" lon="73.929869"><ele>7.214264</ele><time>2026-02-17T05:34:43Z</time><name>214</name><sym>Flag, Blue</sym></wpt><wpt lat="15.167369" lon="73.926516"><ele>4.207687</ele><time>2026-02-17T05:38:29Z</time><name>215</name><sym>Flag, Blue</sym></wpt><wpt lat="15.160834" lon="73.932182"><ele>5.331406</ele><time>2026-02-17T05:42:41Z</time><name>216</name><sym>Flag, Blue</sym></wpt><wpt lat="15.149666" lon="73.938860"><ele>3.784843</ele><time>2026-02-17T05:51:03Z</time><name>217</name><sym>Flag, Blue</sym></wpt><wpt lat="15.149498" lon="73.938780"><ele>3.679680</ele><time>2026-02-17T05:51:08Z</time><name>218</name><sym>Flag, Blue</sym></wpt><wpt lat="15.144180" lon="73.942087"><ele>2.721825</ele><time>2026-02-17T05:55:16Z</time><name>219</name><sym>Flag, Blue</sym></wpt><wpt lat="15.143033" lon="73.946915"><ele>6.535637</ele><time>2026-02-17T05:57:47Z</time><name>220</name><sym>Flag, Blue</sym></wpt></gpx>