<?xml version="1.0" encoding="UTF-8" standalone="no" ?><gpx xmlns="http://www.topografix.com/GPX/1/1" xmlns:gpxx="http://www.garmin.com/xmlschemas/GpxExtensions/v3" xmlns:wptx1="http://www.garmin.com/xmlschemas/WaypointExtension/v1" xmlns:gpxtpx="http://www.garmin.com/xmlschemas/TrackPointExtension/v1" creator="eTrex 10 SEA" version="1.1" xmlns:xsi="http://www.w3.org/2001/XMLSchema-instance" xsi:schemaLocation="http://www.topografix.com/GPX/1/1 http://www.topografix.com/GPX/1/1/gpx.xsd http://www.garmin.com/xmlschemas/GpxExtensions/v3 http://www8.garmin.com/xmlschemas/GpxExtensionsv3.xsd http://www.garmin.com/xmlschemas/WaypointExtension/v1 http://www8.garmin.com/xmlschemas/WaypointExtensionv1.xsd http://www.garmin.com/xmlschemas/TrackPointExtension/v1 http://www.garmin.com/xmlschemas/TrackPointExtensionv1.xsd"><metadata><link href="http://www.garmin.com"><text>Garmin International</text></link><time>2026-02-19T02:08:27Z</time></metadata><wpt lat="14.984204" lon="74.038517"><ele>-0.034019</ele><time>2026-02-19T02:08:27Z</time><name>288</name><sym>Flag, Blue</sym></wpt><wpt lat="14.985018" lon="74.032609"><ele>-2.382629</ele><time>2026-02-19T02:11:31Z</time><name>289</name><sym>Flag, Blue</sym></wpt><wpt lat="14.985342" lon="74.029342"><ele>-1.103600</ele><time>2026-02-19T02:13:08Z</time><name>290</name><sym>Flag, Blue</sym></wpt><wpt lat="14.986852" lon="74.021587"><ele>-0.771225</ele><time>2026-02-19T02:17:21Z</time><name>291</name><sym>Flag, Blue</sym></wpt><wpt lat="14.989555" lon="74.021430"><ele>-0.808701</ele><time>2026-02-19T02:18:42Z</time><name>292</name><sym>Flag, Blue</sym></wpt><wpt lat="14.991026" lon="74.021399"><ele>0.139732</ele><time>2026-02-19T02:19:26Z</time><name>293</name><sym>Flag, Blue</sym></wpt><wpt lat="14.996534" lon="74.022237"><ele>0.817596</ele><time>2026-02-19T02:22:14Z</time><name>294</name><sym>Flag, Blue</sym></wpt><wpt lat="15.004882" lon="74.021002"><ele>1.679947</ele><time>2026-02-19T02:26:31Z</time><name>295</name><sym>Flag, Blue</sym></wpt><wpt lat="15.006551" lon="74.016308"><ele>0.941727</ele><time>2026-02-19T02:30:09Z</time><name>296</name><sym>Flag, Blue</sym></wpt><wpt lat="15.005630" lon="74.014930"><ele>1.021446</ele><time>2026-02-19T02:30:58Z</time><name>297</name><sym>Flag, Blue</sym></wpt><wpt lat="15.004522" lon="74.013914"><ele>1.239082</ele><time>2026-02-19T02:31:42Z</time><name>298</name><sym>Flag, Blue</sym></wpt><wpt lat="15.002582" lon="74.011963"><ele>1.653809</ele><time>2026-02-19T02:33:19Z</time><name>299</name><sym>Flag, Blue</sym></wpt><wpt lat="15.006721" lon="74.009289"><ele>1.327599</ele><time>2026-02-19T02:35:45Z</time><name>300</name><sym>Flag, Blue</sym></wpt><wpt lat="15.014393" lon="74.006290"><ele>0.873085</ele><time>2026-02-19T02:40:02Z</time><name>301</name><sym>Flag, Blue</sym></wpt><wpt lat="15.013291" lon="73.997282"><ele>1.267517</ele><time>2026-02-19T02:44:47Z</time><name>302</name><sym>Flag, Blue</sym></wpt><wpt lat="15.012770" lon="73.988134"><ele>3.517799</ele><time>2026-02-19T02:49:35Z</time><name>303</name><sym>Flag, Blue</sym></wpt><wpt lat="15.017218" lon="73.980150"><ele>3.653244</ele><time>2026-02-19T02:54:11Z</time><name>304</name><sym>Flag, Blue</sym></wpt><wpt lat="15.026132" lon="73.980733"><ele>3.286560</ele><time>2026-02-19T02:59:17Z</time><name>305</name><sym>Flag, Blue</sym></wpt><wpt lat="15.033593" lon="73.982543"><ele>2.093407</ele><time>2026-02-19T03:03:14Z</time><name>306</name><sym>Flag, Blue</sym></wpt><wpt lat="15.042325" lon="73.983098"><ele>3.495758</ele><time>2026-02-19T03:08:07Z</time><name>307</name><sym>Flag, Blue</sym></wpt><wpt lat="15.047983" lon="73.974019"><ele>1.198372</ele><time>2026-02-19T03:13:36Z</time><name>308</name><sym>Flag, Blue</sym></wpt><wpt lat="15.051409" lon="73.966531"><ele>4.132545</ele><time>2026-02-19T03:17:46Z</time><name>309</name><sym>Flag, Blue</sym></wpt><wpt lat="15.054629" lon="73.959476"><ele>2.130470</ele><time>2026-02-19T03:21:47Z</time><name>310</name><sym>Flag, Blue</sym></wpt><wpt lat="15.062105" lon="73.953217"><ele>2.948456</ele><time>2026-02-19T03:26:41Z</time><name>311</name><sym>Flag, Blue</sym></wpt><wpt lat="15.069116" lon="73.948890"><ele>2.078957</ele><time>2026-02-19T03:30:51Z</time><name>312</name><sym>Flag, Blue</sym></wpt><wpt lat="15.072974" lon="73.940753"><ele>4.921326</ele><time>2026-02-19T03:35:19Z</time><name>313</name><sym>Flag, Blue</sym></wpt><wpt lat="15.075973" lon="73.933845"><ele>5.491592</ele><time>2026-02-19T03:38:54Z</time><name>314</name><sym>Flag, Blue</sym></wpt><wpt lat="15.077807" lon="73.931339"><ele>4.067375</ele><time>2026-02-19T03:40:16Z</time><name>315</name><sym>Flag, Blue</sym></wpt><wpt lat="15.083750" lon="73.921757"><ele>5.444756</ele><time>2026-02-19T03:45:32Z</time><name>316</name><sym>Flag, Blue</sym></wpt><wpt lat="15.082781" lon="73.916705"><ele>4.603218</ele><time>2026-02-19T03:47:48Z</time><name>317</name><sym>Flag, Blue</sym></wpt><wpt lat="15.083593" lon="73.909414"><ele>5.968826</ele><time>2026-02-19T03:51:58Z</time><name>318</name><sym>Flag, Blue</sym></wpt><wpt lat="15.089805" lon="73.915708"><ele>3.433556</ele><time>2026-02-19T03:55:55Z</time><name>319</name><sym>Flag, Blue</sym></wpt><wpt lat="15.097077" lon="73.920808"><ele>4.055702</ele><time>2026-02-19T03:59:59Z</time><name>320</name><sym>Flag, Blue</sym></wpt><wpt lat="15.103844" lon="73.917373"><ele>4.795029</ele><time>2026-02-19T04:03:43Z</time><name>321</name><sym>Flag, Blue</sym></wpt><wpt lat="15.104054" lon="73.917292"><ele>4.402161</ele><time>2026-02-19T04:03:50Z</time><name>322</name><sym>Flag, Blue</sym></wpt><wpt lat="15.105272" lon="73.916464"><ele>5.094269</ele><time>2026-02-19T04:04:30Z</time><name>323</name><sym>Flag, Blue</sym></wpt><wpt lat="15.112752" lon="73.916516"><ele>3.315269</ele><time>2026-02-19T04:08:38Z</time><name>324</name><sym>Flag, Blue</sym></wpt><wpt lat="15.117551" lon="73.923497"><ele>3.200508</ele><time>2026-02-19T04:13:13Z</time><name>325</name><sym>Flag, Blue</sym></wpt><wpt lat="15.117657" lon="73.923660"><ele>3.025146</ele><time>2026-02-19T04:13:19Z</time><name>326</name><sym>Flag, Blue</sym></wpt><wpt lat="15.121540" lon="73.931573"><ele>2.772484</ele><time>2026-02-19T04:17:45Z</time><name>327</name><sym>Flag, Blue</sym></wpt><wpt lat="15.124642" lon="73.934140"><ele>2.089821</ele><time>2026-02-19T04:20:05Z</time><name>328</name><sym>Flag, Blue</sym></wpt><wpt lat="15.127421" lon="73.930573"><ele>4.377831</ele><time>2026-02-19T04:22:25Z</time><name>329</name><sym>Flag, Blue</sym></wpt><wpt lat="15.131520" lon="73.926879"><ele>4.761002</ele><time>2026-02-19T04:27:14Z</time><name>330</name><sym>Flag, Blue</sym></wpt><wpt lat="15.131627" lon="73.927008"><ele>4.563301</ele><time>2026-02-19T04:27:19Z</time><name>331</name><sym>Flag, Blue</sym></wpt><wpt lat="15.133751" lon="73.929215"><ele>3.806961</ele><time>2026-02-19T04:28:49Z</time><name>332</name><sym>Flag, Blue</sym></wpt><wpt lat="15.138174" lon="73.932542"><ele>4.837959</ele><time>2026-02-19T04:31:36Z</time><name>333</name><sym>Flag, Blue</sym></wpt><wpt lat="15.139280" lon="73.933470"><ele>3.605118</ele><time>2026-02-19T04:32:19Z</time><name>334</name><sym>Flag, Blue</sym></wpt><wpt lat="15.140599" lon="73.936850"><ele>4.670677</ele><time>2026-02-19T04:34:08Z</time><name>335</name><sym>Flag, Blue</sym></wpt><wpt lat="15.141613" lon="73.941000"><ele>5.452927</ele><time>2026-02-19T04:36:14Z</time><name>336</name><sym>Flag, Blue</sym></wpt><wpt lat="15.142569" lon="73.946467"><ele>2.991013</ele><time>2026-02-19T04:38:54Z</time><name>337</name><sym>Flag, Blue</sym></wpt></gpx>