<?xml version="1.0" encoding="UTF-8" standalone="no" ?><gpx xmlns="http://www.topografix.com/GPX/1/1" xmlns:gpxx="http://www.garmin.com/xmlschemas/GpxExtensions/v3" xmlns:wptx1="http://www.garmin.com/xmlschemas/WaypointExtension/v1" xmlns:gpxtpx="http://www.garmin.com/xmlschemas/TrackPointExtension/v1" creator="eTrex 10 SEA" version="1.1" xmlns:xsi="http://www.w3.org/2001/XMLSchema-instance" xsi:schemaLocation="http://www.topografix.com/GPX/1/1 http://www.topografix.com/GPX/1/1/gpx.xsd http://www.garmin.com/xmlschemas/GpxExtensions/v3 http://www8.garmin.com/xmlschemas/GpxExtensionsv3.xsd http://www.garmin.com/xmlschemas/WaypointExtension/v1 http://www8.garmin.com/xmlschemas/WaypointExtensionv1.xsd http://www.garmin.com/xmlschemas/TrackPointExtension/v1 http://www.garmin.com/xmlschemas/TrackPointExtensionv1.xsd"><metadata><link href="http://www.garmin.com"><text>Garmin International</text></link><time>2026-02-18T02:34:30Z</time></metadata><wpt lat="15.142274" lon="73.949958"><ele>-1.902855</ele><time>2026-02-18T02:34:30Z</time><name>220</name><sym>Flag, Blue</sym></wpt><wpt lat="15.141516" lon="73.943079"><ele>-0.627502</ele><time>2026-02-18T02:37:46Z</time><name>221</name><sym>Flag, Blue</sym></wpt><wpt lat="15.140610" lon="73.941600"><ele>-0.612450</ele><time>2026-02-18T02:38:31Z</time><name>222</name><sym>Flag, Blue</sym></wpt><wpt lat="15.136856" lon="73.936842"><ele>0.991348</ele><time>2026-02-18T02:41:09Z</time><name>223</name><sym>Flag, Blue</sym></wpt><wpt lat="15.135905" lon="73.935340"><ele>1.640022</ele><time>2026-02-18T02:41:56Z</time><name>224</name><sym>Flag, Blue</sym></wpt><wpt lat="15.134966" lon="73.933919"><ele>0.729271</ele><time>2026-02-18T02:42:41Z</time><name>225</name><sym>Flag, Blue</sym></wpt><wpt lat="15.132987" lon="73.930822"><ele>1.452141</ele><time>2026-02-18T02:44:17Z</time><name>226</name><sym>Flag, Blue</sym></wpt><wpt lat="15.131336" lon="73.928617"><ele>0.149033</ele><time>2026-02-18T02:45:30Z</time><name>227</name><sym>Flag, Blue</sym></wpt><wpt lat="15.130527" lon="73.927390"><ele>1.220520</ele><time>2026-02-18T02:46:09Z</time><name>228</name><sym>Flag, Blue</sym></wpt><wpt lat="15.129043" lon="73.926395"><ele>1.265778</ele><time>2026-02-18T02:47:22Z</time><name>229</name><sym>Flag, Blue</sym></wpt><wpt lat="15.121463" lon="73.922271"><ele>1.387955</ele><time>2026-02-18T02:51:59Z</time><name>230</name><sym>Flag, Blue</sym></wpt><wpt lat="15.112818" lon="73.918389"><ele>-0.154160</ele><time>2026-02-18T02:56:45Z</time><name>231</name><sym>Flag, Blue</sym></wpt><wpt lat="15.106890" lon="73.914949"><ele>2.402023</ele><time>2026-02-18T03:00:06Z</time><name>232</name><sym>Flag, Blue</sym></wpt><wpt lat="15.098337" lon="73.908496"><ele>1.553726</ele><time>2026-02-18T03:05:23Z</time><name>233</name><sym>Flag, Blue</sym></wpt><wpt lat="15.090948" lon="73.905874"><ele>4.055664</ele><time>2026-02-18T03:09:19Z</time><name>234</name><sym>Flag, Blue</sym></wpt><wpt lat="15.087614" lon="73.905036"><ele>3.370392</ele><time>2026-02-18T03:11:02Z</time><name>235</name><sym>Flag, Blue</sym></wpt><wpt lat="15.083625" lon="73.906048"><ele>1.868553</ele><time>2026-02-18T03:13:36Z</time><name>236</name><sym>Flag, Blue</sym></wpt><wpt lat="15.080810" lon="73.914450"><ele>1.449600</ele><time>2026-02-18T03:17:49Z</time><name>237</name><sym>Flag, Blue</sym></wpt><wpt lat="15.077468" lon="73.923643"><ele>1.548012</ele><time>2026-02-18T03:22:25Z</time><name>238</name><sym>Flag, Blue</sym></wpt><wpt lat="15.075904" lon="73.931033"><ele>2.028732</ele><time>2026-02-18T03:25:56Z</time><name>239</name><sym>Flag, Blue</sym></wpt><wpt lat="15.075549" lon="73.932837"><ele>2.383484</ele><time>2026-02-18T03:26:47Z</time><name>240</name><sym>Flag, Blue</sym></wpt><wpt lat="15.067613" lon="73.936908"><ele>3.908035</ele><time>2026-02-18T03:31:10Z</time><name>241</name><sym>Flag, Blue</sym></wpt><wpt lat="15.060953" lon="73.943598"><ele>4.170616</ele><time>2026-02-18T03:36:02Z</time><name>242</name><sym>Flag, Blue</sym></wpt><wpt lat="15.058205" lon="73.952183"><ele>4.293663</ele><time>2026-02-18T03:40:16Z</time><name>243</name><sym>Flag, Blue</sym></wpt><wpt lat="15.054531" lon="73.959252"><ele>4.066071</ele><time>2026-02-18T03:44:03Z</time><name>244</name><sym>Flag, Blue</sym></wpt><wpt lat="15.051230" lon="73.967455"><ele>2.795631</ele><time>2026-02-18T03:48:11Z</time><name>245</name><sym>Flag, Blue</sym></wpt><wpt lat="15.049997" lon="73.971584"><ele>3.582603</ele><time>2026-02-18T03:50:11Z</time><name>246</name><sym>Flag, Blue</sym></wpt><wpt lat="15.049150" lon="73.974216"><ele>3.230324</ele><time>2026-02-18T03:51:32Z</time><name>247</name><sym>Flag, Blue</sym></wpt><wpt lat="15.048611" lon="73.976443"><ele>3.970734</ele><time>2026-02-18T03:52:38Z</time><name>248</name><sym>Flag, Blue</sym></wpt><wpt lat="15.048336" lon="73.977185"><ele>3.572998</ele><time>2026-02-18T03:53:04Z</time><name>249</name><sym>Flag, Blue</sym></wpt><wpt lat="15.043568" lon="73.980003"><ele>4.318390</ele><time>2026-02-18T03:57:18Z</time><name>250</name><sym>Flag, Blue</sym></wpt><wpt lat="15.034864" lon="73.977013"><ele>4.353638</ele><time>2026-02-18T04:01:57Z</time><name>251</name><sym>Flag, Blue</sym></wpt><wpt lat="15.026394" lon="73.974242"><ele>2.423393</ele><time>2026-02-18T04:06:32Z</time><name>252</name><sym>Flag, Blue</sym></wpt><wpt lat="15.020730" lon="73.978969"><ele>1.556488</ele><time>2026-02-18T04:11:35Z</time><name>253</name><sym>Flag, Blue</sym></wpt><wpt lat="15.016132" lon="73.986377"><ele>3.005432</ele><time>2026-02-18T04:16:20Z</time><name>254</name><sym>Flag, Blue</sym></wpt><wpt lat="15.016250" lon="73.995481"><ele>3.073898</ele><time>2026-02-18T04:21:40Z</time><name>255</name><sym>Flag, Blue</sym></wpt><wpt lat="15.012400" lon="74.002800"><ele>2.959343</ele><time>2026-02-18T04:26:36Z</time><name>256</name><sym>Flag, Blue</sym></wpt><wpt lat="15.005917" lon="74.008099"><ele>4.136436</ele><time>2026-02-18T04:31:12Z</time><name>257</name><sym>Flag, Blue</sym></wpt><wpt lat="15.005127" lon="74.012062"><ele>1.902328</ele><time>2026-02-18T04:33:18Z</time><name>258</name><sym>Flag, Blue</sym></wpt><wpt lat="15.004841" lon="74.015071"><ele>3.589699</ele><time>2026-02-18T04:34:52Z</time><name>259</name><sym>Flag, Blue</sym></wpt><wpt lat="15.004870" lon="74.016789"><ele>4.350960</ele><time>2026-02-18T04:35:45Z</time><name>260</name><sym>Flag, Blue</sym></wpt><wpt lat="14.999271" lon="74.021678"><ele>5.107681</ele><time>2026-02-18T04:40:36Z</time><name>261</name><sym>Flag, Blue</sym></wpt><wpt lat="14.991402" lon="74.018693"><ele>5.548363</ele><time>2026-02-18T04:45:03Z</time><name>262</name><sym>Flag, Blue</sym></wpt><wpt lat="14.989617" lon="74.019603"><ele>3.822151</ele><time>2026-02-18T04:46:21Z</time><name>263</name><sym>Flag, Blue</sym></wpt><wpt lat="14.985488" lon="74.026026"><ele>4.518410</ele><time>2026-02-18T04:50:17Z</time><name>264</name><sym>Flag, Blue</sym></wpt><wpt lat="14.980732" lon="74.032982"><ele>4.576813</ele><time>2026-02-18T04:54:41Z</time><name>265</name><sym>Flag, Blue</sym></wpt><wpt lat="14.978813" lon="74.037029"><ele>3.492699</ele><time>2026-02-18T04:57:01Z</time><name>266</name><sym>Flag, Blue</sym></wpt><wpt lat="14.975213" lon="74.039078"><ele>3.758171</ele><time>2026-02-18T04:59:31Z</time><name>267</name><sym>Flag, Blue</sym></wpt><wpt lat="14.968030" lon="74.033202"><ele>3.557144</ele><time>2026-02-18T05:04:22Z</time><name>268</name><sym>Flag, Blue</sym></wpt><wpt lat="14.958933" lon="74.037071"><ele>0.169754</ele><time>2026-02-18T05:10:02Z</time><name>269</name><sym>Flag, Blue</sym></wpt><wpt lat="14.954815" lon="74.041151"><ele>3.293739</ele><time>2026-02-18T05:13:22Z</time><name>270</name><sym>Flag, Blue</sym></wpt><wpt lat="14.947018" lon="74.036429"><ele>3.220383</ele><time>2026-02-18T05:18:05Z</time><name>271</name><sym>Flag, Blue</sym></wpt><wpt lat="14.938379" lon="74.030074"><ele>3.111839</ele><time>2026-02-18T05:23:45Z</time><name>272</name><sym>Flag, Blue</sym></wpt><wpt lat="14.930253" lon="74.034849"><ele>3.508095</ele><time>2026-02-18T05:29:11Z</time><name>273</name><sym>Flag, Blue</sym></wpt><wpt lat="14.925190" lon="74.037507"><ele>3.994316</ele><time>2026-02-18T05:32:16Z</time><name>274</name><sym>Flag, Blue</sym></wpt><wpt lat="14.924304" lon="74.038327"><ele>2.701157</ele><time>2026-02-18T05:32:54Z</time><name>275</name><sym>Flag, Blue</sym></wpt><wpt lat="14.923396" lon="74.039061"><ele>1.571236</ele><time>2026-02-18T05:33:31Z</time><name>276</name><sym>Flag, Blue</sym></wpt><wpt lat="14.922264" lon="74.038011"><ele>2.727211</ele><time>2026-02-18T05:37:17Z</time><name>277</name><sym>Flag, Blue</sym></wpt><wpt lat="14.924759" lon="74.029600"><ele>3.452652</ele><time>2026-02-18T05:41:44Z</time><name>278</name><sym>Flag, Blue</sym></wpt><wpt lat="14.934663" lon="74.037070"><ele>5.578445</ele><time>2026-02-18T05:48:44Z</time><name>279</name><sym>Flag, Blue</sym></wpt><wpt lat="14.939031" lon="74.042366"><ele>3.580887</ele><time>2026-02-18T05:52:38Z</time><name>280</name><sym>Flag, Blue</sym></wpt><wpt lat="14.943169" lon="74.036524"><ele>4.111313</ele><time>2026-02-18T05:56:17Z</time><name>281</name><sym>Flag, Blue</sym></wpt><wpt lat="14.949428" lon="74.038436"><ele>2.580276</ele><time>2026-02-18T06:00:11Z</time><name>282</name><sym>Flag, Blue</sym></wpt><wpt lat="14.957162" lon="74.042988"><ele>6.076462</ele><time>2026-02-18T06:04:55Z</time><name>283</name><sym>Flag, Blue</sym></wpt><wpt lat="14.963190" lon="74.039688"><ele>5.010162</ele><time>2026-02-18T06:09:24Z</time><name>284</name><sym>Flag, Blue</sym></wpt><wpt lat="14.968068" lon="74.031745"><ele>4.441978</ele><time>2026-02-18T06:14:10Z</time><name>285</name><sym>Flag, Blue</sym></wpt><wpt lat="14.976710" lon="74.031782"><ele>6.476707</ele><time>2026-02-18T06:18:29Z</time><name>286</name><sym>Flag, Blue</sym></wpt><wpt lat="14.984356" lon="74.035017"><ele>3.737671</ele><time>2026-02-18T06:22:19Z</time><name>287</name><sym>Flag, Blue</sym></wpt></gpx>