<?xml version="1.0" encoding="UTF-8" standalone="no" ?><gpx xmlns="http://www.topografix.com/GPX/1/1" xmlns:gpxx="http://www.garmin.com/xmlschemas/GpxExtensions/v3" xmlns:wptx1="http://www.garmin.com/xmlschemas/WaypointExtension/v1" xmlns:gpxtpx="http://www.garmin.com/xmlschemas/TrackPointExtension/v1" creator="eTrex 10 SEA" version="1.1" xmlns:xsi="http://www.w3.org/2001/XMLSchema-instance" xsi:schemaLocation="http://www.topografix.com/GPX/1/1 http://www.topografix.com/GPX/1/1/gpx.xsd http://www.garmin.com/xmlschemas/GpxExtensions/v3 http://www8.garmin.com/xmlschemas/GpxExtensionsv3.xsd http://www.garmin.com/xmlschemas/WaypointExtension/v1 http://www8.garmin.com/xmlschemas/WaypointExtensionv1.xsd http://www.garmin.com/xmlschemas/TrackPointExtension/v1 http://www.garmin.com/xmlschemas/TrackPointExtensionv1.xsd"><metadata><link href="http://www.garmin.com"><text>Garmin International</text></link><time>2026-02-21T01:32:28Z</time></metadata><wpt lat="15.142189" lon="73.950170"><ele>-2.735870</ele><time>2026-02-21T01:32:28Z</time><name>337</name><sym>Flag, Blue</sym></wpt><wpt lat="15.143245" lon="73.941348"><ele>-3.378235</ele><time>2026-02-21T01:37:57Z</time><name>338</name><sym>Flag, Blue</sym></wpt><wpt lat="15.151040" lon="73.938442"><ele>-1.999825</ele><time>2026-02-21T01:42:22Z</time><name>339</name><sym>Flag, Blue</sym></wpt><wpt lat="15.159939" lon="73.935839"><ele>-2.207397</ele><time>2026-02-21T01:47:08Z</time><name>340</name><sym>Flag, Blue</sym></wpt><wpt lat="15.162313" lon="73.935226"><ele>-1.240204</ele><time>2026-02-21T01:48:22Z</time><name>341</name><sym>Flag, Blue</sym></wpt><wpt lat="15.168358" lon="73.933561"><ele>-2.549072</ele><time>2026-02-21T01:51:29Z</time><name>342</name><sym>Flag, Blue</sym></wpt><wpt lat="15.177242" lon="73.931305"><ele>-1.555519</ele><time>2026-02-21T01:56:07Z</time><name>343</name><sym>Flag, Blue</sym></wpt><wpt lat="15.185855" lon="73.929127"><ele>-1.367897</ele><time>2026-02-21T02:00:36Z</time><name>344</name><sym>Flag, Blue</sym></wpt><wpt lat="15.189967" lon="73.928096"><ele>-2.622040</ele><time>2026-02-21T02:02:46Z</time><name>345</name><sym>Flag, Blue</sym></wpt><wpt lat="15.192144" lon="73.927464"><ele>-2.414604</ele><time>2026-02-21T02:03:56Z</time><name>346</name><sym>Flag, Blue</sym></wpt><wpt lat="15.193428" lon="73.927059"><ele>-2.275970</ele><time>2026-02-21T02:04:37Z</time><name>347</name><sym>Flag, Blue</sym></wpt><wpt lat="15.194283" lon="73.926825"><ele>-3.177124</ele><time>2026-02-21T02:05:04Z</time><name>348</name><sym>Flag, Blue</sym></wpt><wpt lat="15.196781" lon="73.925986"><ele>-1.757812</ele><time>2026-02-21T02:06:24Z</time><name>349</name><sym>Flag, Blue</sym></wpt><wpt lat="15.203174" lon="73.924021"><ele>-2.608482</ele><time>2026-02-21T02:09:50Z</time><name>350</name><sym>Flag, Blue</sym></wpt><wpt lat="15.204906" lon="73.923552"><ele>-2.255959</ele><time>2026-02-21T02:10:47Z</time><name>351</name><sym>Flag, Blue</sym></wpt><wpt lat="15.206111" lon="73.923335"><ele>0.315338</ele><time>2026-02-21T02:11:24Z</time><name>352</name><sym>Flag, Blue</sym></wpt><wpt lat="15.211680" lon="73.921966"><ele>-1.762291</ele><time>2026-02-21T02:14:18Z</time><name>353</name><sym>Flag, Blue</sym></wpt><wpt lat="15.221488" lon="73.919498"><ele>-0.403191</ele><time>2026-02-21T02:19:23Z</time><name>354</name><sym>Flag, Blue</sym></wpt><wpt lat="15.229340" lon="73.917819"><ele>-0.391136</ele><time>2026-02-21T02:23:25Z</time><name>355</name><sym>Flag, Blue</sym></wpt><wpt lat="15.238123" lon="73.915333"><ele>-2.093704</ele><time>2026-02-21T02:27:59Z</time><name>356</name><sym>Flag, Blue</sym></wpt><wpt lat="15.243097" lon="73.913848"><ele>-2.032738</ele><time>2026-02-21T02:30:35Z</time><name>357</name><sym>Flag, Blue</sym></wpt><wpt lat="15.246257" lon="73.912592"><ele>-1.941597</ele><time>2026-02-21T02:32:16Z</time><name>358</name><sym>Flag, Blue</sym></wpt><wpt lat="15.254533" lon="73.909769"><ele>-1.371628</ele><time>2026-02-21T02:36:37Z</time><name>359</name><sym>Flag, Blue</sym></wpt><wpt lat="15.261688" lon="73.906515"><ele>0.133163</ele><time>2026-02-21T02:40:31Z</time><name>360</name><sym>Flag, Blue</sym></wpt><wpt lat="15.263457" lon="73.906442"><ele>-0.277962</ele><time>2026-02-21T02:41:23Z</time><name>361</name><sym>Flag, Blue</sym></wpt><wpt lat="15.268642" lon="73.904821"><ele>-0.512123</ele><time>2026-02-21T02:44:03Z</time><name>362</name><sym>Flag, Blue</sym></wpt><wpt lat="15.269426" lon="73.904637"><ele>-0.690582</ele><time>2026-02-21T02:44:27Z</time><name>363</name><sym>Flag, Blue</sym></wpt><wpt lat="15.280963" lon="73.901731"><ele>-0.191864</ele><time>2026-02-21T02:50:20Z</time><name>364</name><sym>Flag, Blue</sym></wpt><wpt lat="15.289695" lon="73.901416"><ele>0.768585</ele><time>2026-02-21T02:54:43Z</time><name>365</name><sym>Flag, Blue</sym></wpt><wpt lat="15.304895" lon="73.893393"><ele>1.658562</ele><time>2026-02-21T03:03:18Z</time><name>366</name><sym>Flag, Blue</sym></wpt><wpt lat="15.312719" lon="73.889658"><ele>2.458809</ele><time>2026-02-21T03:07:43Z</time><name>367</name><sym>Flag, Blue</sym></wpt><wpt lat="15.318818" lon="73.886216"><ele>0.252396</ele><time>2026-02-21T03:11:15Z</time><name>368</name><sym>Flag, Blue</sym></wpt><wpt lat="15.322979" lon="73.884372"><ele>-0.879402</ele><time>2026-02-21T03:13:31Z</time><name>369</name><sym>Flag, Blue</sym></wpt><wpt lat="15.324138" lon="73.883953"><ele>-1.424370</ele><time>2026-02-21T03:14:07Z</time><name>370</name><sym>Flag, Blue</sym></wpt><wpt lat="15.325786" lon="73.884117"><ele>1.883583</ele><time>2026-02-21T03:14:56Z</time><name>371</name><sym>Flag, Blue</sym></wpt><wpt lat="15.329527" lon="73.883782"><ele>0.836609</ele><time>2026-02-21T03:16:49Z</time><name>372</name><sym>Flag, Blue</sym></wpt><wpt lat="15.337540" lon="73.882173"><ele>0.843864</ele><time>2026-02-21T03:20:52Z</time><name>373</name><sym>Flag, Blue</sym></wpt><wpt lat="15.343235" lon="73.880991"><ele>0.452713</ele><time>2026-02-21T03:23:44Z</time><name>374</name><sym>Flag, Blue</sym></wpt><wpt lat="15.346524" lon="73.880182"><ele>0.192833</ele><time>2026-02-21T03:25:24Z</time><name>375</name><sym>Flag, Blue</sym></wpt><wpt lat="15.354679" lon="73.876754"><ele>-1.016006</ele><time>2026-02-21T03:29:45Z</time><name>376</name><sym>Flag, Blue</sym></wpt><wpt lat="15.362768" lon="73.871578"><ele>2.121666</ele><time>2026-02-21T03:34:28Z</time><name>377</name><sym>Flag, Blue</sym></wpt><wpt lat="15.362153" lon="73.863391"><ele>0.797157</ele><time>2026-02-21T03:38:33Z</time><name>378</name><sym>Flag, Blue</sym></wpt><wpt lat="15.360056" lon="73.854468"><ele>0.490898</ele><time>2026-02-21T03:42:56Z</time><name>379</name><sym>Flag, Blue</sym></wpt><wpt lat="15.358442" lon="73.844656"><ele>2.497597</ele><time>2026-02-21T03:47:45Z</time><name>380</name><sym>Flag, Blue</sym></wpt><wpt lat="15.360631" lon="73.836071"><ele>0.284187</ele><time>2026-02-21T03:52:01Z</time><name>381</name><sym>Flag, Blue</sym></wpt><wpt lat="15.364431" lon="73.827847"><ele>0.584358</ele><time>2026-02-21T03:56:16Z</time><name>382</name><sym>Flag, Blue</sym></wpt><wpt lat="15.368341" lon="73.819780"><ele>1.180702</ele><time>2026-02-21T04:00:27Z</time><name>383</name><sym>Flag, Blue</sym></wpt><wpt lat="15.373907" lon="73.809767"><ele>1.511391</ele><time>2026-02-21T04:05:47Z</time><name>384</name><sym>Flag, Blue</sym></wpt><wpt lat="15.379119" lon="73.804754"><ele>1.925133</ele><time>2026-02-21T04:09:10Z</time><name>385</name><sym>Flag, Blue</sym></wpt><wpt lat="15.380824" lon="73.803065"><ele>1.850372</ele><time>2026-02-21T04:10:18Z</time><name>386</name><sym>Flag, Blue</sym></wpt><wpt lat="15.385101" lon="73.798364"><ele>2.107552</ele><time>2026-02-21T04:13:17Z</time><name>387</name><sym>Flag, Blue</sym></wpt><wpt lat="15.391539" lon="73.790864"><ele>2.887909</ele><time>2026-02-21T04:17:59Z</time><name>388</name><sym>Flag, Blue</sym></wpt><wpt lat="15.397437" lon="73.785328"><ele>4.244637</ele><time>2026-02-21T04:21:53Z</time><name>389</name><sym>Flag, Blue</sym></wpt><wpt lat="15.407416" lon="73.780720"><ele>2.131660</ele><time>2026-02-21T04:27:12Z</time><name>390</name><sym>Flag, Blue</sym></wpt><wpt lat="15.414590" lon="73.781439"><ele>2.841652</ele><time>2026-02-21T04:30:42Z</time><name>391</name><sym>Flag, Blue</sym></wpt><wpt lat="15.426666" lon="73.782601"><ele>1.882881</ele><time>2026-02-21T04:36:53Z</time><name>392</name><sym>Flag, Blue</sym></wpt><wpt lat="15.432260" lon="73.782129"><ele>2.331429</ele><time>2026-02-21T04:39:40Z</time><name>393</name><sym>Flag, Blue</sym></wpt><wpt lat="15.440715" lon="73.781857"><ele>2.536308</ele><time>2026-02-21T04:43:56Z</time><name>394</name><sym>Flag, Blue</sym></wpt><wpt lat="15.447096" lon="73.781555"><ele>0.795204</ele><time>2026-02-21T04:47:08Z</time><name>395</name><sym>Flag, Blue</sym></wpt><wpt lat="15.452085" lon="73.781875"><ele>-0.031570</ele><time>2026-02-21T04:49:37Z</time><name>396</name><sym>Flag, Blue</sym></wpt><wpt lat="15.459869" lon="73.781809"><ele>2.425667</ele><time>2026-02-21T04:53:26Z</time><name>397</name><sym>Flag, Blue</sym></wpt><wpt lat="15.467282" lon="73.780046"><ele>2.754005</ele><time>2026-02-21T04:57:30Z</time><name>398</name><sym>Flag, Blue</sym></wpt><wpt lat="15.471179" lon="73.777078"><ele>2.991196</ele><time>2026-02-21T04:59:56Z</time><name>399</name><sym>Flag, Blue</sym></wpt><wpt lat="15.474598" lon="73.774698"><ele>2.200806</ele><time>2026-02-21T05:01:59Z</time><name>400</name><sym>Flag, Blue</sym></wpt><wpt lat="15.481600" lon="73.769466"><ele>0.749542</ele><time>2026-02-21T05:06:15Z</time><name>401</name><sym>Flag, Blue</sym></wpt><wpt lat="15.489162" lon="73.764466"><ele>1.304909</ele><time>2026-02-21T05:10:42Z</time><name>402</name><sym>Flag, Blue</sym></wpt><wpt lat="15.497159" lon="73.760602"><ele>1.905991</ele><time>2026-02-21T05:15:12Z</time><name>403</name><sym>Flag, Blue</sym></wpt><wpt lat="15.505814" lon="73.758059"><ele>2.574821</ele><time>2026-02-21T05:19:42Z</time><name>404</name><sym>Flag, Blue</sym></wpt><wpt lat="15.513924" lon="73.754297"><ele>1.756454</ele><time>2026-02-21T05:24:11Z</time><name>405</name><sym>Flag, Blue</sym></wpt><wpt lat="15.522632" lon="73.751545"><ele>2.091873</ele><time>2026-02-21T05:28:50Z</time><name>406</name><sym>Flag, Blue</sym></wpt><wpt lat="15.530811" lon="73.748374"><ele>4.157967</ele><time>2026-02-21T05:33:13Z</time><name>407</name><sym>Flag, Blue</sym></wpt><wpt lat="15.539235" lon="73.745160"><ele>-0.340912</ele><time>2026-02-21T05:37:42Z</time><name>408</name><sym>Flag, Blue</sym></wpt><wpt lat="15.547562" lon="73.742139"><ele>2.579651</ele><time>2026-02-21T05:42:06Z</time><name>409</name><sym>Flag, Blue</sym></wpt><wpt lat="15.556494" lon="73.742468"><ele>-0.426804</ele><time>2026-02-21T05:46:42Z</time><name>410</name><sym>Flag, Blue</sym></wpt><wpt lat="15.564452" lon="73.738593"><ele>0.377853</ele><time>2026-02-21T05:51:07Z</time><name>411</name><sym>Flag, Blue</sym></wpt><wpt lat="15.572704" lon="73.734634"><ele>0.103981</ele><time>2026-02-21T05:55:41Z</time><name>412</name><sym>Flag, Blue</sym></wpt><wpt lat="15.581350" lon="73.731156"><ele>0.177299</ele><time>2026-02-21T06:00:19Z</time><name>413</name><sym>Flag, Blue</sym></wpt><wpt lat="15.591796" lon="73.728966"><ele>-0.558014</ele><time>2026-02-21T06:05:35Z</time><name>414</name><sym>Flag, Blue</sym></wpt><wpt lat="15.599839" lon="73.727422"><ele>-1.112869</ele><time>2026-02-21T06:09:37Z</time><name>415</name><sym>Flag, Blue</sym></wpt><wpt lat="15.607237" lon="73.727663"><ele>-2.522156</ele><time>2026-02-21T06:13:23Z</time><name>416</name><sym>Flag, Blue</sym></wpt><wpt lat="15.609174" lon="73.734405"><ele>-1.433189</ele><time>2026-02-21T06:16:29Z</time><name>417</name><sym>Flag, Blue</sym></wpt></gpx>