<?xml version="1.0" encoding="UTF-8" standalone="no" ?><gpx xmlns="http://www.topografix.com/GPX/1/1" xmlns:gpxx="http://www.garmin.com/xmlschemas/GpxExtensions/v3" xmlns:wptx1="http://www.garmin.com/xmlschemas/WaypointExtension/v1" xmlns:gpxtpx="http://www.garmin.com/xmlschemas/TrackPointExtension/v1" creator="eTrex 10 SEA" version="1.1" xmlns:xsi="http://www.w3.org/2001/XMLSchema-instance" xsi:schemaLocation="http://www.topografix.com/GPX/1/1 http://www.topografix.com/GPX/1/1/gpx.xsd http://www.garmin.com/xmlschemas/GpxExtensions/v3 http://www8.garmin.com/xmlschemas/GpxExtensionsv3.xsd http://www.garmin.com/xmlschemas/WaypointExtension/v1 http://www8.garmin.com/xmlschemas/WaypointExtensionv1.xsd http://www.garmin.com/xmlschemas/TrackPointExtension/v1 http://www.garmin.com/xmlschemas/TrackPointExtensionv1.xsd"><metadata><link href="http://www.garmin.com"><text>Garmin International</text></link><time>2026-02-16T01:31:45Z</time></metadata><wpt lat="15.609712" lon="73.734762"><ele>-5.072151</ele><time>2026-02-16T01:31:45Z</time><name>068</name><sym>Flag, Blue</sym></wpt><wpt lat="15.610093" lon="73.726128"><ele>-2.816139</ele><time>2026-02-16T01:35:39Z</time><name>069</name><sym>Flag, Blue</sym></wpt><wpt lat="15.613489" lon="73.719188"><ele>-1.605011</ele><time>2026-02-16T01:39:49Z</time><name>070</name><sym>Flag, Blue</sym></wpt><wpt lat="15.619126" lon="73.712157"><ele>-1.257210</ele><time>2026-02-16T01:43:48Z</time><name>071</name><sym>Flag, Blue</sym></wpt><wpt lat="15.624960" lon="73.703816"><ele>-1.075905</ele><time>2026-02-16T01:48:17Z</time><name>072</name><sym>Flag, Blue</sym></wpt><wpt lat="15.626059" lon="73.703962"><ele>-1.212440</ele><time>2026-02-16T01:48:45Z</time><name>073</name><sym>Flag, Blue</sym></wpt><wpt lat="15.632602" lon="73.705081"><ele>-1.565796</ele><time>2026-02-16T01:51:38Z</time><name>074</name><sym>Flag, Blue</sym></wpt><wpt lat="15.643136" lon="73.708200"><ele>-0.209389</ele><time>2026-02-16T01:56:24Z</time><name>075</name><sym>Flag, Blue</sym></wpt><wpt lat="15.649860" lon="73.709674"><ele>-2.364372</ele><time>2026-02-16T01:59:25Z</time><name>076</name><sym>Flag, Blue</sym></wpt><wpt lat="15.657699" lon="73.708004"><ele>-0.722633</ele><time>2026-02-16T02:03:32Z</time><name>077</name><sym>Flag, Blue</sym></wpt><wpt lat="15.662312" lon="73.700352"><ele>-0.166962</ele><time>2026-02-16T02:07:25Z</time><name>078</name><sym>Flag, Blue</sym></wpt><wpt lat="15.667593" lon="73.692121"><ele>-1.612076</ele><time>2026-02-16T02:11:40Z</time><name>079</name><sym>Flag, Blue</sym></wpt><wpt lat="15.675624" lon="73.690393"><ele>1.348831</ele><time>2026-02-16T02:15:29Z</time><name>080</name><sym>Flag, Blue</sym></wpt><wpt lat="15.682981" lon="73.695047"><ele>1.537636</ele><time>2026-02-16T02:19:24Z</time><name>081</name><sym>Flag, Blue</sym></wpt><wpt lat="15.689366" lon="73.696877"><ele>0.867989</ele><time>2026-02-16T02:22:48Z</time><name>082</name><sym>Flag, Blue</sym></wpt><wpt lat="15.690338" lon="73.695002"><ele>1.642937</ele><time>2026-02-16T02:23:46Z</time><name>083</name><sym>Flag, Blue</sym></wpt><wpt lat="15.694791" lon="73.687095"><ele>-0.303406</ele><time>2026-02-16T02:27:54Z</time><name>084</name><sym>Flag, Blue</sym></wpt><wpt lat="15.699724" lon="73.678330"><ele>1.622749</ele><time>2026-02-16T02:32:28Z</time><name>085</name><sym>Flag, Blue</sym></wpt><wpt lat="15.706949" lon="73.679696"><ele>1.892197</ele><time>2026-02-16T02:36:14Z</time><name>086</name><sym>Flag, Blue</sym></wpt><wpt lat="15.714898" lon="73.683722"><ele>1.552361</ele><time>2026-02-16T02:40:23Z</time><name>087</name><sym>Flag, Blue</sym></wpt><wpt lat="15.716947" lon="73.680035"><ele>1.377602</ele><time>2026-02-16T02:45:27Z</time><name>088</name><sym>Flag, Blue</sym></wpt><wpt lat="15.710728" lon="73.675992"><ele>2.335556</ele><time>2026-02-16T02:49:53Z</time><name>089</name><sym>Flag, Blue</sym></wpt><wpt lat="15.704215" lon="73.682067"><ele>2.885025</ele><time>2026-02-16T02:54:33Z</time><name>090</name><sym>Flag, Blue</sym></wpt><wpt lat="15.698398" lon="73.689523"><ele>2.214066</ele><time>2026-02-16T02:59:18Z</time><name>091</name><sym>Flag, Blue</sym></wpt><wpt lat="15.696280" lon="73.692697"><ele>4.704651</ele><time>2026-02-16T03:02:09Z</time><name>092</name><sym>Flag, Blue</sym></wpt><wpt lat="15.692534" lon="73.689975"><ele>3.924141</ele><time>2026-02-16T03:04:30Z</time><name>093</name><sym>Flag, Blue</sym></wpt><wpt lat="15.688039" lon="73.684029"><ele>3.471916</ele><time>2026-02-16T03:08:16Z</time><name>094</name><sym>Flag, Blue</sym></wpt><wpt lat="15.682744" lon="73.689475"><ele>4.728401</ele><time>2026-02-16T03:12:53Z</time><name>095</name><sym>Flag, Blue</sym></wpt><wpt lat="15.677721" lon="73.697322"><ele>4.692970</ele><time>2026-02-16T03:17:32Z</time><name>096</name><sym>Flag, Blue</sym></wpt><wpt lat="15.673664" lon="73.702625"><ele>4.785583</ele><time>2026-02-16T03:21:08Z</time><name>097</name><sym>Flag, Blue</sym></wpt><wpt lat="15.672068" lon="73.701442"><ele>3.967751</ele><time>2026-02-16T03:22:07Z</time><name>098</name><sym>Flag, Blue</sym></wpt><wpt lat="15.665895" lon="73.695601"><ele>3.942978</ele><time>2026-02-16T03:26:26Z</time><name>099</name><sym>Flag, Blue</sym></wpt><wpt lat="15.659232" lon="73.698526"><ele>4.403419</ele><time>2026-02-16T03:31:27Z</time><name>100</name><sym>Flag, Blue</sym></wpt><wpt lat="15.658494" lon="73.701812"><ele>4.968643</ele><time>2026-02-16T03:33:09Z</time><name>101</name><sym>Flag, Blue</sym></wpt><wpt lat="15.657009" lon="73.707070"><ele>4.526878</ele><time>2026-02-16T03:35:50Z</time><name>102</name><sym>Flag, Blue</sym></wpt><wpt lat="15.651822" lon="73.707308"><ele>4.307381</ele><time>2026-02-16T03:40:08Z</time><name>103</name><sym>Flag, Blue</sym></wpt><wpt lat="15.644457" lon="73.700727"><ele>3.830109</ele><time>2026-02-16T03:45:04Z</time><name>104</name><sym>Flag, Blue</sym></wpt><wpt lat="15.639737" lon="73.704058"><ele>3.958244</ele><time>2026-02-16T03:49:13Z</time><name>105</name><sym>Flag, Blue</sym></wpt><wpt lat="15.636295" lon="73.709930"><ele>4.580208</ele><time>2026-02-16T03:52:31Z</time><name>106</name><sym>Flag, Blue</sym></wpt><wpt lat="15.634997" lon="73.712102"><ele>6.185745</ele><time>2026-02-16T03:53:45Z</time><name>107</name><sym>Flag, Blue</sym></wpt><wpt lat="15.629830" lon="73.719542"><ele>5.579582</ele><time>2026-02-16T03:58:10Z</time><name>108</name><sym>Flag, Blue</sym></wpt><wpt lat="15.629274" lon="73.719975"><ele>5.298218</ele><time>2026-02-16T03:58:30Z</time><name>109</name><sym>Flag, Blue</sym></wpt><wpt lat="15.622478" lon="73.721550"><ele>6.571648</ele><time>2026-02-16T04:02:22Z</time><name>110</name><sym>Flag, Blue</sym></wpt><wpt lat="15.616619" lon="73.720454"><ele>5.229553</ele><time>2026-02-16T04:05:16Z</time><name>111</name><sym>Flag, Blue</sym></wpt><wpt lat="15.614101" lon="73.719586"><ele>4.491074</ele><time>2026-02-16T04:06:33Z</time><name>112</name><sym>Flag, Blue</sym></wpt><wpt lat="15.608855" lon="73.719370"><ele>6.131721</ele><time>2026-02-16T04:09:17Z</time><name>113</name><sym>Flag, Blue</sym></wpt><wpt lat="15.606092" lon="73.721899"><ele>4.439491</ele><time>2026-02-16T04:11:26Z</time><name>114</name><sym>Flag, Blue</sym></wpt><wpt lat="15.600184" lon="73.726091"><ele>4.847069</ele><time>2026-02-16T04:16:37Z</time><name>115</name><sym>Flag, Blue</sym></wpt><wpt lat="15.593157" lon="73.721122"><ele>4.135330</ele><time>2026-02-16T04:21:09Z</time><name>116</name><sym>Flag, Blue</sym></wpt><wpt lat="15.585089" lon="73.722842"><ele>2.765022</ele><time>2026-02-16T04:25:58Z</time><name>117</name><sym>Flag, Blue</sym></wpt><wpt lat="15.579892" lon="73.729860"><ele>3.523163</ele><time>2026-02-16T04:30:18Z</time><name>118</name><sym>Flag, Blue</sym></wpt><wpt lat="15.572697" lon="73.732147"><ele>3.704971</ele><time>2026-02-16T04:35:01Z</time><name>119</name><sym>Flag, Blue</sym></wpt><wpt lat="15.564627" lon="73.728814"><ele>3.531799</ele><time>2026-02-16T04:39:32Z</time><name>120</name><sym>Flag, Blue</sym></wpt><wpt lat="15.557758" lon="73.732510"><ele>5.039246</ele><time>2026-02-16T04:44:00Z</time><name>121</name><sym>Flag, Blue</sym></wpt><wpt lat="15.554290" lon="73.740984"><ele>4.848122</ele><time>2026-02-16T04:48:34Z</time><name>122</name><sym>Flag, Blue</sym></wpt><wpt lat="15.552182" lon="73.747282"><ele>3.996330</ele><time>2026-02-16T04:53:17Z</time><name>123</name><sym>Flag, Blue</sym></wpt><wpt lat="15.544442" lon="73.744049"><ele>2.998199</ele><time>2026-02-16T04:57:34Z</time><name>124</name><sym>Flag, Blue</sym></wpt><wpt lat="15.536780" lon="73.743564"><ele>4.445816</ele><time>2026-02-16T05:02:02Z</time><name>125</name><sym>Flag, Blue</sym></wpt><wpt lat="15.534640" lon="73.752737"><ele>3.725815</ele><time>2026-02-16T05:06:36Z</time><name>126</name><sym>Flag, Blue</sym></wpt><wpt lat="15.527447" lon="73.757696"><ele>3.680641</ele><time>2026-02-16T05:11:22Z</time><name>127</name><sym>Flag, Blue</sym></wpt><wpt lat="15.518952" lon="73.754233"><ele>2.349724</ele><time>2026-02-16T05:16:06Z</time><name>128</name><sym>Flag, Blue</sym></wpt><wpt lat="15.510537" lon="73.751775"><ele>1.739677</ele><time>2026-02-16T05:20:37Z</time><name>129</name><sym>Flag, Blue</sym></wpt><wpt lat="15.503693" lon="73.755776"><ele>3.901932</ele><time>2026-02-16T05:24:58Z</time><name>130</name><sym>Flag, Blue</sym></wpt><wpt lat="15.496329" lon="73.761784"><ele>3.321831</ele><time>2026-02-16T05:29:46Z</time><name>131</name><sym>Flag, Blue</sym></wpt><wpt lat="15.495794" lon="73.762155"><ele>2.474274</ele><time>2026-02-16T05:30:07Z</time><name>132</name><sym>Flag, Blue</sym></wpt><wpt lat="15.493641" lon="73.764160"><ele>3.883606</ele><time>2026-02-16T05:31:36Z</time><name>133</name><sym>Flag, Blue</sym></wpt><wpt lat="15.489994" lon="73.767235"><ele>3.907104</ele><time>2026-02-16T05:34:03Z</time><name>134</name><sym>Flag, Blue</sym></wpt><wpt lat="15.489235" lon="73.768792"><ele>4.260818</ele><time>2026-02-16T05:34:58Z</time><name>135</name><sym>Flag, Blue</sym></wpt><wpt lat="15.488425" lon="73.777929"><ele>2.704887</ele><time>2026-02-16T05:39:46Z</time><name>136</name><sym>Flag, Blue</sym></wpt><wpt lat="15.484855" lon="73.784808"><ele>3.300270</ele><time>2026-02-16T05:43:46Z</time><name>137</name><sym>Flag, Blue</sym></wpt><wpt lat="15.477433" lon="73.792804"><ele>4.890854</ele><time>2026-02-16T05:50:20Z</time><name>138</name><sym>Flag, Blue</sym></wpt><wpt lat="15.472218" lon="73.793465"><ele>3.662170</ele><time>2026-02-16T05:53:04Z</time><name>139</name><sym>Flag, Blue</sym></wpt><wpt lat="15.465773" lon="73.794902"><ele>1.425415</ele><time>2026-02-16T05:55:54Z</time><name>140</name><sym>Flag, Blue</sym></wpt><wpt lat="15.463431" lon="73.795927"><ele>0.373245</ele><time>2026-02-16T05:57:02Z</time><name>141</name><sym>Flag, Blue</sym></wpt></gpx>