<?xml version="1.0" encoding="UTF-8" standalone="no" ?><gpx xmlns="http://www.topografix.com/GPX/1/1" xmlns:gpxx="http://www.garmin.com/xmlschemas/GpxExtensions/v3" xmlns:wptx1="http://www.garmin.com/xmlschemas/WaypointExtension/v1" xmlns:gpxtpx="http://www.garmin.com/xmlschemas/TrackPointExtension/v1" creator="eTrex 10 SEA" version="1.1" xmlns:xsi="http://www.w3.org/2001/XMLSchema-instance" xsi:schemaLocation="http://www.topografix.com/GPX/1/1 http://www.topografix.com/GPX/1/1/gpx.xsd http://www.garmin.com/xmlschemas/GpxExtensions/v3 http://www8.garmin.com/xmlschemas/GpxExtensionsv3.xsd http://www.garmin.com/xmlschemas/WaypointExtension/v1 http://www8.garmin.com/xmlschemas/WaypointExtensionv1.xsd http://www.garmin.com/xmlschemas/TrackPointExtension/v1 http://www.garmin.com/xmlschemas/TrackPointExtensionv1.xsd"><metadata><link href="http://www.garmin.com"><text>Garmin International</text></link><time>2025-04-22T01:13:42Z</time></metadata><wpt lat="14.984051" lon="74.038806"><ele>1.822891</ele><time>2025-04-22T01:13:42Z</time><name>527</name><sym>Flag, Blue</sym></wpt><wpt lat="14.984481" lon="74.030037"><ele>1.550095</ele><time>2025-04-22T01:17:33Z</time><name>528</name><sym>Flag, Blue</sym></wpt><wpt lat="14.986892" lon="74.020617"><ele>4.206276</ele><time>2025-04-22T01:22:05Z</time><name>529</name><sym>Flag, Blue</sym></wpt><wpt lat="14.988662" lon="74.012388"><ele>2.530884</ele><time>2025-04-22T01:26:00Z</time><name>530</name><sym>Flag, Blue</sym></wpt><wpt lat="14.992375" lon="74.013049"><ele>1.453552</ele><time>2025-04-22T01:28:07Z</time><name>531</name><sym>Flag, Blue</sym></wpt><wpt lat="14.994108" lon="74.013666"><ele>2.149849</ele><time>2025-04-22T01:29:01Z</time><name>532</name><sym>Flag, Blue</sym></wpt><wpt lat="14.995107" lon="74.014042"><ele>2.504051</ele><time>2025-04-22T01:29:32Z</time><name>533</name><sym>Flag, Blue</sym></wpt><wpt lat="14.996866" lon="74.014682"><ele>1.786026</ele><time>2025-04-22T01:30:27Z</time><name>534</name><sym>Flag, Blue</sym></wpt><wpt lat="14.998229" lon="74.015106"><ele>1.635742</ele><time>2025-04-22T01:31:08Z</time><name>535</name><sym>Flag, Blue</sym></wpt><wpt lat="15.004950" lon="74.018114"><ele>2.315453</ele><time>2025-04-22T01:34:42Z</time><name>536</name><sym>Flag, Blue</sym></wpt><wpt lat="15.005000" lon="74.013881"><ele>1.898041</ele><time>2025-04-22T01:39:13Z</time><name>537</name><sym>Flag, Blue</sym></wpt><wpt lat="15.004473" lon="74.011680"><ele>1.575027</ele><time>2025-04-22T01:40:17Z</time><name>538</name><sym>Flag, Blue</sym></wpt><wpt lat="15.009837" lon="74.005688"><ele>1.912216</ele><time>2025-04-22T01:44:13Z</time><name>539</name><sym>Flag, Blue</sym></wpt><wpt lat="15.011722" lon="74.000071"><ele>0.952347</ele><time>2025-04-22T01:47:51Z</time><name>540</name><sym>Flag, Blue</sym></wpt><wpt lat="15.010013" lon="73.990957"><ele>1.898903</ele><time>2025-04-22T01:52:09Z</time><name>541</name><sym>Flag, Blue</sym></wpt><wpt lat="15.011912" lon="73.982350"><ele>2.600006</ele><time>2025-04-22T01:56:20Z</time><name>542</name><sym>Flag, Blue</sym></wpt><wpt lat="15.021038" lon="73.981575"><ele>2.321449</ele><time>2025-04-22T02:00:45Z</time><name>543</name><sym>Flag, Blue</sym></wpt><wpt lat="15.027664" lon="73.982455"><ele>2.066200</ele><time>2025-04-22T02:04:00Z</time><name>544</name><sym>Flag, Blue</sym></wpt><wpt lat="15.029037" lon="73.982802"><ele>1.992554</ele><time>2025-04-22T02:04:43Z</time><name>545</name><sym>Flag, Blue</sym></wpt><wpt lat="15.033460" lon="73.976293"><ele>1.521210</ele><time>2025-04-22T02:09:20Z</time><name>546</name><sym>Flag, Blue</sym></wpt><wpt lat="15.038205" lon="73.969670"><ele>2.930397</ele><time>2025-04-22T02:13:54Z</time><name>547</name><sym>Flag, Blue</sym></wpt><wpt lat="15.048273" lon="73.968460"><ele>4.930969</ele><time>2025-04-22T02:19:02Z</time><name>548</name><sym>Flag, Blue</sym></wpt><wpt lat="15.055148" lon="73.967229"><ele>2.829285</ele><time>2025-04-22T02:22:54Z</time><name>549</name><sym>Flag, Blue</sym></wpt><wpt lat="15.054006" lon="73.947689"><ele>1.599945</ele><time>2025-04-22T02:32:11Z</time><name>550</name><sym>Flag, Blue</sym></wpt><wpt lat="15.057397" lon="73.940790"><ele>0.945671</ele><time>2025-04-22T02:36:29Z</time><name>551</name><sym>Flag, Blue</sym></wpt><wpt lat="15.065565" lon="73.934462"><ele>0.135941</ele><time>2025-04-22T02:41:29Z</time><name>552</name><sym>Flag, Blue</sym></wpt><wpt lat="15.071921" lon="73.930601"><ele>0.822830</ele><time>2025-04-22T02:45:09Z</time><name>553</name><sym>Flag, Blue</sym></wpt><wpt lat="15.079605" lon="73.927214"><ele>1.585159</ele><time>2025-04-22T02:49:16Z</time><name>554</name><sym>Flag, Blue</sym></wpt><wpt lat="15.078742" lon="73.918809"><ele>2.049797</ele><time>2025-04-22T02:53:43Z</time><name>555</name><sym>Flag, Blue</sym></wpt><wpt lat="15.078065" lon="73.909786"><ele>-1.913528</ele><time>2025-04-22T02:58:04Z</time><name>556</name><sym>Flag, Blue</sym></wpt><wpt lat="15.081935" lon="73.906492"><ele>1.632088</ele><time>2025-04-22T03:02:30Z</time><name>557</name><sym>Flag, Blue</sym></wpt><wpt lat="15.088561" lon="73.914082"><ele>4.024376</ele><time>2025-04-22T03:07:29Z</time><name>558</name><sym>Flag, Blue</sym></wpt><wpt lat="15.095942" lon="73.921181"><ele>1.336685</ele><time>2025-04-22T03:12:44Z</time><name>559</name><sym>Flag, Blue</sym></wpt><wpt lat="15.101313" lon="73.922501"><ele>0.629745</ele><time>2025-04-22T03:16:26Z</time><name>560</name><sym>Flag, Blue</sym></wpt><wpt lat="15.107860" lon="73.915636"><ele>1.648651</ele><time>2025-04-22T03:21:32Z</time><name>561</name><sym>Flag, Blue</sym></wpt><wpt lat="15.114353" lon="73.923947"><ele>3.569084</ele><time>2025-04-22T03:28:01Z</time><name>562</name><sym>Flag, Blue</sym></wpt><wpt lat="15.118068" lon="73.928659"><ele>3.676109</ele><time>2025-04-22T03:31:18Z</time><name>563</name><sym>Flag, Blue</sym></wpt><wpt lat="15.123467" lon="73.935437"><ele>3.094101</ele><time>2025-04-22T03:35:51Z</time><name>564</name><sym>Flag, Blue</sym></wpt><wpt lat="15.129739" lon="73.932175"><ele>1.039589</ele><time>2025-04-22T03:40:21Z</time><name>565</name><sym>Flag, Blue</sym></wpt><wpt lat="15.130450" lon="73.931364"><ele>4.339340</ele><time>2025-04-22T03:40:55Z</time><name>566</name><sym>Flag, Blue</sym></wpt><wpt lat="15.134649" lon="73.924619"><ele>0.826546</ele><time>2025-04-22T03:45:24Z</time><name>567</name><sym>Flag, Blue</sym></wpt><wpt lat="15.138480" lon="73.933391"><ele>5.789268</ele><time>2025-04-22T03:50:26Z</time><name>568</name><sym>Flag, Blue</sym></wpt><wpt lat="15.141719" lon="73.942188"><ele>6.134758</ele><time>2025-04-22T03:55:18Z</time><name>569</name><sym>Flag, Blue</sym></wpt><wpt lat="15.142462" lon="73.944883"><ele>2.529724</ele><time>2025-04-22T03:56:57Z</time><name>570</name><sym>Flag, Blue</sym></wpt></gpx>