<?xml version="1.0" encoding="UTF-8" standalone="no" ?><gpx xmlns="http://www.topografix.com/GPX/1/1" xmlns:gpxx="http://www.garmin.com/xmlschemas/GpxExtensions/v3" xmlns:wptx1="http://www.garmin.com/xmlschemas/WaypointExtension/v1" xmlns:gpxtpx="http://www.garmin.com/xmlschemas/TrackPointExtension/v1" creator="eTrex 10 SEA" version="1.1" xmlns:xsi="http://www.w3.org/2001/XMLSchema-instance" xsi:schemaLocation="http://www.topografix.com/GPX/1/1 http://www.topografix.com/GPX/1/1/gpx.xsd http://www.garmin.com/xmlschemas/GpxExtensions/v3 http://www8.garmin.com/xmlschemas/GpxExtensionsv3.xsd http://www.garmin.com/xmlschemas/WaypointExtension/v1 http://www8.garmin.com/xmlschemas/WaypointExtensionv1.xsd http://www.garmin.com/xmlschemas/TrackPointExtension/v1 http://www.garmin.com/xmlschemas/TrackPointExtensionv1.xsd"><metadata><link href="http://www.garmin.com"><text>Garmin International</text></link><time>2025-04-20T01:26:28Z</time></metadata><wpt lat="15.462363" lon="73.797550"><ele>-0.337990</ele><time>2025-04-20T01:26:28Z</time><name>374</name><sym>Flag, Blue</sym></wpt><wpt lat="15.466374" lon="73.789852"><ele>-0.462318</ele><time>2025-04-20T01:31:58Z</time><name>375</name><sym>Flag, Blue</sym></wpt><wpt lat="15.462725" lon="73.782085"><ele>-2.582886</ele><time>2025-04-20T01:36:00Z</time><name>376</name><sym>Flag, Blue</sym></wpt><wpt lat="15.454358" lon="73.780716"><ele>1.336761</ele><time>2025-04-20T01:40:38Z</time><name>377</name><sym>Flag, Blue</sym></wpt><wpt lat="15.445214" lon="73.779807"><ele>-0.533936</ele><time>2025-04-20T01:46:18Z</time><name>378</name><sym>Flag, Blue</sym></wpt><wpt lat="15.436993" lon="73.774361"><ele>-1.332672</ele><time>2025-04-20T01:51:41Z</time><name>379</name><sym>Flag, Blue</sym></wpt><wpt lat="15.430255" lon="73.772078"><ele>0.795815</ele><time>2025-04-20T01:55:48Z</time><name>380</name><sym>Flag, Blue</sym></wpt><wpt lat="15.421673" lon="73.770195"><ele>0.880096</ele><time>2025-04-20T02:00:36Z</time><name>381</name><sym>Flag, Blue</sym></wpt><wpt lat="15.412980" lon="73.776192"><ele>0.250397</ele><time>2025-04-20T02:06:22Z</time><name>382</name><sym>Flag, Blue</sym></wpt><wpt lat="15.407015" lon="73.781037"><ele>-0.243858</ele><time>2025-04-20T02:10:32Z</time><name>383</name><sym>Flag, Blue</sym></wpt><wpt lat="15.399530" lon="73.779355"><ele>-1.374382</ele><time>2025-04-20T02:15:12Z</time><name>384</name><sym>Flag, Blue</sym></wpt><wpt lat="15.393475" lon="73.784566"><ele>-0.312401</ele><time>2025-04-20T02:20:49Z</time><name>385</name><sym>Flag, Blue</sym></wpt><wpt lat="15.390874" lon="73.790221"><ele>-0.878792</ele><time>2025-04-20T02:24:47Z</time><name>386</name><sym>Flag, Blue</sym></wpt><wpt lat="15.387225" lon="73.797644"><ele>1.070122</ele><time>2025-04-20T02:29:40Z</time><name>387</name><sym>Flag, Blue</sym></wpt><wpt lat="15.384964" lon="73.800961"><ele>-0.445953</ele><time>2025-04-20T02:32:07Z</time><name>388</name><sym>Flag, Blue</sym></wpt><wpt lat="15.382734" lon="73.800650"><ele>0.365440</ele><time>2025-04-20T02:33:22Z</time><name>389</name><sym>Flag, Blue</sym></wpt><wpt lat="15.375720" lon="73.800839"><ele>0.045692</ele><time>2025-04-20T02:37:17Z</time><name>390</name><sym>Flag, Blue</sym></wpt><wpt lat="15.372296" lon="73.799876"><ele>0.182854</ele><time>2025-04-20T02:39:16Z</time><name>391</name><sym>Flag, Blue</sym></wpt><wpt lat="15.367415" lon="73.799413"><ele>0.647972</ele><time>2025-04-20T02:42:21Z</time><name>392</name><sym>Flag, Blue</sym></wpt><wpt lat="15.366095" lon="73.807985"><ele>-0.025063</ele><time>2025-04-20T02:47:33Z</time><name>393</name><sym>Flag, Blue</sym></wpt><wpt lat="15.365940" lon="73.818865"><ele>-0.888100</ele><time>2025-04-20T02:53:51Z</time><name>394</name><sym>Flag, Blue</sym></wpt><wpt lat="15.367194" lon="73.826288"><ele>-0.806938</ele><time>2025-04-20T02:58:14Z</time><name>395</name><sym>Flag, Blue</sym></wpt><wpt lat="15.364908" lon="73.828919"><ele>-0.825577</ele><time>2025-04-20T03:00:59Z</time><name>396</name><sym>Flag, Blue</sym></wpt><wpt lat="15.360077" lon="73.828351"><ele>0.588219</ele><time>2025-04-20T03:03:57Z</time><name>397</name><sym>Flag, Blue</sym></wpt><wpt lat="15.358837" lon="73.837466"><ele>-0.963600</ele><time>2025-04-20T03:09:16Z</time><name>398</name><sym>Flag, Blue</sym></wpt><wpt lat="15.358218" lon="73.848095"><ele>-1.503845</ele><time>2025-04-20T03:15:34Z</time><name>399</name><sym>Flag, Blue</sym></wpt><wpt lat="15.360704" lon="73.855545"><ele>-0.638573</ele><time>2025-04-20T03:20:15Z</time><name>400</name><sym>Flag, Blue</sym></wpt><wpt lat="15.363680" lon="73.863732"><ele>-0.761604</ele><time>2025-04-20T03:24:48Z</time><name>401</name><sym>Flag, Blue</sym></wpt><wpt lat="15.365006" lon="73.867143"><ele>-1.625671</ele><time>2025-04-20T03:26:41Z</time><name>402</name><sym>Flag, Blue</sym></wpt><wpt lat="15.363406" lon="73.869810"><ele>-1.488426</ele><time>2025-04-20T03:29:31Z</time><name>403</name><sym>Flag, Blue</sym></wpt><wpt lat="15.355046" lon="73.866546"><ele>-1.422882</ele><time>2025-04-20T03:34:09Z</time><name>404</name><sym>Flag, Blue</sym></wpt><wpt lat="15.350343" lon="73.869382"><ele>-1.066856</ele><time>2025-04-20T03:38:55Z</time><name>405</name><sym>Flag, Blue</sym></wpt><wpt lat="15.350608" lon="73.878624"><ele>0.876450</ele><time>2025-04-20T03:43:35Z</time><name>406</name><sym>Flag, Blue</sym></wpt><wpt lat="15.344458" lon="73.882498"><ele>1.696236</ele><time>2025-04-20T03:48:49Z</time><name>407</name><sym>Flag, Blue</sym></wpt><wpt lat="15.340028" lon="73.881840"><ele>1.090088</ele><time>2025-04-20T03:51:14Z</time><name>408</name><sym>Flag, Blue</sym></wpt><wpt lat="15.336618" lon="73.880775"><ele>1.100807</ele><time>2025-04-20T03:53:10Z</time><name>409</name><sym>Flag, Blue</sym></wpt><wpt lat="15.331184" lon="73.878365"><ele>-0.035103</ele><time>2025-04-20T03:56:24Z</time><name>410</name><sym>Flag, Blue</sym></wpt><wpt lat="15.328579" lon="73.877178"><ele>-0.762383</ele><time>2025-04-20T03:57:57Z</time><name>411</name><sym>Flag, Blue</sym></wpt><wpt lat="15.324819" lon="73.876058"><ele>-0.748169</ele><time>2025-04-20T04:00:06Z</time><name>412</name><sym>Flag, Blue</sym></wpt><wpt lat="15.322667" lon="73.875010"><ele>0.338341</ele><time>2025-04-20T04:01:24Z</time><name>413</name><sym>Flag, Blue</sym></wpt><wpt lat="15.320145" lon="73.876895"><ele>-0.928825</ele><time>2025-04-20T04:03:58Z</time><name>414</name><sym>Flag, Blue</sym></wpt><wpt lat="15.319979" lon="73.877942"><ele>0.246170</ele><time>2025-04-20T04:04:31Z</time><name>415</name><sym>Flag, Blue</sym></wpt><wpt lat="15.319763" lon="73.879291"><ele>2.638054</ele><time>2025-04-20T04:05:14Z</time><name>416</name><sym>Flag, Blue</sym></wpt><wpt lat="15.319655" lon="73.881121"><ele>0.730133</ele><time>2025-04-20T04:06:12Z</time><name>417</name><sym>Flag, Blue</sym></wpt><wpt lat="15.319539" lon="73.882949"><ele>-0.211517</ele><time>2025-04-20T04:07:11Z</time><name>418</name><sym>Flag, Blue</sym></wpt><wpt lat="15.319522" lon="73.884636"><ele>0.450020</ele><time>2025-04-20T04:08:04Z</time><name>419</name><sym>Flag, Blue</sym></wpt><wpt lat="15.321126" lon="73.893957"><ele>0.539680</ele><time>2025-04-20T04:13:04Z</time><name>420</name><sym>Flag, Blue</sym></wpt><wpt lat="15.313721" lon="73.891892"><ele>2.068558</ele><time>2025-04-20T04:17:53Z</time><name>421</name><sym>Flag, Blue</sym></wpt><wpt lat="15.311598" lon="73.890731"><ele>2.281235</ele><time>2025-04-20T04:19:11Z</time><name>422</name><sym>Flag, Blue</sym></wpt><wpt lat="15.310158" lon="73.889701"><ele>2.178696</ele><time>2025-04-20T04:20:08Z</time><name>423</name><sym>Flag, Blue</sym></wpt><wpt lat="15.306928" lon="73.887324"><ele>2.266670</ele><time>2025-04-20T04:22:17Z</time><name>424</name><sym>Flag, Blue</sym></wpt><wpt lat="15.300914" lon="73.889595"><ele>1.619339</ele><time>2025-04-20T04:27:15Z</time><name>425</name><sym>Flag, Blue</sym></wpt><wpt lat="15.299014" lon="73.898555"><ele>0.254074</ele><time>2025-04-20T04:31:57Z</time><name>426</name><sym>Flag, Blue</sym></wpt><wpt lat="15.292643" lon="73.897547"><ele>1.901306</ele><time>2025-04-20T04:36:40Z</time><name>427</name><sym>Flag, Blue</sym></wpt><wpt lat="15.283353" lon="73.890578"><ele>1.025688</ele><time>2025-04-20T04:42:41Z</time><name>428</name><sym>Flag, Blue</sym></wpt><wpt lat="15.281570" lon="73.888956"><ele>2.789368</ele><time>2025-04-20T04:43:56Z</time><name>429</name><sym>Flag, Blue</sym></wpt><wpt lat="15.280331" lon="73.887646"><ele>4.310204</ele><time>2025-04-20T04:44:53Z</time><name>430</name><sym>Flag, Blue</sym></wpt><wpt lat="15.278226" lon="73.886995"><ele>2.194748</ele><time>2025-04-20T04:46:28Z</time><name>431</name><sym>Flag, Blue</sym></wpt><wpt lat="15.275884" lon="73.892215"><ele>1.891891</ele><time>2025-04-20T04:49:27Z</time><name>432</name><sym>Flag, Blue</sym></wpt><wpt lat="15.274453" lon="73.896093"><ele>1.166862</ele><time>2025-04-20T04:51:36Z</time><name>433</name><sym>Flag, Blue</sym></wpt><wpt lat="15.273515" lon="73.898572"><ele>1.978416</ele><time>2025-04-20T04:52:59Z</time><name>434</name><sym>Flag, Blue</sym></wpt><wpt lat="15.272641" lon="73.901051"><ele>2.076134</ele><time>2025-04-20T04:54:22Z</time><name>435</name><sym>Flag, Blue</sym></wpt><wpt lat="15.271954" lon="73.903006"><ele>2.636635</ele><time>2025-04-20T04:55:27Z</time><name>436</name><sym>Flag, Blue</sym></wpt><wpt lat="15.270815" lon="73.906616"><ele>0.584343</ele><time>2025-04-20T04:57:25Z</time><name>437</name><sym>Flag, Blue</sym></wpt><wpt lat="15.269251" lon="73.911650"><ele>-0.295502</ele><time>2025-04-20T05:00:37Z</time><name>438</name><sym>Flag, Blue</sym></wpt><wpt lat="15.263499" lon="73.909273"><ele>0.548210</ele><time>2025-04-20T05:03:54Z</time><name>439</name><sym>Flag, Blue</sym></wpt><wpt lat="15.259260" lon="73.907298"><ele>0.928780</ele><time>2025-04-20T05:06:26Z</time><name>440</name><sym>Flag, Blue</sym></wpt><wpt lat="15.252791" lon="73.903478"><ele>1.254562</ele><time>2025-04-20T05:10:29Z</time><name>441</name><sym>Flag, Blue</sym></wpt><wpt lat="15.251537" lon="73.903502"><ele>2.216019</ele><time>2025-04-20T05:11:09Z</time><name>442</name><sym>Flag, Blue</sym></wpt><wpt lat="15.244336" lon="73.902705"><ele>1.509857</ele><time>2025-04-20T05:15:04Z</time><name>443</name><sym>Flag, Blue</sym></wpt><wpt lat="15.238169" lon="73.906430"><ele>0.920029</ele><time>2025-04-20T05:19:33Z</time><name>444</name><sym>Flag, Blue</sym></wpt><wpt lat="15.232657" lon="73.913971"><ele>0.919235</ele><time>2025-04-20T05:24:09Z</time><name>445</name><sym>Flag, Blue</sym></wpt><wpt lat="15.225640" lon="73.923305"><ele>1.794594</ele><time>2025-04-20T05:30:01Z</time><name>446</name><sym>Flag, Blue</sym></wpt><wpt lat="15.218511" lon="73.921222"><ele>1.154381</ele><time>2025-04-20T05:35:13Z</time><name>447</name><sym>Flag, Blue</sym></wpt><wpt lat="15.213497" lon="73.918370"><ele>2.277542</ele><time>2025-04-20T05:38:10Z</time><name>448</name><sym>Flag, Blue</sym></wpt><wpt lat="15.205883" lon="73.912074"><ele>2.025879</ele><time>2025-04-20T05:43:15Z</time><name>449</name><sym>Flag, Blue</sym></wpt><wpt lat="15.204845" lon="73.911086"><ele>1.990723</ele><time>2025-04-20T05:43:58Z</time><name>450</name><sym>Flag, Blue</sym></wpt><wpt lat="15.199820" lon="73.913196"><ele>3.464043</ele><time>2025-04-20T05:47:23Z</time><name>451</name><sym>Flag, Blue</sym></wpt><wpt lat="15.192700" lon="73.919328"><ele>2.076393</ele><time>2025-04-20T05:52:05Z</time><name>452</name><sym>Flag, Blue</sym></wpt><wpt lat="15.186645" lon="73.925406"><ele>3.022881</ele><time>2025-04-20T05:56:20Z</time><name>453</name><sym>Flag, Blue</sym></wpt><wpt lat="15.172850" lon="73.930307"><ele>4.848175</ele><time>2025-04-20T06:05:26Z</time><name>454</name><sym>Flag, Blue</sym></wpt><wpt lat="15.158239" lon="73.930420"><ele>3.600380</ele><time>2025-04-20T06:14:53Z</time><name>455</name><sym>Flag, Blue</sym></wpt><wpt lat="15.152369" lon="73.937098"><ele>2.101242</ele><time>2025-04-20T06:19:21Z</time><name>456</name><sym>Flag, Blue</sym></wpt><wpt lat="15.145404" lon="73.944626"><ele>1.809479</ele><time>2025-04-20T06:24:57Z</time><name>457</name><sym>Flag, Blue</sym></wpt><wpt lat="15.142528" lon="73.948956"><ele>-0.152931</ele><time>2025-04-20T06:27:39Z</time><name>458</name><sym>Flag, Blue</sym></wpt></gpx>