<?xml version="1.0" encoding="UTF-8" standalone="no" ?><gpx xmlns="http://www.topografix.com/GPX/1/1" xmlns:gpxx="http://www.garmin.com/xmlschemas/GpxExtensions/v3" xmlns:wptx1="http://www.garmin.com/xmlschemas/WaypointExtension/v1" xmlns:gpxtpx="http://www.garmin.com/xmlschemas/TrackPointExtension/v1" creator="eTrex 10 SEA" version="1.1" xmlns:xsi="http://www.w3.org/2001/XMLSchema-instance" xsi:schemaLocation="http://www.topografix.com/GPX/1/1 http://www.topografix.com/GPX/1/1/gpx.xsd http://www.garmin.com/xmlschemas/GpxExtensions/v3 http://www8.garmin.com/xmlschemas/GpxExtensionsv3.xsd http://www.garmin.com/xmlschemas/WaypointExtension/v1 http://www8.garmin.com/xmlschemas/WaypointExtensionv1.xsd http://www.garmin.com/xmlschemas/TrackPointExtension/v1 http://www.garmin.com/xmlschemas/TrackPointExtensionv1.xsd"><metadata><link href="http://www.garmin.com"><text>Garmin International</text></link><time>2025-04-23T00:55:08Z</time></metadata><wpt lat="15.143341" lon="73.944367"><ele>1.023476</ele><time>2025-04-23T00:55:08Z</time><name>571</name><sym>Flag, Blue</sym></wpt><wpt lat="15.144547" lon="73.941378"><ele>1.894348</ele><time>2025-04-23T00:56:40Z</time><name>572</name><sym>Flag, Blue</sym></wpt><wpt lat="15.149484" lon="73.933742"><ele>1.006409</ele><time>2025-04-23T01:00:47Z</time><name>573</name><sym>Flag, Blue</sym></wpt><wpt lat="15.153825" lon="73.927836"><ele>1.059486</ele><time>2025-04-23T01:04:15Z</time><name>574</name><sym>Flag, Blue</sym></wpt><wpt lat="15.154989" lon="73.928960"><ele>1.430588</ele><time>2025-04-23T01:05:00Z</time><name>575</name><sym>Flag, Blue</sym></wpt><wpt lat="15.164576" lon="73.935588"><ele>1.440407</ele><time>2025-04-23T01:10:24Z</time><name>576</name><sym>Flag, Blue</sym></wpt><wpt lat="15.172405" lon="73.936359"><ele>1.471397</ele><time>2025-04-23T01:15:00Z</time><name>577</name><sym>Flag, Blue</sym></wpt><wpt lat="15.177243" lon="73.930027"><ele>2.465683</ele><time>2025-04-23T01:18:37Z</time><name>578</name><sym>Flag, Blue</sym></wpt><wpt lat="15.180420" lon="73.924721"><ele>1.408882</ele><time>2025-04-23T01:21:28Z</time><name>579</name><sym>Flag, Blue</sym></wpt><wpt lat="15.184394" lon="73.916640"><ele>1.159340</ele><time>2025-04-23T01:25:31Z</time><name>580</name><sym>Flag, Blue</sym></wpt><wpt lat="15.193267" lon="73.916388"><ele>2.373795</ele><time>2025-04-23T01:29:43Z</time><name>581</name><sym>Flag, Blue</sym></wpt><wpt lat="15.202553" lon="73.916139"><ele>0.781075</ele><time>2025-04-23T01:34:01Z</time><name>582</name><sym>Flag, Blue</sym></wpt><wpt lat="15.213131" lon="73.917793"><ele>0.589836</ele><time>2025-04-23T01:39:01Z</time><name>583</name><sym>Flag, Blue</sym></wpt><wpt lat="15.219946" lon="73.919508"><ele>1.057335</ele><time>2025-04-23T01:42:16Z</time><name>584</name><sym>Flag, Blue</sym></wpt><wpt lat="15.227714" lon="73.922861"><ele>-0.923058</ele><time>2025-04-23T01:46:10Z</time><name>585</name><sym>Flag, Blue</sym></wpt><wpt lat="15.234839" lon="73.916789"><ele>1.003044</ele><time>2025-04-23T01:50:45Z</time><name>586</name><sym>Flag, Blue</sym></wpt><wpt lat="15.239450" lon="73.908951"><ele>-0.747688</ele><time>2025-04-23T01:54:52Z</time><name>587</name><sym>Flag, Blue</sym></wpt><wpt lat="15.242264" lon="73.903430"><ele>0.259995</ele><time>2025-04-23T01:57:56Z</time><name>588</name><sym>Flag, Blue</sym></wpt><wpt lat="15.244007" lon="73.903857"><ele>0.397911</ele><time>2025-04-23T01:58:46Z</time><name>589</name><sym>Flag, Blue</sym></wpt><wpt lat="15.256087" lon="73.903859"><ele>0.171059</ele><time>2025-04-23T02:04:20Z</time><name>590</name><sym>Flag, Blue</sym></wpt><wpt lat="15.262237" lon="73.902987"><ele>0.817482</ele><time>2025-04-23T02:07:11Z</time><name>591</name><sym>Flag, Blue</sym></wpt><wpt lat="15.270990" lon="73.902595"><ele>1.328506</ele><time>2025-04-23T02:11:15Z</time><name>592</name><sym>Flag, Blue</sym></wpt><wpt lat="15.279682" lon="73.904528"><ele>0.100647</ele><time>2025-04-23T02:15:23Z</time><name>593</name><sym>Flag, Blue</sym></wpt><wpt lat="15.285678" lon="73.898876"><ele>2.048058</ele><time>2025-04-23T02:20:07Z</time><name>594</name><sym>Flag, Blue</sym></wpt><wpt lat="15.289246" lon="73.890681"><ele>0.664124</ele><time>2025-04-23T02:24:09Z</time><name>595</name><sym>Flag, Blue</sym></wpt><wpt lat="15.295084" lon="73.884490"><ele>1.448730</ele><time>2025-04-23T02:28:20Z</time><name>596</name><sym>Flag, Blue</sym></wpt><wpt lat="15.303246" lon="73.886198"><ele>-0.640556</ele><time>2025-04-23T02:32:13Z</time><name>597</name><sym>Flag, Blue</sym></wpt><wpt lat="15.313381" lon="73.888222"><ele>-1.662758</ele><time>2025-04-23T02:37:00Z</time><name>598</name><sym>Flag, Blue</sym></wpt><wpt lat="15.320398" lon="73.890488"><ele>0.717369</ele><time>2025-04-23T02:40:25Z</time><name>599</name><sym>Flag, Blue</sym></wpt><wpt lat="15.321452" lon="73.890889"><ele>2.268440</ele><time>2025-04-23T02:40:56Z</time><name>600</name><sym>Flag, Blue</sym></wpt><wpt lat="15.326625" lon="73.888378"><ele>1.144440</ele><time>2025-04-23T02:44:51Z</time><name>601</name><sym>Flag, Blue</sym></wpt><wpt lat="15.329278" lon="73.879957"><ele>0.899208</ele><time>2025-04-23T02:48:49Z</time><name>602</name><sym>Flag, Blue</sym></wpt><wpt lat="15.343080" lon="73.873669"><ele>-1.333015</ele><time>2025-04-23T02:56:53Z</time><name>603</name><sym>Flag, Blue</sym></wpt><wpt lat="15.352571" lon="73.874034"><ele>-0.741104</ele><time>2025-04-23T03:01:17Z</time><name>604</name><sym>Flag, Blue</sym></wpt><wpt lat="15.358478" lon="73.874233"><ele>-0.497604</ele><time>2025-04-23T03:04:01Z</time><name>605</name><sym>Flag, Blue</sym></wpt><wpt lat="15.361919" lon="73.874563"><ele>-0.380295</ele><time>2025-04-23T03:05:37Z</time><name>606</name><sym>Flag, Blue</sym></wpt><wpt lat="15.364322" lon="73.866752"><ele>1.601547</ele><time>2025-04-23T03:10:21Z</time><name>607</name><sym>Flag, Blue</sym></wpt><wpt lat="15.362271" lon="73.858794"><ele>0.181931</ele><time>2025-04-23T03:14:28Z</time><name>608</name><sym>Flag, Blue</sym></wpt><wpt lat="15.359628" lon="73.849989"><ele>2.417725</ele><time>2025-04-23T03:19:02Z</time><name>609</name><sym>Flag, Blue</sym></wpt><wpt lat="15.359591" lon="73.849820"><ele>2.070091</ele><time>2025-04-23T03:19:07Z</time><name>610</name><sym>Flag, Blue</sym></wpt><wpt lat="15.356052" lon="73.831875"><ele>1.276878</ele><time>2025-04-23T03:28:11Z</time><name>611</name><sym>Flag, Blue</sym></wpt><wpt lat="15.361408" lon="73.822981"><ele>-0.884476</ele><time>2025-04-23T03:33:37Z</time><name>612</name><sym>Flag, Blue</sym></wpt><wpt lat="15.372593" lon="73.810652"><ele>1.230431</ele><time>2025-04-23T03:42:11Z</time><name>613</name><sym>Flag, Blue</sym></wpt><wpt lat="15.376929" lon="73.801813"><ele>4.294281</ele><time>2025-04-23T03:47:20Z</time><name>614</name><sym>Flag, Blue</sym></wpt><wpt lat="15.381044" lon="73.798609"><ele>0.633224</ele><time>2025-04-23T03:50:18Z</time><name>615</name><sym>Flag, Blue</sym></wpt><wpt lat="15.384636" lon="73.797192"><ele>2.057991</ele><time>2025-04-23T03:52:21Z</time><name>616</name><sym>Flag, Blue</sym></wpt><wpt lat="15.391450" lon="73.793175"><ele>4.395264</ele><time>2025-04-23T03:56:36Z</time><name>617</name><sym>Flag, Blue</sym></wpt><wpt lat="15.395149" lon="73.784626"><ele>4.693420</ele><time>2025-04-23T04:01:30Z</time><name>618</name><sym>Flag, Blue</sym></wpt><wpt lat="15.401112" lon="73.776478"><ele>3.540245</ele><time>2025-04-23T04:06:55Z</time><name>619</name><sym>Flag, Blue</sym></wpt><wpt lat="15.404174" lon="73.770313"><ele>2.981194</ele><time>2025-04-23T04:10:32Z</time><name>620</name><sym>Flag, Blue</sym></wpt><wpt lat="15.410677" lon="73.765478"><ele>4.093063</ele><time>2025-04-23T04:15:17Z</time><name>621</name><sym>Flag, Blue</sym></wpt><wpt lat="15.419623" lon="73.772357"><ele>0.542007</ele><time>2025-04-23T04:21:15Z</time><name>622</name><sym>Flag, Blue</sym></wpt><wpt lat="15.424136" lon="73.777699"><ele>1.326080</ele><time>2025-04-23T04:25:14Z</time><name>623</name><sym>Flag, Blue</sym></wpt><wpt lat="15.426853" lon="73.786381"><ele>1.456116</ele><time>2025-04-23T04:29:28Z</time><name>624</name><sym>Flag, Blue</sym></wpt><wpt lat="15.430383" lon="73.794784"><ele>2.006912</ele><time>2025-04-23T04:33:44Z</time><name>625</name><sym>Flag, Blue</sym></wpt><wpt lat="15.431169" lon="73.804173"><ele>1.902275</ele><time>2025-04-23T04:38:10Z</time><name>626</name><sym>Flag, Blue</sym></wpt><wpt lat="15.436185" lon="73.810376"><ele>1.278694</ele><time>2025-04-23T04:42:04Z</time><name>627</name><sym>Flag, Blue</sym></wpt><wpt lat="15.439472" lon="73.815143"><ele>4.255165</ele><time>2025-04-23T04:44:42Z</time><name>628</name><sym>Flag, Blue</sym></wpt><wpt lat="15.441801" lon="73.819223"><ele>5.054161</ele><time>2025-04-23T04:46:51Z</time><name>629</name><sym>Flag, Blue</sym></wpt><wpt lat="15.444780" lon="73.815729"><ele>3.797371</ele><time>2025-04-23T04:50:23Z</time><name>630</name><sym>Flag, Blue</sym></wpt><wpt lat="15.447186" lon="73.806508"><ele>3.894028</ele><time>2025-04-23T04:54:28Z</time><name>631</name><sym>Flag, Blue</sym></wpt><wpt lat="15.449176" lon="73.794391"><ele>2.672661</ele><time>2025-04-23T04:59:49Z</time><name>632</name><sym>Flag, Blue</sym></wpt><wpt lat="15.451192" lon="73.788961"><ele>5.972420</ele><time>2025-04-23T05:02:15Z</time><name>633</name><sym>Flag, Blue</sym></wpt><wpt lat="15.455158" lon="73.781516"><ele>2.682106</ele><time>2025-04-23T05:05:56Z</time><name>634</name><sym>Flag, Blue</sym></wpt><wpt lat="15.464388" lon="73.782588"><ele>4.655220</ele><time>2025-04-23T05:10:04Z</time><name>635</name><sym>Flag, Blue</sym></wpt><wpt lat="15.465865" lon="73.791014"><ele>5.512169</ele><time>2025-04-23T05:13:37Z</time><name>636</name><sym>Flag, Blue</sym></wpt><wpt lat="15.463433" lon="73.794707"><ele>6.384651</ele><time>2025-04-23T05:15:23Z</time><name>637</name><sym>Flag, Blue</sym></wpt></gpx>