<?xml version="1.0" encoding="UTF-8" standalone="no" ?><gpx xmlns="http://www.topografix.com/GPX/1/1" xmlns:gpxx="http://www.garmin.com/xmlschemas/GpxExtensions/v3" xmlns:wptx1="http://www.garmin.com/xmlschemas/WaypointExtension/v1" xmlns:gpxtpx="http://www.garmin.com/xmlschemas/TrackPointExtension/v1" creator="eTrex 10 SEA" version="1.1" xmlns:xsi="http://www.w3.org/2001/XMLSchema-instance" xsi:schemaLocation="http://www.topografix.com/GPX/1/1 http://www.topografix.com/GPX/1/1/gpx.xsd http://www.garmin.com/xmlschemas/GpxExtensions/v3 http://www8.garmin.com/xmlschemas/GpxExtensionsv3.xsd http://www.garmin.com/xmlschemas/WaypointExtension/v1 http://www8.garmin.com/xmlschemas/WaypointExtensionv1.xsd http://www.garmin.com/xmlschemas/TrackPointExtension/v1 http://www.garmin.com/xmlschemas/TrackPointExtensionv1.xsd"><metadata><link href="http://www.garmin.com"><text>Garmin International</text></link><time>2025-04-24T01:35:15Z</time></metadata><wpt lat="15.462452" lon="73.798189"><ele>2.219620</ele><time>2025-04-24T01:35:15Z</time><name>638</name><sym>Flag, Blue</sym></wpt><wpt lat="15.469256" lon="73.791604"><ele>4.335159</ele><time>2025-04-24T01:40:16Z</time><name>639</name><sym>Flag, Blue</sym></wpt><wpt lat="15.469348" lon="73.783132"><ele>2.837837</ele><time>2025-04-24T01:44:31Z</time><name>640</name><sym>Flag, Blue</sym></wpt><wpt lat="15.470817" lon="73.774063"><ele>0.487518</ele><time>2025-04-24T01:48:51Z</time><name>641</name><sym>Flag, Blue</sym></wpt><wpt lat="15.471034" lon="73.771938"><ele>0.667442</ele><time>2025-04-24T01:49:52Z</time><name>642</name><sym>Flag, Blue</sym></wpt><wpt lat="15.471720" lon="73.764881"><ele>2.123123</ele><time>2025-04-24T01:53:14Z</time><name>643</name><sym>Flag, Blue</sym></wpt><wpt lat="15.475996" lon="73.763919"><ele>2.057335</ele><time>2025-04-24T01:58:35Z</time><name>644</name><sym>Flag, Blue</sym></wpt><wpt lat="15.485881" lon="73.763878"><ele>2.300125</ele><time>2025-04-24T02:03:12Z</time><name>645</name><sym>Flag, Blue</sym></wpt><wpt lat="15.494459" lon="73.762670"><ele>0.944710</ele><time>2025-04-24T02:07:33Z</time><name>646</name><sym>Flag, Blue</sym></wpt><wpt lat="15.498436" lon="73.755772"><ele>0.462151</ele><time>2025-04-24T02:11:09Z</time><name>647</name><sym>Flag, Blue</sym></wpt><wpt lat="15.504689" lon="73.751437"><ele>-0.434471</ele><time>2025-04-24T02:15:19Z</time><name>648</name><sym>Flag, Blue</sym></wpt><wpt lat="15.512123" lon="73.756624"><ele>0.305382</ele><time>2025-04-24T02:19:40Z</time><name>649</name><sym>Flag, Blue</sym></wpt><wpt lat="15.515121" lon="73.759221"><ele>0.143623</ele><time>2025-04-24T02:21:35Z</time><name>650</name><sym>Flag, Blue</sym></wpt><wpt lat="15.524435" lon="73.753509"><ele>-2.590889</ele><time>2025-04-24T02:28:01Z</time><name>651</name><sym>Flag, Blue</sym></wpt><wpt lat="15.526470" lon="73.751267"><ele>0.375061</ele><time>2025-04-24T02:29:29Z</time><name>652</name><sym>Flag, Blue</sym></wpt><wpt lat="15.528722" lon="73.749742"><ele>-0.106331</ele><time>2025-04-24T02:30:46Z</time><name>653</name><sym>Flag, Blue</sym></wpt><wpt lat="15.530560" lon="73.748125"><ele>-1.430725</ele><time>2025-04-24T02:31:55Z</time><name>654</name><sym>Flag, Blue</sym></wpt><wpt lat="15.532145" lon="73.747194"><ele>-0.407982</ele><time>2025-04-24T02:32:48Z</time><name>655</name><sym>Flag, Blue</sym></wpt><wpt lat="15.533679" lon="73.746288"><ele>1.744225</ele><time>2025-04-24T02:33:40Z</time><name>656</name><sym>Flag, Blue</sym></wpt><wpt lat="15.535502" lon="73.745210"><ele>1.545738</ele><time>2025-04-24T02:34:53Z</time><name>657</name><sym>Flag, Blue</sym></wpt><wpt lat="15.537105" lon="73.744630"><ele>0.884148</ele><time>2025-04-24T02:35:49Z</time><name>658</name><sym>Flag, Blue</sym></wpt><wpt lat="15.539995" lon="73.744223"><ele>2.126427</ele><time>2025-04-24T02:37:27Z</time><name>659</name><sym>Flag, Blue</sym></wpt><wpt lat="15.540661" lon="73.745135"><ele>1.461998</ele><time>2025-04-24T02:38:06Z</time><name>660</name><sym>Flag, Blue</sym></wpt><wpt lat="15.544078" lon="73.744438"><ele>0.383018</ele><time>2025-04-24T02:40:01Z</time><name>661</name><sym>Flag, Blue</sym></wpt><wpt lat="15.547242" lon="73.744844"><ele>0.872803</ele><time>2025-04-24T02:41:43Z</time><name>662</name><sym>Flag, Blue</sym></wpt><wpt lat="15.551513" lon="73.745820"><ele>0.736359</ele><time>2025-04-24T02:43:50Z</time><name>663</name><sym>Flag, Blue</sym></wpt><wpt lat="15.558381" lon="73.744958"><ele>2.034531</ele><time>2025-04-24T02:48:03Z</time><name>664</name><sym>Flag, Blue</sym></wpt><wpt lat="15.564500" lon="73.735027"><ele>0.991051</ele><time>2025-04-24T02:53:37Z</time><name>665</name><sym>Flag, Blue</sym></wpt><wpt lat="15.565970" lon="73.731778"><ele>0.420914</ele><time>2025-04-24T02:55:18Z</time><name>666</name><sym>Flag, Blue</sym></wpt><wpt lat="15.572896" lon="73.727931"><ele>2.261177</ele><time>2025-04-24T02:59:45Z</time><name>667</name><sym>Flag, Blue</sym></wpt><wpt lat="15.581737" lon="73.729915"><ele>2.384575</ele><time>2025-04-24T03:04:06Z</time><name>668</name><sym>Flag, Blue</sym></wpt><wpt lat="15.593152" lon="73.729323"><ele>0.805893</ele><time>2025-04-24T03:09:34Z</time><name>669</name><sym>Flag, Blue</sym></wpt><wpt lat="15.598403" lon="73.722708"><ele>0.808441</ele><time>2025-04-24T03:13:55Z</time><name>670</name><sym>Flag, Blue</sym></wpt><wpt lat="15.603077" lon="73.719228"><ele>1.865822</ele><time>2025-04-24T03:17:02Z</time><name>671</name><sym>Flag, Blue</sym></wpt><wpt lat="15.607338" lon="73.719461"><ele>-0.055542</ele><time>2025-04-24T03:19:08Z</time><name>672</name><sym>Flag, Blue</sym></wpt><wpt lat="15.611577" lon="73.719772"><ele>0.627945</ele><time>2025-04-24T03:21:34Z</time><name>673</name><sym>Flag, Blue</sym></wpt><wpt lat="15.621957" lon="73.721502"><ele>1.016151</ele><time>2025-04-24T03:27:10Z</time><name>674</name><sym>Flag, Blue</sym></wpt><wpt lat="15.628689" lon="73.720827"><ele>-0.411888</ele><time>2025-04-24T03:30:55Z</time><name>675</name><sym>Flag, Blue</sym></wpt><wpt lat="15.630937" lon="73.717022"><ele>0.898857</ele><time>2025-04-24T03:33:08Z</time><name>676</name><sym>Flag, Blue</sym></wpt><wpt lat="15.631716" lon="73.715573"><ele>1.651070</ele><time>2025-04-24T03:33:58Z</time><name>677</name><sym>Flag, Blue</sym></wpt><wpt lat="15.632100" lon="73.713840"><ele>2.514046</ele><time>2025-04-24T03:34:52Z</time><name>678</name><sym>Flag, Blue</sym></wpt><wpt lat="15.634196" lon="73.710778"><ele>-0.625961</ele><time>2025-04-24T03:36:53Z</time><name>679</name><sym>Flag, Blue</sym></wpt><wpt lat="15.639524" lon="73.707169"><ele>0.047333</ele><time>2025-04-24T03:40:12Z</time><name>680</name><sym>Flag, Blue</sym></wpt><wpt lat="15.647940" lon="73.708373"><ele>1.182243</ele><time>2025-04-24T03:52:11Z</time><name>681</name><sym>Flag, Blue</sym></wpt><wpt lat="15.656652" lon="73.710120"><ele>3.198753</ele><time>2025-04-24T03:56:57Z</time><name>682</name><sym>Flag, Blue</sym></wpt><wpt lat="15.661611" lon="73.705402"><ele>3.124847</ele><time>2025-04-24T04:00:57Z</time><name>683</name><sym>Flag, Blue</sym></wpt><wpt lat="15.662018" lon="73.704724"><ele>2.209023</ele><time>2025-04-24T04:01:20Z</time><name>684</name><sym>Flag, Blue</sym></wpt><wpt lat="15.664043" lon="73.701881"><ele>1.206467</ele><time>2025-04-24T04:03:01Z</time><name>685</name><sym>Flag, Blue</sym></wpt><wpt lat="15.667936" lon="73.698041"><ele>1.253319</ele><time>2025-04-24T04:05:51Z</time><name>686</name><sym>Flag, Blue</sym></wpt><wpt lat="15.674207" lon="73.691163"><ele>1.155724</ele><time>2025-04-24T04:12:33Z</time><name>687</name><sym>Flag, Blue</sym></wpt><wpt lat="15.682558" lon="73.690975"><ele>0.745964</ele><time>2025-04-24T04:17:22Z</time><name>688</name><sym>Flag, Blue</sym></wpt><wpt lat="15.690990" lon="73.694938"><ele>2.129768</ele><time>2025-04-24T04:24:11Z</time><name>689</name><sym>Flag, Blue</sym></wpt><wpt lat="15.695049" lon="73.691421"><ele>3.654449</ele><time>2025-04-24T04:28:14Z</time><name>690</name><sym>Flag, Blue</sym></wpt><wpt lat="15.698329" lon="73.682040"><ele>3.671860</ele><time>2025-04-24T04:33:13Z</time><name>691</name><sym>Flag, Blue</sym></wpt><wpt lat="15.701859" lon="73.677061"><ele>2.650917</ele><time>2025-04-24T04:37:30Z</time><name>692</name><sym>Flag, Blue</sym></wpt><wpt lat="15.709139" lon="73.680514"><ele>2.189743</ele><time>2025-04-24T04:41:28Z</time><name>693</name><sym>Flag, Blue</sym></wpt><wpt lat="15.712895" lon="73.682417"><ele>2.646507</ele><time>2025-04-24T04:43:32Z</time><name>694</name><sym>Flag, Blue</sym></wpt><wpt lat="15.714567" lon="73.683911"><ele>2.230453</ele><time>2025-04-24T04:44:43Z</time><name>695</name><sym>Flag, Blue</sym></wpt><wpt lat="15.711923" lon="73.685951"><ele>2.433128</ele><time>2025-04-24T04:46:26Z</time><name>696</name><sym>Flag, Blue</sym></wpt><wpt lat="15.704732" lon="73.690031"><ele>2.705345</ele><time>2025-04-24T04:50:16Z</time><name>697</name><sym>Flag, Blue</sym></wpt><wpt lat="15.698058" lon="73.689803"><ele>3.624702</ele><time>2025-04-24T04:53:37Z</time><name>698</name><sym>Flag, Blue</sym></wpt><wpt lat="15.695391" lon="73.689001"><ele>2.741516</ele><time>2025-04-24T04:54:57Z</time><name>699</name><sym>Flag, Blue</sym></wpt><wpt lat="15.689660" lon="73.687422"><ele>2.847031</ele><time>2025-04-24T04:57:45Z</time><name>700</name><sym>Flag, Blue</sym></wpt><wpt lat="15.681037" lon="73.685187"><ele>2.785965</ele><time>2025-04-24T05:01:57Z</time><name>701</name><sym>Flag, Blue</sym></wpt><wpt lat="15.678249" lon="73.685891"><ele>2.480103</ele><time>2025-04-24T05:03:33Z</time><name>702</name><sym>Flag, Blue</sym></wpt><wpt lat="15.667128" lon="73.696061"><ele>5.598808</ele><time>2025-04-24T05:10:33Z</time><name>703</name><sym>Flag, Blue</sym></wpt><wpt lat="15.661743" lon="73.702429"><ele>3.856834</ele><time>2025-04-24T05:14:19Z</time><name>704</name><sym>Flag, Blue</sym></wpt><wpt lat="15.655039" lon="73.709277"><ele>6.920128</ele><time>2025-04-24T05:18:42Z</time><name>705</name><sym>Flag, Blue</sym></wpt><wpt lat="15.647187" lon="73.711303"><ele>5.800667</ele><time>2025-04-24T05:23:01Z</time><name>706</name><sym>Flag, Blue</sym></wpt><wpt lat="15.640447" lon="73.709476"><ele>4.579597</ele><time>2025-04-24T05:26:22Z</time><name>707</name><sym>Flag, Blue</sym></wpt><wpt lat="15.631750" lon="73.706806"><ele>5.433350</ele><time>2025-04-24T05:31:47Z</time><name>708</name><sym>Flag, Blue</sym></wpt><wpt lat="15.629654" lon="73.706709"><ele>5.814018</ele><time>2025-04-24T05:33:02Z</time><name>709</name><sym>Flag, Blue</sym></wpt><wpt lat="15.622449" lon="73.709899"><ele>8.192886</ele><time>2025-04-24T05:37:17Z</time><name>710</name><sym>Flag, Blue</sym></wpt><wpt lat="15.615445" lon="73.718217"><ele>8.527809</ele><time>2025-04-24T05:42:10Z</time><name>711</name><sym>Flag, Blue</sym></wpt><wpt lat="15.610444" lon="73.723250"><ele>8.151825</ele><time>2025-04-24T05:45:43Z</time><name>712</name><sym>Flag, Blue</sym></wpt><wpt lat="15.607884" lon="73.726079"><ele>6.161308</ele><time>2025-04-24T05:49:22Z</time><name>713</name><sym>Flag, Blue</sym></wpt></gpx>