<?xml version="1.0" encoding="UTF-8" standalone="no" ?><gpx xmlns="http://www.topografix.com/GPX/1/1" xmlns:gpxx="http://www.garmin.com/xmlschemas/GpxExtensions/v3" xmlns:wptx1="http://www.garmin.com/xmlschemas/WaypointExtension/v1" xmlns:gpxtpx="http://www.garmin.com/xmlschemas/TrackPointExtension/v1" creator="eTrex 10 SEA" version="1.1" xmlns:xsi="http://www.w3.org/2001/XMLSchema-instance" xsi:schemaLocation="http://www.topografix.com/GPX/1/1 http://www.topografix.com/GPX/1/1/gpx.xsd http://www.garmin.com/xmlschemas/GpxExtensions/v3 http://www8.garmin.com/xmlschemas/GpxExtensionsv3.xsd http://www.garmin.com/xmlschemas/WaypointExtension/v1 http://www8.garmin.com/xmlschemas/WaypointExtensionv1.xsd http://www.garmin.com/xmlschemas/TrackPointExtension/v1 http://www.garmin.com/xmlschemas/TrackPointExtensionv1.xsd"><metadata><link href="http://www.garmin.com"><text>Garmin International</text></link><time>2025-04-19T01:19:41Z</time></metadata><wpt lat="15.611936" lon="73.737992"><ele>0.073914</ele><time>2025-04-19T01:19:41Z</time><name>344</name><sym>Flag, Blue</sym></wpt><wpt lat="15.605711" lon="73.727711"><ele>-0.156830</ele><time>2025-04-19T01:25:16Z</time><name>345</name><sym>Flag, Blue</sym></wpt><wpt lat="15.598133" lon="73.723752"><ele>-0.952271</ele><time>2025-04-19T01:31:03Z</time><name>346</name><sym>Flag, Blue</sym></wpt><wpt lat="15.589490" lon="73.717376"><ele>-1.561691</ele><time>2025-04-19T01:36:30Z</time><name>347</name><sym>Flag, Blue</sym></wpt><wpt lat="15.581717" lon="73.723847"><ele>1.068169</ele><time>2025-04-19T01:43:16Z</time><name>348</name><sym>Flag, Blue</sym></wpt><wpt lat="15.578668" lon="73.728659"><ele>1.434692</ele><time>2025-04-19T01:46:36Z</time><name>349</name><sym>Flag, Blue</sym></wpt><wpt lat="15.565991" lon="73.726783"><ele>0.379234</ele><time>2025-04-19T01:57:22Z</time><name>350</name><sym>Flag, Blue</sym></wpt><wpt lat="15.565847" lon="73.726666"><ele>0.215492</ele><time>2025-04-19T01:57:28Z</time><name>351</name><sym>Flag, Blue</sym></wpt><wpt lat="15.559827" lon="73.725286"><ele>-0.742805</ele><time>2025-04-19T02:01:44Z</time><name>352</name><sym>Flag, Blue</sym></wpt><wpt lat="15.557544" lon="73.728720"><ele>0.819221</ele><time>2025-04-19T02:04:01Z</time><name>353</name><sym>Flag, Blue</sym></wpt><wpt lat="15.553797" lon="73.734700"><ele>-1.286697</ele><time>2025-04-19T02:07:54Z</time><name>354</name><sym>Flag, Blue</sym></wpt><wpt lat="15.551202" lon="73.743676"><ele>-1.152962</ele><time>2025-04-19T02:13:15Z</time><name>355</name><sym>Flag, Blue</sym></wpt><wpt lat="15.546688" lon="73.746332"><ele>-0.856735</ele><time>2025-04-19T02:18:55Z</time><name>356</name><sym>Flag, Blue</sym></wpt><wpt lat="15.540707" lon="73.741806"><ele>-0.189758</ele><time>2025-04-19T02:23:03Z</time><name>357</name><sym>Flag, Blue</sym></wpt><wpt lat="15.539023" lon="73.740419"><ele>-0.211784</ele><time>2025-04-19T02:24:15Z</time><name>358</name><sym>Flag, Blue</sym></wpt><wpt lat="15.534243" lon="73.737883"><ele>0.611626</ele><time>2025-04-19T02:27:14Z</time><name>359</name><sym>Flag, Blue</sym></wpt><wpt lat="15.527917" lon="73.737914"><ele>0.617355</ele><time>2025-04-19T02:32:20Z</time><name>360</name><sym>Flag, Blue</sym></wpt><wpt lat="15.527507" lon="73.747927"><ele>0.818398</ele><time>2025-04-19T02:38:45Z</time><name>361</name><sym>Flag, Blue</sym></wpt><wpt lat="15.526531" lon="73.756709"><ele>1.305084</ele><time>2025-04-19T02:44:39Z</time><name>362</name><sym>Flag, Blue</sym></wpt><wpt lat="15.516212" lon="73.748334"><ele>-1.517159</ele><time>2025-04-19T02:52:46Z</time><name>363</name><sym>Flag, Blue</sym></wpt><wpt lat="15.505071" lon="73.754835"><ele>0.282204</ele><time>2025-04-19T03:02:02Z</time><name>364</name><sym>Flag, Blue</sym></wpt><wpt lat="15.499399" lon="73.760378"><ele>0.257095</ele><time>2025-04-19T03:06:52Z</time><name>365</name><sym>Flag, Blue</sym></wpt><wpt lat="15.492766" lon="73.764326"><ele>-0.302681</ele><time>2025-04-19T03:11:41Z</time><name>366</name><sym>Flag, Blue</sym></wpt><wpt lat="15.487750" lon="73.773036"><ele>1.915260</ele><time>2025-04-19T03:18:39Z</time><name>367</name><sym>Flag, Blue</sym></wpt><wpt lat="15.489756" lon="73.780979"><ele>0.301079</ele><time>2025-04-19T03:25:28Z</time><name>368</name><sym>Flag, Blue</sym></wpt><wpt lat="15.488972" lon="73.787564"><ele>0.386124</ele><time>2025-04-19T03:30:21Z</time><name>369</name><sym>Flag, Blue</sym></wpt><wpt lat="15.480569" lon="73.788552"><ele>0.313705</ele><time>2025-04-19T03:35:10Z</time><name>370</name><sym>Flag, Blue</sym></wpt><wpt lat="15.471251" lon="73.789027"><ele>1.195030</ele><time>2025-04-19T03:39:52Z</time><name>371</name><sym>Flag, Blue</sym></wpt><wpt lat="15.464065" lon="73.793799"><ele>2.628998</ele><time>2025-04-19T03:43:42Z</time><name>372</name><sym>Flag, Blue</sym></wpt><wpt lat="15.462212" lon="73.797593"><ele>2.551483</ele><time>2025-04-19T03:47:10Z</time><name>373</name><sym>Flag, Blue</sym></wpt></gpx>