<?xml version="1.0" encoding="UTF-8" standalone="no" ?><gpx xmlns="http://www.topografix.com/GPX/1/1" xmlns:gpxx="http://www.garmin.com/xmlschemas/GpxExtensions/v3" xmlns:wptx1="http://www.garmin.com/xmlschemas/WaypointExtension/v1" xmlns:gpxtpx="http://www.garmin.com/xmlschemas/TrackPointExtension/v1" creator="eTrex 10 SEA" version="1.1" xmlns:xsi="http://www.w3.org/2001/XMLSchema-instance" xsi:schemaLocation="http://www.topografix.com/GPX/1/1 http://www.topografix.com/GPX/1/1/gpx.xsd http://www.garmin.com/xmlschemas/GpxExtensions/v3 http://www8.garmin.com/xmlschemas/GpxExtensionsv3.xsd http://www.garmin.com/xmlschemas/WaypointExtension/v1 http://www8.garmin.com/xmlschemas/WaypointExtensionv1.xsd http://www.garmin.com/xmlschemas/TrackPointExtension/v1 http://www.garmin.com/xmlschemas/TrackPointExtensionv1.xsd"><metadata><link href="http://www.garmin.com"><text>Garmin International</text></link><time>2025-04-21T01:02:15Z</time></metadata><wpt lat="15.142699" lon="73.946205"><ele>-6.620911</ele><time>2025-04-21T01:02:15Z</time><name>459</name><sym>Flag, Blue</sym></wpt><wpt lat="15.138958" lon="73.938997"><ele>1.106224</ele><time>2025-04-21T01:06:36Z</time><name>460</name><sym>Flag, Blue</sym></wpt><wpt lat="15.134373" lon="73.929581"><ele>-0.134895</ele><time>2025-04-21T01:11:26Z</time><name>461</name><sym>Flag, Blue</sym></wpt><wpt lat="15.134350" lon="73.928229"><ele>0.446648</ele><time>2025-04-21T01:12:49Z</time><name>462</name><sym>Flag, Blue</sym></wpt><wpt lat="15.134034" lon="73.927637"><ele>0.062355</ele><time>2025-04-21T01:14:00Z</time><name>463</name><sym>Flag, Blue</sym></wpt><wpt lat="15.132110" lon="73.922980"><ele>0.830223</ele><time>2025-04-21T01:16:46Z</time><name>464</name><sym>Flag, Blue</sym></wpt><wpt lat="15.123711" lon="73.923174"><ele>1.046570</ele><time>2025-04-21T01:20:57Z</time><name>465</name><sym>Flag, Blue</sym></wpt><wpt lat="15.115026" lon="73.925220"><ele>-0.070976</ele><time>2025-04-21T01:25:24Z</time><name>466</name><sym>Flag, Blue</sym></wpt><wpt lat="15.113376" lon="73.920044"><ele>-1.553246</ele><time>2025-04-21T01:30:01Z</time><name>467</name><sym>Flag, Blue</sym></wpt><wpt lat="15.113138" lon="73.911983"><ele>-0.988716</ele><time>2025-04-21T01:34:11Z</time><name>468</name><sym>Flag, Blue</sym></wpt><wpt lat="15.107722" lon="73.914893"><ele>-2.076286</ele><time>2025-04-21T01:37:10Z</time><name>469</name><sym>Flag, Blue</sym></wpt><wpt lat="15.105425" lon="73.917377"><ele>-0.837921</ele><time>2025-04-21T01:38:48Z</time><name>470</name><sym>Flag, Blue</sym></wpt><wpt lat="15.093337" lon="73.912913"><ele>-1.110405</ele><time>2025-04-21T01:48:32Z</time><name>471</name><sym>Flag, Blue</sym></wpt><wpt lat="15.092286" lon="73.910979"><ele>-1.397949</ele><time>2025-04-21T01:49:34Z</time><name>472</name><sym>Flag, Blue</sym></wpt><wpt lat="15.090589" lon="73.907074"><ele>-0.599144</ele><time>2025-04-21T01:51:34Z</time><name>473</name><sym>Flag, Blue</sym></wpt><wpt lat="15.089609" lon="73.904920"><ele>-0.093491</ele><time>2025-04-21T01:52:40Z</time><name>474</name><sym>Flag, Blue</sym></wpt><wpt lat="15.086706" lon="73.903115"><ele>-0.289200</ele><time>2025-04-21T01:55:58Z</time><name>475</name><sym>Flag, Blue</sym></wpt><wpt lat="15.085780" lon="73.905453"><ele>-0.596085</ele><time>2025-04-21T01:57:11Z</time><name>476</name><sym>Flag, Blue</sym></wpt><wpt lat="15.084695" lon="73.908005"><ele>-1.093735</ele><time>2025-04-21T01:58:36Z</time><name>477</name><sym>Flag, Blue</sym></wpt><wpt lat="15.083838" lon="73.909620"><ele>-0.882378</ele><time>2025-04-21T01:59:29Z</time><name>478</name><sym>Flag, Blue</sym></wpt><wpt lat="15.082280" lon="73.911928"><ele>-0.751656</ele><time>2025-04-21T02:01:22Z</time><name>479</name><sym>Flag, Blue</sym></wpt><wpt lat="15.081435" lon="73.913670"><ele>-0.309807</ele><time>2025-04-21T02:02:27Z</time><name>480</name><sym>Flag, Blue</sym></wpt><wpt lat="15.077697" lon="73.921321"><ele>0.801384</ele><time>2025-04-21T02:07:01Z</time><name>481</name><sym>Flag, Blue</sym></wpt><wpt lat="15.074925" lon="73.928469"><ele>0.943428</ele><time>2025-04-21T02:11:05Z</time><name>482</name><sym>Flag, Blue</sym></wpt><wpt lat="15.063423" lon="73.931410"><ele>0.480942</ele><time>2025-04-21T02:17:38Z</time><name>483</name><sym>Flag, Blue</sym></wpt><wpt lat="15.058473" lon="73.932109"><ele>0.471413</ele><time>2025-04-21T02:20:14Z</time><name>484</name><sym>Flag, Blue</sym></wpt><wpt lat="15.057631" lon="73.935968"><ele>1.394119</ele><time>2025-04-21T02:22:10Z</time><name>485</name><sym>Flag, Blue</sym></wpt><wpt lat="15.057396" lon="73.937250"><ele>2.198807</ele><time>2025-04-21T02:22:48Z</time><name>486</name><sym>Flag, Blue</sym></wpt><wpt lat="15.056270" lon="73.942060"><ele>2.377792</ele><time>2025-04-21T02:25:20Z</time><name>487</name><sym>Flag, Blue</sym></wpt><wpt lat="15.055598" lon="73.953828"><ele>0.941170</ele><time>2025-04-21T02:31:39Z</time><name>488</name><sym>Flag, Blue</sym></wpt><wpt lat="15.057198" lon="73.963335"><ele>1.002174</ele><time>2025-04-21T02:36:42Z</time><name>489</name><sym>Flag, Blue</sym></wpt><wpt lat="15.052736" lon="73.963461"><ele>0.053703</ele><time>2025-04-21T02:39:57Z</time><name>490</name><sym>Flag, Blue</sym></wpt><wpt lat="15.044759" lon="73.959634"><ele>1.265457</ele><time>2025-04-21T02:44:40Z</time><name>491</name><sym>Flag, Blue</sym></wpt><wpt lat="15.042734" lon="73.963068"><ele>1.534729</ele><time>2025-04-21T02:48:51Z</time><name>492</name><sym>Flag, Blue</sym></wpt><wpt lat="15.041375" lon="73.968607"><ele>1.468567</ele><time>2025-04-21T02:51:53Z</time><name>493</name><sym>Flag, Blue</sym></wpt><wpt lat="15.040087" lon="73.974931"><ele>2.765984</ele><time>2025-04-21T02:55:19Z</time><name>494</name><sym>Flag, Blue</sym></wpt><wpt lat="15.038602" lon="73.980922"><ele>3.519745</ele><time>2025-04-21T02:58:34Z</time><name>495</name><sym>Flag, Blue</sym></wpt><wpt lat="15.032857" lon="73.979256"><ele>2.717308</ele><time>2025-04-21T03:02:26Z</time><name>496</name><sym>Flag, Blue</sym></wpt><wpt lat="15.030463" lon="73.977633"><ele>1.829048</ele><time>2025-04-21T03:03:59Z</time><name>497</name><sym>Flag, Blue</sym></wpt><wpt lat="15.021131" lon="73.971745"><ele>1.327156</ele><time>2025-04-21T03:10:01Z</time><name>498</name><sym>Flag, Blue</sym></wpt><wpt lat="15.017921" lon="73.974018"><ele>1.044891</ele><time>2025-04-21T03:13:35Z</time><name>499</name><sym>Flag, Blue</sym></wpt><wpt lat="15.015746" lon="73.982992"><ele>0.040977</ele><time>2025-04-21T03:18:38Z</time><name>500</name><sym>Flag, Blue</sym></wpt><wpt lat="15.013826" lon="73.991762"><ele>0.184906</ele><time>2025-04-21T03:23:32Z</time><name>501</name><sym>Flag, Blue</sym></wpt><wpt lat="15.010624" lon="74.000663"><ele>0.781158</ele><time>2025-04-21T03:28:37Z</time><name>502</name><sym>Flag, Blue</sym></wpt><wpt lat="15.010716" lon="74.006376"><ele>2.320595</ele><time>2025-04-21T03:31:51Z</time><name>503</name><sym>Flag, Blue</sym></wpt><wpt lat="15.007809" lon="74.007024"><ele>-0.310020</ele><time>2025-04-21T03:33:33Z</time><name>504</name><sym>Flag, Blue</sym></wpt><wpt lat="14.998873" lon="74.006040"><ele>1.714951</ele><time>2025-04-21T03:38:26Z</time><name>505</name><sym>Flag, Blue</sym></wpt><wpt lat="14.994543" lon="74.012806"><ele>2.302719</ele><time>2025-04-21T03:43:27Z</time><name>506</name><sym>Flag, Blue</sym></wpt><wpt lat="14.991029" lon="74.021393"><ele>1.508316</ele><time>2025-04-21T03:48:28Z</time><name>507</name><sym>Flag, Blue</sym></wpt><wpt lat="14.987659" lon="74.030034"><ele>1.957970</ele><time>2025-04-21T03:53:21Z</time><name>508</name><sym>Flag, Blue</sym></wpt><wpt lat="14.983316" lon="74.029270"><ele>3.769440</ele><time>2025-04-21T03:56:25Z</time><name>509</name><sym>Flag, Blue</sym></wpt><wpt lat="14.973161" lon="74.022898"><ele>3.976662</ele><time>2025-04-21T04:02:57Z</time><name>510</name><sym>Flag, Blue</sym></wpt><wpt lat="14.970713" lon="74.023291"><ele>6.149445</ele><time>2025-04-21T04:05:05Z</time><name>511</name><sym>Flag, Blue</sym></wpt><wpt lat="14.963809" lon="74.036327"><ele>4.945847</ele><time>2025-04-21T04:12:23Z</time><name>512</name><sym>Flag, Blue</sym></wpt><wpt lat="14.961712" lon="74.041888"><ele>4.181190</ele><time>2025-04-21T04:14:57Z</time><name>513</name><sym>Flag, Blue</sym></wpt><wpt lat="14.949738" lon="74.039021"><ele>4.278526</ele><time>2025-04-21T04:21:16Z</time><name>514</name><sym>Flag, Blue</sym></wpt><wpt lat="14.941548" lon="74.035012"><ele>4.960571</ele><time>2025-04-21T04:25:23Z</time><name>515</name><sym>Flag, Blue</sym></wpt><wpt lat="14.935644" lon="74.033374"><ele>5.007240</ele><time>2025-04-21T04:28:21Z</time><name>516</name><sym>Flag, Blue</sym></wpt><wpt lat="14.925438" lon="74.038693"><ele>4.049568</ele><time>2025-04-21T04:33:21Z</time><name>517</name><sym>Flag, Blue</sym></wpt><wpt lat="14.918539" lon="74.042434"><ele>2.139023</ele><time>2025-04-21T04:36:49Z</time><name>518</name><sym>Flag, Blue</sym></wpt><wpt lat="14.923412" lon="74.041419"><ele>1.265945</ele><time>2025-04-21T04:40:35Z</time><name>519</name><sym>Flag, Blue</sym></wpt><wpt lat="14.931618" lon="74.040221"><ele>2.566025</ele><time>2025-04-21T04:44:21Z</time><name>520</name><sym>Flag, Blue</sym></wpt><wpt lat="14.940121" lon="74.038098"><ele>3.327156</ele><time>2025-04-21T04:48:25Z</time><name>521</name><sym>Flag, Blue</sym></wpt><wpt lat="14.947354" lon="74.030977"><ele>2.597298</ele><time>2025-04-21T04:53:16Z</time><name>522</name><sym>Flag, Blue</sym></wpt><wpt lat="14.965437" lon="74.031642"><ele>4.210503</ele><time>2025-04-21T05:01:27Z</time><name>523</name><sym>Flag, Blue</sym></wpt><wpt lat="14.972572" lon="74.032095"><ele>1.408531</ele><time>2025-04-21T05:04:46Z</time><name>524</name><sym>Flag, Blue</sym></wpt><wpt lat="14.981489" lon="74.032211"><ele>2.110786</ele><time>2025-04-21T05:08:56Z</time><name>525</name><sym>Flag, Blue</sym></wpt><wpt lat="14.984683" lon="74.036110"><ele>2.313637</ele><time>2025-04-21T05:11:51Z</time><name>526</name><sym>Flag, Blue</sym></wpt></gpx>